station,valid,tmpf,dwpf,relh,drct,sknt,p01i,alti,mslp,vsby,gust,skyc1,skyc2,skyc3,skyc4,skyl1,skyl2,skyl3,skyl4,wxcodes,ice_accretion_1hr,ice_accretion_3hr,ice_accretion_6hr,peak_wind_gust,peak_wind_drct,peak_wind_time,feel,metar,snowdepth
EWR,2023-01-01 00:51,53.00,51.00,92.89,220.00,6.00,T,29.75,1007.20,3.00,M,BKN,BKN,OVC,M,600.00,4700.00,12000.00,M,-RA BR,M,M,M,M,M,M,53.10,KEWR 010551Z 22006KT 3SM -RA BR BKN006 BKN047 OVC120 12/11 A2975 RMK AO2 RAE19B48 SLP072 P0000 60021 T01170106 10122 20106 55012,M
EWR,2023-01-01 01:36,52.00,50.00,92.86,230.00,7.00,T,29.74,M,5.00,M,SCT,SCT,BKN,OVC,600.00,4700.00,12000.00,25000.00,BR,M,M,M,M,M,M,52.00,KEWR 010636Z 23007KT 5SM BR SCT006 SCT047 BKN120 OVC250 11/10 A2974 RMK AO2 RAE35 P0000 T01110100,M
EWR,2023-01-01 01:51,51.00,49.00,92.14,210.00,5.00,T,29.75,1007.20,5.00,M,FEW,SCT,BKN,OVC,600.00,4700.00,12000.00,25000.00,BR,M,M,M,M,M,M,51.10,KEWR 010651Z 21005KT 5SM BR FEW006 SCT047 BKN120 OVC250 11/09 A2975 RMK AO2 RAE35 SLP072 P0000 T01060094,M
EWR,2023-01-01 02:51,49.00,47.00,92.77,210.00,5.00,0.00,29.77,1008.10,4.00,M,FEW,SCT,BKN,BKN,900.00,4000.00,12000.00,25000.00,BR,M,M,M,M,M,M,46.47,KEWR 010751Z 21005KT 4SM BR FEW009 SCT040 BKN120 BKN250 09/08 A2977 RMK AO2 SLP081 T00940083,M
EWR,2023-01-01 03:51,48.00,46.00,92.74,220.00,4.00,0.00,29.78,1008.40,5.00,M,FEW,SCT,BKN,BKN,900.00,4000.00,12000.00,25000.00,BR,M,M,M,M,M,M,46.10,KEWR 010851Z 22004KT 5SM BR FEW009 SCT040 BKN120 BKN250 09/08 A2978 RMK AO2 SLP084 60000 T00890078 53012,M
EWR,2023-01-01 04:51,49.00,47.00,92.77,200.00,7.00,0.00,29.80,1008.90,5.00,M,FEW,FEW,BKN,M,1000.00,12000.00,25000.00,M,BR,M,M,M,M,M,M,45.38,KEWR 010951Z 20007KT 5SM BR FEW010 FEW120 BKN250 09/08 A2980 RMK AO2 SLP089 T00940083,M
EWR,2023-01-01 05:51,48.00,46.00,92.74,220.00,9.00,0.00,29.82,1009.80,7.00,M,FEW,FEW,BKN,M,3500.00,12000.00,25000.00,M,M,M,M,M,M,M,M,43.41,KEWR 011051Z 22009KT 7SM FEW035 FEW120 BKN250 09/08 A2982 RMK AO2 SLP098 T00890078,M
EWR,2023-01-01 06:51,48.00,46.00,92.74,230.00,8.00,0.00,29.85,1010.60,8.00,M,FEW,SCT,M,M,1500.00,25000.00,M,M,M,M,M,M,M,M,M,43.82,KEWR 011151Z 23008KT 8SM FEW015 SCT250 09/08 A2985 RMK AO2 SLP106 60000 70026 T00890078 10117 20078 53021,M
EWR,2023-01-01 07:51,47.00,44.00,89.92,220.00,9.00,0.00,29.88,1011.60,7.00,M,FEW,SCT,BKN,M,2000.00,15000.00,25000.00,M,M,M,M,M,M,M,M,42.04,KEWR 011251Z 22009KT 7SM FEW020 SCT150 BKN250 08/07 A2988 RMK AO2 PRESRR SLP116 T00830067,M
EWR,2023-01-01 08:51,51.00,46.00,82.62,220.00,5.00,0.00,29.89,1012.10,10.00,M,FEW,FEW,BKN,M,2500.00,15000.00,25000.00,M,M,M,M,M,M,M,M,51.10,KEWR 011351Z 22005KT 10SM FEW025 FEW150 BKN250 11/08 A2989 RMK AO2 SLP121 T01060078,M
EWR,2023-01-01 09:51,54.00,43.00,66.24,280.00,10.00,0.00,29.93,1013.60,10.00,M,FEW,FEW,BKN,M,3000.00,15000.00,25000.00,M,M,M,M,M,M,M,M,54.00,KEWR 011451Z 28010KT 10SM FEW030 FEW150 BKN250 12/06 A2993 RMK AO2 SLP136 T01220061 53030,M
EWR,2023-01-01 10:51,55.00,41.00,59.13,280.00,13.00,0.00,29.95,1014.00,10.00,M,SCT,SCT,BKN,M,3000.00,15000.00,25000.00,M,M,M,M,M,M,M,M,55.00,KEWR 011551Z 28013KT 10SM SCT030 SCT150 BKN250 13/05 A2995 RMK AO2 SLP140 T01280050,M
EWR,2023-01-01 11:51,56.00,38.00,50.71,300.00,8.00,0.00,29.93,1013.30,10.00,M,FEW,SCT,SCT,M,3000.00,15000.00,25000.00,M,M,M,M,M,M,M,M,55.90,KEWR 011651Z 30008KT 10SM FEW030 SCT150 SCT250 13/03 A2993 RMK AO2 SLP133 T01330033,M
EWR,2023-01-01 12:51,56.00,35.00,45.40,280.00,16.00,0.00,29.93,1013.60,10.00,M,FEW,FEW,FEW,M,3300.00,15000.00,25000.00,M,M,M,M,M,M,M,M,55.90,KEWR 011751Z 28016KT 10SM FEW033 FEW150 FEW250 13/02 A2993 RMK AO2 SLP136 T01330017 10139 20072 58000,M
EWR,2023-01-01 13:51,57.00,33.00,40.28,280.00,10.00,0.00,29.93,1013.30,10.00,M,FEW,FEW,SCT,M,3500.00,13000.00,25000.00,M,M,M,M,M,M,M,M,57.00,KEWR 011851Z 28010KT 10SM FEW035 FEW130 SCT250 14/01 A2993 RMK AO2 SLP133 T01390006,M
EWR,2023-01-01 14:51,57.00,32.00,38.54,310.00,9.00,0.00,29.94,1013.70,10.00,M,FEW,SCT,BKN,M,4000.00,15000.00,25000.00,M,M,M,M,M,M,M,M,57.00,KEWR 011951Z 31009KT 10SM FEW040 SCT150 BKN250 14/00 A2994 RMK AO2 SLP137 T01390000,M
EWR,2023-01-01 15:51,57.00,33.00,40.28,260.00,8.00,0.00,29.95,1014.10,10.00,M,FEW,SCT,BKN,M,4000.00,12000.00,25000.00,M,M,M,M,M,M,M,M,57.00,KEWR 012051Z 26008KT 10SM FEW040 SCT120 BKN250 14/01 A2995 RMK AO2 SLP141 T01390006 53005,M
EWR,2023-01-01 16:51,54.00,36.00,50.42,240.00,6.00,0.00,29.95,1014.20,10.00,M,FEW,BKN,BKN,M,4000.00,12000.00,25000.00,M,M,M,M,M,M,M,M,54.00,KEWR 012151Z 24006KT 10SM FEW040 BKN120 BKN250 12/02 A2995 RMK AO2 SLP142 T01220022,M
EWR,2023-01-01 17:51,49.00,36.00,60.88,210.00,4.00,0.00,29.96,1014.50,10.00,M,FEW,BKN,BKN,M,4500.00,11000.00,25000.00,M,M,M,M,M,M,M,M,47.16,KEWR 012251Z 21004KT 10SM FEW045 BKN110 BKN250 09/02 A2996 RMK AO2 SLP145 T00940022,M
EWR,2023-01-01 18:51,52.00,35.00,52.36,260.00,7.00,0.00,30.01,1016.00,10.00,M,FEW,BKN,M,M,11000.00,25000.00,M,M,M,M,M,M,M,M,M,52.00,KEWR 012351Z 26007KT 10SM FEW110 BKN250 11/02 A3001 RMK AO2 SLP160 T01110017 10144 20094 53019,M
EWR,2023-01-01 19:51,49.00,35.00,58.75,210.00,3.00,0.00,30.01,1016.20,10.00,M,SCT,SCT,M,M,10000.00,25000.00,M,M,M,M,M,M,M,M,M,48.01,KEWR 020051Z 21003KT 10SM SCT100 SCT250 09/02 A3001 RMK AO2 SLP162 T00940017,M
EWR,2023-01-01 20:51,46.00,35.00,65.52,220.00,4.00,0.00,30.03,1016.80,10.00,M,BKN,BKN,M,M,9500.00,25000.00,M,M,M,M,M,M,M,M,M,43.77,KEWR 020151Z 22004KT 10SM BKN095 BKN250 08/02 A3003 RMK AO2 SLP168 T00780017,M
EWR,2023-01-01 21:51,49.00,37.00,63.34,220.00,4.00,0.00,30.04,1017.00,10.00,M,FEW,OVC,M,M,5500.00,9500.00,M,M,M,M,M,M,M,M,M,47.16,KEWR 020251Z 22004KT 10SM FEW055 OVC095 09/03 A3004 RMK AO2 SLP170 T00940028 52010,M
EWR,2023-01-01 22:51,50.00,36.00,58.44,240.00,4.00,0.00,30.04,1017.10,10.00,M,BKN,OVC,M,M,5500.00,9500.00,M,M,M,M,M,M,M,M,M,50.00,KEWR 020351Z 24004KT 10SM BKN055 OVC095 10/02 A3004 RMK AO2 SLP171 T01000022,M
EWR,2023-01-01 23:51,48.00,37.00,65.51,200.00,3.00,0.00,30.03,1017.00,10.00,M,BKN,OVC,M,M,5500.00,8500.00,M,M,M,M,M,M,M,M,M,46.98,KEWR 020451Z 20003KT 10SM BKN055 OVC085 09/03 A3003 RMK AO2 SLP170 T00890028 401440072,M
EWR,2023-01-02 00:51,48.00,37.00,65.51,240.00,3.00,0.00,30.03,1016.90,10.00,M,FEW,BKN,BKN,M,4400.00,6000.00,9000.00,M,M,M,M,M,M,M,M,46.98,KEWR 020551Z 24003KT 10SM FEW044 BKN060 BKN090 09/03 A3003 RMK AO2 SLP169 T00890028 10111 20078 58001,M
EWR,2023-01-02 01:51,47.00,37.00,68.27,200.00,3.00,0.00,30.04,1017.10,10.00,M,FEW,BKN,BKN,BKN,4200.00,5500.00,10000.00,22000.00,M,M,M,M,M,M,M,45.72,KEWR 020651Z 20003KT 10SM FEW042 BKN055 BKN100 BKN220 08/03 A3004 RMK AO2 SLP171 T00830028,M
EWR,2023-01-02 02:51,45.00,36.00,70.53,220.00,3.00,0.00,30.07,1018.20,10.00,M,FEW,FEW,BKN,BKN,4200.00,9000.00,20000.00,25000.00,M,M,M,M,M,M,M,43.55,KEWR 020751Z 22003KT 10SM FEW042 FEW090 BKN200 BKN250 07/02 A3007 RMK AO2 SLP182 T00720022,M
EWR,2023-01-02 03:51,45.00,37.00,73.37,0.00,0.00,0.00,30.06,1018.00,10.00,M,FEW,BKN,BKN,M,4500.00,20000.00,25000.00,M,M,M,M,M,M,M,M,45.00,KEWR 020851Z 00000KT 10SM FEW045 BKN200 BKN250 07/03 A3006 RMK AO2 SLP180 T00720028 50011,M
EWR,2023-01-02 04:51,44.00,37.00,75.93,0.00,0.00,0.00,30.08,1018.40,10.00,M,FEW,BKN,BKN,M,5000.00,18000.00,24000.00,M,M,M,M,M,M,M,M,44.10,KEWR 020951Z 00000KT 10SM FEW050 BKN180 BKN240 07/03 A3008 RMK AO2 SLP184 T00670028,M
EWR,2023-01-02 05:51,43.00,37.00,79.19,210.00,4.00,0.00,30.08,1018.60,10.00,M,BKN,BKN,M,M,14000.00,21000.00,M,M,M,M,M,M,M,M,M,40.27,KEWR 021051Z 21004KT 10SM BKN140 BKN210 06/03 A3008 RMK AO2 SLP186 T00610028,M
EWR,2023-01-02 06:51,44.00,37.00,75.93,230.00,6.00,0.00,30.11,1019.50,10.00,M,BKN,BKN,M,M,14000.00,21000.00,M,M,M,M,M,M,M,M,M,40.10,KEWR 021151Z 23006KT 10SM BKN140 BKN210 07/03 A3011 RMK AO2 SLP195 T00670028 10089 20061 53015,M
EWR,2023-01-02 07:51,46.00,37.00,70.64,240.00,5.00,0.00,30.13,1020.10,10.00,M,FEW,BKN,BKN,M,10000.00,17000.00,23000.00,M,M,M,M,M,M,M,M,43.02,KEWR 021251Z 24005KT 10SM FEW100 BKN170 BKN230 08/03 A3013 RMK AO2 SLP201 T00780028,M
EWR,2023-01-02 08:51,45.00,38.00,76.01,240.00,6.00,0.00,30.15,1020.70,10.00,M,FEW,BKN,BKN,M,10000.00,17000.00,23000.00,M,M,M,M,M,M,M,M,41.19,KEWR 021351Z 24006KT 10SM FEW100 BKN170 BKN230 07/03 A3015 RMK AO2 SLP207 T00720033,M
EWR,2023-01-02 09:51,48.00,40.00,73.38,230.00,5.00,0.00,30.15,1020.80,10.00,M,FEW,BKN,BKN,M,10000.00,16000.00,25000.00,M,M,M,M,M,M,M,M,45.40,KEWR 021451Z 23005KT 10SM FEW100 BKN160 BKN250 09/04 A3015 RMK AO2 SLP208 T00890044 51013,M
EWR,2023-01-02 10:51,52.00,41.00,66.00,250.00,4.00,0.00,30.14,1020.40,10.00,M,FEW,BKN,BKN,M,7000.00,16000.00,25000.00,M,M,M,M,M,M,M,M,52.00,KEWR 021551Z 25004KT 10SM FEW070 BKN160 BKN250 11/05 A3014 RMK AO2 SLP204 T01110050,M
EWR,2023-01-02 11:51,56.00,40.00,54.83,240.00,4.00,0.00,30.11,1019.50,10.00,M,FEW,BKN,BKN,M,7000.00,16000.00,25000.00,M,M,M,M,M,M,M,M,55.90,KEWR 021651Z 24004KT 10SM FEW070 BKN160 BKN250 13/04 A3011 RMK AO2 SLP195 T01330044,M
EWR,2023-01-02 12:51,58.00,41.00,53.24,280.00,6.00,0.00,30.09,1018.90,10.00,M,FEW,BKN,BKN,M,7000.00,13000.00,25000.00,M,M,M,M,M,M,M,M,57.90,KEWR 021751Z 28006KT 10SM FEW070 BKN130 BKN250 14/05 A3009 RMK AO2 SLP189 T01440050 10144 20067 58019,M
EWR,2023-01-02 13:51,58.00,42.00,55.55,240.00,7.00,0.00,30.10,1019.10,10.00,M,FEW,FEW,BKN,BKN,7000.00,11000.00,13000.00,25000.00,M,M,M,M,M,M,M,57.90,KEWR 021851Z 24007KT 10SM FEW070 FEW110 BKN130 BKN250 14/06 A3010 RMK AO2 SLP191 T01440056,M
EWR,2023-01-02 14:51,58.00,42.00,55.55,230.00,7.00,0.00,30.10,1019.20,10.00,M,FEW,BKN,BKN,M,7000.00,11000.00,25000.00,M,M,M,M,M,M,M,M,57.90,KEWR 021951Z 23007KT 10SM FEW070 BKN110 BKN250 14/06 A3010 RMK AO2 SLP192 T01440056,M
EWR,2023-01-02 15:51,57.00,43.00,59.40,230.00,6.00,0.00,30.11,1019.50,10.00,M,SCT,BKN,BKN,BKN,5500.00,9500.00,13000.00,20000.00,M,M,M,M,M,M,M,57.00,KEWR 022051Z 23006KT 10SM SCT055 BKN095 BKN130 BKN200 14/06 A3011 RMK AO2 SLP195 T01390061 53006,M
EWR,2023-01-02 16:51,56.00,44.00,64.47,220.00,6.00,0.00,30.11,1019.60,10.00,M,BKN,BKN,OVC,M,3700.00,10000.00,15000.00,M,M,M,M,M,M,M,M,55.90,KEWR 022151Z 22006KT 10SM BKN037 BKN100 OVC150 13/07 A3011 RMK AO2 SLP196 T01330067,M
EWR,2023-01-02 17:51,55.00,44.00,66.61,220.00,5.00,T,30.12,1019.80,10.00,M,BKN,BKN,BKN,M,3900.00,9000.00,15000.00,M,M,M,M,M,M,M,M,55.00,KEWR 022251Z 22005KT 10SM BKN039 BKN090 BKN150 13/07 A3012 RMK AO2 RAB12E42 SLP198 P0000 T01280067,M
EWR,2023-01-02 18:51,55.00,44.00,66.61,190.00,5.00,T,30.13,1020.30,10.00,M,BKN,BKN,OVC,M,4100.00,7000.00,9500.00,M,-RA,M,M,M,M,M,M,55.00,KEWR 022351Z 19005KT 10SM -RA BKN041 BKN070 OVC095 13/07 A3013 RMK AO2 RAB42 SLP203 P0000 60000 T01280067 10150 20122 53007,M
EWR,2023-01-02 19:51,55.00,46.00,71.60,230.00,7.00,T,30.15,1020.70,10.00,M,SCT,BKN,OVC,M,3500.00,6000.00,9000.00,M,-RA,M,M,M,M,M,M,55.00,KEWR 030051Z 23007KT 10SM -RA SCT035 BKN060 OVC090 13/08 A3015 RMK AO2 RAE00B44 SLP207 P0000 T01280078,M
EWR,2023-01-02 20:23,53.00,46.00,76.75,220.00,7.00,T,30.15,M,10.00,M,BKN,OVC,M,M,2800.00,6000.00,M,M,-RA,M,M,M,M,M,M,53.10,KEWR 030123Z 22007KT 10SM -RA BKN028 OVC060 12/08 A3015 RMK AO2 P0000 T01170078,M
EWR,2023-01-02 20:51,53.00,47.00,79.40,220.00,5.00,0.01,30.15,1021.00,8.00,M,BKN,OVC,M,M,2700.00,4700.00,M,M,-RA,M,M,M,M,M,M,53.10,KEWR 030151Z 22005KT 8SM -RA BKN027 OVC047 12/08 A3015 RMK AO2 SLP210 P0001 T01170083 $,M
EWR,2023-01-02 21:05,53.00,47.00,79.40,230.00,5.00,T,30.15,M,8.00,M,SCT,OVC,M,M,2500.00,4400.00,M,M,-RA,M,M,M,M,M,M,53.10,KEWR 030205Z 23005KT 8SM -RA SCT025 OVC044 12/08 A3015 RMK AO2 P0000 T01170083 $,M
EWR,2023-01-02 21:51,52.00,48.00,86.17,0.00,0.00,0.03,30.15,1020.80,7.00,M,FEW,BKN,OVC,M,2500.00,5000.00,7000.00,M,-RA,M,M,M,M,M,M,52.00,KEWR 030251Z 00000KT 7SM -RA FEW025 BKN050 OVC070 11/09 A3015 RMK AO2 SLP208 P0003 60004 T01110089 50005 $,M
EWR,2023-01-02 22:51,52.00,48.00,86.17,90.00,3.00,0.01,30.14,1020.50,8.00,M,BKN,OVC,M,M,5000.00,6500.00,M,M,M,M,M,M,M,M,M,52.00,KEWR 030351Z 09003KT 8SM BKN050 OVC065 11/09 A3014 RMK AO2 RAE41 SLP205 P0001 T01110089 $,M
EWR,2023-01-02 23:51,52.00,48.00,86.17,0.00,0.00,0.00,30.13,1020.10,10.00,M,OVC,M,M,M,5000.00,M,M,M,M,M,M,M,M,M,M,52.00,KEWR 030451Z 00000KT 10SM OVC050 11/09 A3013 RMK AO2 SLP201 T01110089 401500061 $,M
EWR,2023-01-03 00:51,51.00,49.00,92.14,0.00,0.00,0.00,30.12,1019.80,10.00,M,OVC,M,M,M,6000.00,M,M,M,M,M,M,M,M,M,M,51.10,KEWR 030551Z 00000KT 10SM OVC060 11/09 A3012 RMK AO2 SLP198 60005 T01060094 10128 20106 56010 $,M
EWR,2023-01-03 01:51,52.00,48.00,86.17,0.00,0.00,0.00,30.11,1019.50,10.00,M,BKN,OVC,M,M,5000.00,7000.00,M,M,M,M,M,M,M,M,M,52.00,KEWR 030651Z 00000KT 10SM BKN050 OVC070 11/09 A3011 RMK AO2 SLP195 T01110089 $,M
EWR,2023-01-03 02:51,51.00,46.00,82.62,80.00,3.00,0.00,30.11,1019.50,10.00,M,BKN,OVC,M,M,4900.00,7500.00,M,M,M,M,M,M,M,M,M,51.10,KEWR 030751Z 08003KT 10SM BKN049 OVC075 11/08 A3011 RMK AO2 SLP195 T01060078 $,M
EWR,2023-01-03 03:51,50.00,45.00,82.86,90.00,3.00,0.00,30.10,1019.20,10.00,M,BKN,OVC,M,M,4400.00,7500.00,M,M,M,M,M,M,M,M,M,50.00,KEWR 030851Z 09003KT 10SM BKN044 OVC075 10/07 A3010 RMK AO2 SLP192 T01000072 58006 $,M
EWR,2023-01-03 04:51,50.00,46.00,86.06,70.00,3.00,0.00,30.09,1018.80,9.00,M,FEW,BKN,OVC,M,4400.00,6000.00,9000.00,M,M,M,M,M,M,M,M,50.00,KEWR 030951Z 07003KT 9SM FEW044 BKN060 OVC090 10/08 A3009 RMK AO2 SLP188 T01000078 $,M
EWR,2023-01-03 05:51,50.00,46.00,86.06,0.00,0.00,T,30.07,1018.30,8.00,M,BKN,OVC,M,M,5500.00,10000.00,M,M,-RA,M,M,M,M,M,M,50.00,KEWR 031051Z 00000KT 8SM -RA BKN055 OVC100 10/08 A3007 RMK AO2 RAB20 SLP183 P0000 T01000078,M
EWR,2023-01-03 06:22,50.00,47.00,89.04,0.00,0.00,T,30.06,M,5.00,M,FEW,BKN,OVC,M,800.00,5500.00,7500.00,M,-RA BR,M,M,M,M,M,M,50.00,KEWR 031122Z 00000KT 5SM -RA BR FEW008 BKN055 OVC075 10/08 A3006 RMK AO2 P0000 T01000083,M
EWR,2023-01-03 06:51,50.00,46.00,86.06,0.00,0.00,0.01,30.06,1017.70,6.00,M,SCT,OVC,M,M,800.00,6500.00,M,M,-RA BR,M,M,M,M,M,M,50.00,KEWR 031151Z 00000KT 6SM -RA BR SCT008 OVC065 10/08 A3006 RMK AO2 SLP177 P0001 60001 70006 T01000078 10111 20094 58014,M
EWR,2023-01-03 07:51,50.00,47.00,89.04,0.00,0.00,T,30.04,1017.00,7.00,M,SCT,BKN,OVC,M,700.00,8000.00,12000.00,M,M,M,M,M,M,M,M,50.00,KEWR 031251Z 00000KT 7SM SCT007 BKN080 OVC120 10/08 A3004 RMK AO2 RAE12 SLP170 P0000 T01000083,M
EWR,2023-01-03 08:51,51.00,48.00,89.09,20.00,3.00,0.00,30.02,1016.30,5.00,M,FEW,BKN,BKN,M,600.00,6000.00,8000.00,M,BR,M,M,M,M,M,M,51.10,KEWR 031351Z 02003KT 5SM BR FEW006 BKN060 BKN080 11/09 A3002 RMK AO2 SLP163 T01060089,M
EWR,2023-01-03 09:51,51.00,48.00,89.09,60.00,4.00,0.00,30.00,1015.70,5.00,M,SCT,SCT,BKN,OVC,600.00,8000.00,11000.00,25000.00,BR,M,M,M,M,M,M,51.10,KEWR 031451Z 06004KT 5SM BR SCT006 SCT080 BKN110 OVC250 11/09 A3000 RMK AO2 SLP157 60000 T01060089 57021,M
EWR,2023-01-03 10:12,51.00,48.00,89.09,40.00,3.00,0.00,30.00,M,4.00,M,BKN,BKN,OVC,M,500.00,8000.00,9500.00,M,BR,M,M,M,M,M,M,51.10,KEWR 031512Z 04003KT 4SM BR BKN005 BKN080 OVC095 11/09 A3000 RMK AO2 T01060089,M
EWR,2023-01-03 10:26,51.00,47.00,85.48,320.00,5.00,0.00,30.02,M,2.50,M,BKN,OVC,M,M,500.00,6000.00,M,M,RA BR,M,M,M,M,M,M,51.10,KEWR 031526Z 32005KT 2 1/2SM RA BR BKN005 OVC060 11/08 A3002 RMK AO2 SFC VIS 3 RAB25 PRESRR T01060083 PNO,M
EWR,2023-01-03 10:51,50.00,48.00,92.80,310.00,3.00,0.13,30.01,1016.00,1.75,M,BKN,OVC,M,M,500.00,3200.00,M,M,+RA BR,M,M,M,M,M,M,50.00,KEWR 031551Z 31003KT 1 3/4SM R04R/4500VP6000FT +RA BR BKN005 OVC032 10/09 A3001 RMK AO2 TWR VIS 2 1/2 RAB25 SLP160 P0013 T01000089 $,M
EWR,2023-01-03 11:51,50.00,48.00,92.80,60.00,3.00,0.19,29.94,1013.80,1.50,M,BKN,BKN,OVC,M,500.00,4400.00,6000.00,M,-RA BR,M,M,M,M,M,M,50.00,KEWR 031651Z 06003KT 1 1/2SM -RA BR BKN005 BKN044 OVC060 10/09 A2994 RMK AO2 SFC VIS 1 3/4 PRESFR SLP138 P0019 T01000089 $,M
EWR,2023-01-03 12:51,51.00,49.00,92.14,180.00,3.00,0.11,29.91,1012.90,1.50,M,OVC,M,M,M,500.00,M,M,M,-RA BR,M,M,M,M,M,M,51.10,KEWR 031751Z 18003KT 1 1/2SM -RA BR OVC005 11/09 A2991 RMK AO2 SFC VIS 2 SLP129 P0011 60043 T01060094 10106 20100 58027 $,M
EWR,2023-01-03 13:51,53.00,51.00,92.89,220.00,6.00,0.01,29.89,1012.10,2.00,M,BKN,OVC,M,M,700.00,1200.00,M,M,-RA BR,M,M,M,M,M,M,53.10,KEWR 031851Z 22006KT 2SM -RA BR BKN007 OVC012 12/11 A2989 RMK AO2 SFC VIS 4 SLP121 CIG 006V008 P0001 T01170106,M
EWR,2023-01-03 14:51,54.00,51.00,89.88,200.00,7.00,T,29.86,1010.90,2.00,M,OVC,M,M,M,600.00,M,M,M,BR,M,M,M,M,M,M,54.00,KEWR 031951Z 20007KT 2SM BR OVC006 12/11 A2986 RMK AO2 SFC VIS 5 RAE07 SLP109 P0000 T01220106,M
EWR,2023-01-03 15:51,56.00,53.00,90.29,220.00,11.00,0.00,29.84,1010.50,2.00,M,OVC,M,M,M,500.00,M,M,M,BR,M,M,M,M,M,M,55.90,KEWR 032051Z 22011KT 2SM BR OVC005 13/12 A2984 RMK AO2 SFC VIS 4 SLP105 60001 T01330117 56025,M
EWR,2023-01-03 16:51,56.00,53.00,90.29,220.00,6.00,0.00,29.82,1009.80,6.00,M,SCT,SCT,BKN,BKN,900.00,1900.00,12000.00,17000.00,BR,M,M,M,M,M,M,55.90,KEWR 032151Z 22006KT 6SM BR SCT009 SCT019 BKN120 BKN170 13/12 A2982 RMK AO2 SLP098 T01330117,M
EWR,2023-01-03 17:51,56.00,54.00,93.32,240.00,5.00,0.00,29.83,1009.90,6.00,M,SCT,BKN,BKN,OVC,700.00,7000.00,15000.00,22000.00,BR,M,M,M,M,M,M,55.90,KEWR 032251Z 24005KT 6SM BR SCT007 BKN070 BKN150 OVC220 13/12 A2983 RMK AO2 SLP099 T01330122,M
EWR,2023-01-03 18:51,55.00,53.00,93.29,250.00,4.00,0.00,29.83,1010.10,6.00,M,FEW,SCT,BKN,OVC,700.00,1200.00,7000.00,25000.00,BR,M,M,M,M,M,M,55.00,KEWR 032351Z 25004KT 6SM BR FEW007 SCT012 BKN070 OVC250 13/12 A2983 RMK AO2 SLP101 60001 T01280117 10133 20106 55004,M
EWR,2023-01-03 19:51,55.00,53.00,93.29,0.00,0.00,0.00,29.82,1009.80,5.00,M,FEW,SCT,BKN,OVC,700.00,7000.00,15000.00,25000.00,BR,M,M,M,M,M,M,55.00,KEWR 040051Z 00000KT 5SM BR FEW007 SCT070 BKN150 OVC250 13/12 A2982 RMK AO2 SLP098 T01280117,M
EWR,2023-01-03 20:51,54.00,52.00,92.92,0.00,0.00,0.00,29.82,1009.60,5.00,M,FEW,FEW,BKN,OVC,700.00,7000.00,17000.00,25000.00,BR,M,M,M,M,M,M,54.00,KEWR 040151Z 00000KT 5SM BR FEW007 FEW070 BKN170 OVC250 12/11 A2982 RMK AO2 SLP096 T01220111,M
EWR,2023-01-03 21:51,54.00,52.00,92.92,170.00,3.00,0.00,29.81,1009.40,5.00,M,SCT,SCT,BKN,OVC,500.00,7000.00,19000.00,25000.00,BR,M,M,M,M,M,M,54.00,KEWR 040251Z 17003KT 5SM BR SCT005 SCT070 BKN190 OVC250 12/11 A2981 RMK AO2 SLP094 T01220111 56006,M
EWR,2023-01-03 22:07,53.00,51.00,92.89,190.00,3.00,0.00,29.81,M,4.00,M,BKN,BKN,BKN,OVC,400.00,12000.00,19000.00,25000.00,BR,M,M,M,M,M,M,53.10,KEWR 040307Z 19003KT 4SM BR BKN004 BKN120 BKN190 OVC250 12/11 A2981 RMK AO2 T01170106,M
EWR,2023-01-03 22:47,53.60,51.80,93.60,0.00,0.00,0.00,29.81,M,0.25,M,BKN,OVC,M,M,400.00,12000.00,M,M,BR,M,M,M,M,M,M,53.60,KEWR 040347Z 00000KT 1/4SM R04R/P6000FT BR BKN004 OVC120 12/11 A2981 RMK AO2 SFC VIS 2 VIS E 1,M
EWR,2023-01-03 22:51,53.00,52.00,96.03,0.00,0.00,0.00,29.81,1009.20,0.25,M,BKN,OVC,M,M,200.00,12000.00,M,M,BR,M,M,M,M,M,M,53.10,KEWR 040351Z 00000KT 1/4SM R04R/P6000FT BR BKN002 OVC120 12/11 A2981 RMK AO2 SFC VIS 1 SLP092 VIS E 1/2 T01170111,M
EWR,2023-01-03 23:33,51.00,50.00,96.00,160.00,3.00,0.00,29.78,M,0.75,M,VV ,M,M,M,200.00,M,M,M,BR,M,M,M,M,M,M,51.10,KEWR 040433Z 16003KT 3/4SM R04R/1600V6000FT BR VV002 11/10 A2978 RMK AO2 T01060100,M
EWR,2023-01-03 23:51,51.00,50.00,96.00,160.00,3.00,0.00,29.78,1008.20,0.75,M,VV ,M,M,M,200.00,M,M,M,BR,M,M,M,M,M,M,51.10,KEWR 040451Z 16003KT 3/4SM R04R/1600V3000FT BR VV002 11/10 A2978 RMK AO2 SLP082 T01060100 401330094,M
EWR,2023-01-04 00:44,51.00,50.00,96.00,200.00,5.00,0.00,29.79,M,2.00,M,SCT,OVC,M,M,300.00,2900.00,M,M,BR,M,M,M,M,M,M,51.10,KEWR 040544Z 20005KT 2SM BR SCT003 OVC029 11/10 A2979 RMK AO2 SFC VIS 3 T01060100,M
EWR,2023-01-04 00:51,52.00,50.00,92.86,210.00,5.00,0.00,29.79,1008.80,3.00,M,SCT,OVC,M,M,300.00,3000.00,M,M,BR,M,M,M,M,M,M,52.00,KEWR 040551Z 21005KT 3SM BR SCT003 OVC030 11/10 A2979 RMK AO2 SFC VIS 4 SLP088 T01110100 10133 20100 55006,M
EWR,2023-01-04 01:22,52.00,51.00,96.73,230.00,3.00,T,29.78,M,7.00,M,FEW,BKN,OVC,M,300.00,2800.00,9000.00,M,M,M,M,M,M,M,M,52.00,KEWR 040622Z 23003KT 7SM FEW003 BKN028 OVC090 11/11 A2978 RMK AO2 RAB00E20 P0000 T01110106,M
EWR,2023-01-04 01:39,52.00,50.00,92.86,M,5.00,T,29.79,M,7.00,M,FEW,SCT,OVC,M,300.00,2700.00,9500.00,M,M,M,M,M,M,M,M,52.00,KEWR 040639Z VRB05KT 7SM FEW003 SCT027 OVC095 11/10 A2979 RMK AO2 RAB00E20 P0000 T01110100,M
EWR,2023-01-04 01:51,52.00,51.00,96.73,220.00,3.00,T,29.79,1008.70,8.00,M,SCT,OVC,M,M,2700.00,9500.00,M,M,M,M,M,M,M,M,M,52.00,KEWR 040651Z 22003KT 8SM SCT027 OVC095 11/11 A2979 RMK AO2 RAB00E20 SLP087 P0000 T01110106,M
EWR,2023-01-04 02:22,53.00,52.00,96.03,200.00,4.00,0.00,29.81,M,8.00,M,BKN,OVC,M,M,2700.00,9000.00,M,M,M,M,M,M,M,M,M,53.10,KEWR 040722Z 20004KT 8SM BKN027 OVC090 12/11 A2981 RMK AO2 T01170111,M
EWR,2023-01-04 02:51,54.00,52.00,92.92,150.00,3.00,0.00,29.79,1008.90,7.00,M,BKN,OVC,M,M,2400.00,9000.00,M,M,M,M,M,M,M,M,M,54.00,KEWR 040751Z 15003KT 7SM BKN024 OVC090 12/11 A2979 RMK AO2 PRESFR SLP089 T01220111,M
EWR,2023-01-04 03:51,52.00,50.00,92.86,220.00,6.00,0.00,29.80,1008.90,9.00,M,BKN,OVC,M,M,2500.00,9000.00,M,M,M,M,M,M,M,M,M,52.00,KEWR 040851Z 22006KT 9SM BKN025 OVC090 11/10 A2980 RMK AO2 SLP089 60000 T01110100 53001,M
EWR,2023-01-04 04:40,53.00,50.00,89.18,220.00,6.00,0.00,29.79,M,10.00,M,SCT,SCT,BKN,M,2500.00,9000.00,25000.00,M,M,M,M,M,M,M,M,53.10,KEWR 040940Z 22006KT 10SM SCT025 SCT090 BKN250 12/10 A2979 RMK AO2 T01170100,M
EWR,2023-01-04 04:51,53.00,50.00,89.18,220.00,6.00,0.00,29.80,1009.10,10.00,M,FEW,SCT,BKN,M,2500.00,9000.00,25000.00,M,M,M,M,M,M,M,M,53.10,KEWR 040951Z 22006KT 10SM FEW025 SCT090 BKN250 12/10 A2980 RMK AO2 SLP091 T01170100,M
EWR,2023-01-04 05:51,53.00,51.00,92.89,220.00,7.00,0.00,29.82,1009.60,9.00,M,BKN,BKN,M,M,10000.00,25000.00,M,M,M,M,M,M,M,M,M,53.10,KEWR 041051Z 22007KT 9SM BKN100 BKN250 12/11 A2982 RMK AO2 SLP096 T01170106,M
EWR,2023-01-04 06:51,53.00,50.00,89.18,210.00,7.00,0.00,29.85,1010.60,9.00,M,SCT,BKN,M,M,9000.00,25000.00,M,M,M,M,M,M,M,M,M,53.10,KEWR 041151Z 21007KT 9SM SCT090 BKN250 12/10 A2985 RMK AO2 SLP106 60000 70044 T01170100 10122 20111 53017,M
EWR,2023-01-04 07:51,53.00,51.00,92.89,230.00,6.00,0.00,29.87,1011.50,7.00,M,SCT,BKN,M,M,9000.00,25000.00,M,M,M,M,M,M,M,M,M,53.10,KEWR 041251Z 23006KT 7SM SCT090 BKN250 12/11 A2987 RMK AO2 SLP115 T01170106,M
EWR,2023-01-04 08:51,57.00,54.00,89.68,220.00,7.00,0.00,29.90,1012.50,7.00,M,FEW,BKN,M,M,9000.00,25000.00,M,M,M,M,M,M,M,M,M,57.00,KEWR 041351Z 22007KT 7SM FEW090 BKN250 14/12 A2990 RMK AO2 SLP125 T01390122,M
EWR,2023-01-04 09:51,58.00,55.00,90.04,220.00,5.00,0.00,29.89,1012.10,7.00,M,BKN,M,M,M,25000.00,M,M,M,M,M,M,M,M,M,M,57.90,KEWR 041451Z 22005KT 7SM BKN250 14/13 A2989 RMK AO2 SLP121 T01440128 50016,M
EWR,2023-01-04 10:51,62.00,56.00,80.11,230.00,6.00,0.00,29.89,1012.00,7.00,M,BKN,M,M,M,25000.00,M,M,M,M,M,M,M,M,M,M,62.10,KEWR 041551Z 23006KT 7SM BKN250 17/13 A2989 RMK AO2 SLP120 T01670133,M
EWR,2023-01-04 11:51,65.00,56.00,72.61,230.00,5.00,0.00,29.87,1011.50,9.00,M,FEW,OVC,M,M,10000.00,25000.00,M,M,M,M,M,M,M,M,M,64.90,KEWR 041651Z 23005KT 9SM FEW100 OVC250 18/13 A2987 RMK AO2 SLP115 T01830133,M
EWR,2023-01-04 12:51,66.00,56.00,69.88,180.00,7.00,0.00,29.85,1010.60,10.00,M,OVC,M,M,M,25000.00,M,M,M,M,M,M,M,M,M,M,66.00,KEWR 041751Z 18007KT 10SM OVC250 19/13 A2985 RMK AO2 SLP106 T01890133 10189 20106 58016,M
EWR,2023-01-04 13:51,66.00,56.00,69.88,170.00,8.00,0.00,29.84,1010.40,10.00,M,OVC,M,M,M,25000.00,M,M,M,M,M,M,M,M,M,M,66.00,KEWR 041851Z 17008KT 10SM OVC250 19/13 A2984 RMK AO2 SLP104 T01890133,M
EWR,2023-01-04 14:51,65.00,55.00,70.28,90.00,5.00,0.00,29.83,1010.00,10.00,M,SCT,OVC,M,M,18000.00,25000.00,M,M,M,M,M,M,M,M,M,64.90,KEWR 041951Z 09005KT 10SM SCT180 OVC250 18/13 A2983 RMK AO2 SLP100 T01830128,M
EWR,2023-01-04 15:51,62.00,54.00,74.75,80.00,3.00,T,29.83,1010.00,10.00,M,BKN,BKN,OVC,M,10000.00,15000.00,25000.00,M,-RA,M,M,M,M,M,M,62.10,KEWR 042051Z 08003KT 10SM -RA BKN100 BKN150 OVC250 17/12 A2983 RMK AO2 RAB48 SLP100 P0000 60000 T01670122 56006,M
EWR,2023-01-04 16:51,61.00,55.00,80.61,100.00,4.00,0.01,29.83,1010.00,6.00,M,SCT,BKN,OVC,M,4200.00,10000.00,15000.00,M,-RA,M,M,M,M,M,M,61.00,KEWR 042151Z 10004KT 6SM -RA SCT042 BKN100 OVC150 16/13 A2983 RMK AO2 RAE03B24 SLP100 P0001 T01610128,M
EWR,2023-01-04 17:51,56.00,52.00,86.71,90.00,6.00,0.01,29.81,1009.40,10.00,M,BKN,OVC,M,M,3000.00,10000.00,M,M,M,M,M,M,M,M,M,55.90,KEWR 042251Z 09006KT 10SM BKN030 OVC100 13/11 A2981 RMK AO2 RAE34 SLP094 P0001 T01330111,M
EWR,2023-01-04 18:14,56.00,52.00,86.71,0.00,0.00,0.00,29.81,M,9.00,M,BKN,OVC,M,M,2700.00,9000.00,M,M,M,M,M,M,M,M,M,55.90,KEWR 042314Z 00000KT 9SM BKN027 OVC090 13/11 A2981 RMK AO2 T01330111,M
EWR,2023-01-04 18:51,56.00,52.00,86.71,0.00,0.00,T,29.82,1009.70,10.00,M,FEW,BKN,OVC,M,1000.00,2500.00,9000.00,M,M,M,M,M,M,M,M,55.90,KEWR 042351Z 00000KT 10SM FEW010 BKN025 OVC090 13/11 A2982 RMK AO2 RAB41E51 SLP097 P0000 60002 T01330111 10189 20133 55003,M
EWR,2023-01-04 19:51,54.00,50.00,86.29,90.00,5.00,0.00,29.80,1009.10,9.00,M,FEW,BKN,OVC,M,1000.00,1800.00,8500.00,M,M,M,M,M,M,M,M,54.00,KEWR 050051Z 09005KT 9SM FEW010 BKN018 OVC085 12/10 A2980 RMK AO2 SLP091 T01220100,M
EWR,2023-01-04 20:51,55.00,51.00,86.66,40.00,4.00,0.00,29.80,1009.00,9.00,M,BKN,OVC,M,M,1700.00,2800.00,M,M,M,M,M,M,M,M,M,55.00,KEWR 050151Z 04004KT 9SM BKN017 OVC028 13/11 A2980 RMK AO2 SLP090 T01280106,M
EWR,2023-01-04 21:51,56.00,52.00,86.71,50.00,3.00,0.00,29.80,1009.20,8.00,M,BKN,OVC,M,M,1500.00,2200.00,M,M,M,M,M,M,M,M,M,55.90,KEWR 050251Z 05003KT 8SM BKN015 OVC022 13/11 A2980 RMK AO2 SLP092 T01330111 55005,M
EWR,2023-01-04 22:16,56.00,52.00,86.71,0.00,0.00,0.00,29.80,M,8.00,M,BKN,OVC,M,M,1400.00,3000.00,M,M,M,M,M,M,M,M,M,55.90,KEWR 050316Z 00000KT 8SM BKN014 OVC030 13/11 A2980 RMK AO2 T01330111,M
EWR,2023-01-04 22:51,55.00,51.00,86.66,40.00,3.00,0.00,29.79,1008.70,7.00,M,BKN,OVC,M,M,1000.00,3000.00,M,M,M,M,M,M,M,M,M,55.00,KEWR 050351Z 04003KT 7SM BKN010 OVC030 13/11 A2979 RMK AO2 SLP087 T01280106,M
EWR,2023-01-04 22:56,55.00,51.00,86.66,30.00,4.00,0.00,29.79,M,6.00,M,BKN,OVC,M,M,900.00,1200.00,M,M,BR,M,M,M,M,M,M,55.00,KEWR 050356Z 03004KT 6SM BR BKN009 OVC012 13/11 A2979 RMK AO2 T01280106,M
EWR,2023-01-04 23:51,55.00,52.00,89.59,0.00,0.00,T,29.80,1009.10,3.00,M,OVC,M,M,M,600.00,M,M,M,-RA BR,M,M,M,M,M,M,55.00,KEWR 050451Z 00000KT 3SM -RA BR OVC006 13/11 A2980 RMK AO2 RAB45 SLP091 P0000 T01280111 401890100,M
EWR,2023-01-05 00:44,53.00,51.00,92.89,60.00,5.00,T,29.81,M,1.75,M,OVC,M,M,M,600.00,M,M,M,-DZ BR,M,M,M,M,M,M,53.10,KEWR 050544Z 06005KT 1 3/4SM -DZ BR OVC006 12/11 A2981 RMK AO2 SFC VIS 3 RAE12DZB12 P0000 T01170106,M
EWR,2023-01-05 00:51,53.00,50.00,89.18,70.00,4.00,T,29.81,1009.50,1.75,M,OVC,M,M,M,600.00,M,M,M,-DZ BR,M,M,M,M,M,M,53.10,KEWR 050551Z 07004KT 1 3/4SM -DZ BR OVC006 12/10 A2981 RMK AO2 SFC VIS 2 1/2 RAE12DZB12 SLP095 P0000 60000 T01170100 10133 20117 53003,M
EWR,2023-01-05 01:41,52.00,49.00,89.13,0.00,0.00,T,29.83,M,1.50,M,OVC,M,M,M,400.00,M,M,M,-DZ BR,M,M,M,M,M,M,52.00,KEWR 050641Z 00000KT 1 1/2SM -DZ BR OVC004 11/09 A2983 RMK AO2 SFC VIS 2 P0000 T01110094,M
EWR,2023-01-05 01:51,52.00,50.00,92.86,30.00,3.00,T,29.83,1010.10,1.50,M,OVC,M,M,M,400.00,M,M,M,-DZ BR,M,M,M,M,M,M,52.00,KEWR 050651Z 03003KT 1 1/2SM -DZ BR OVC004 11/10 A2983 RMK AO2 SFC VIS 2 SLP101 P0000 T01110100,M
EWR,2023-01-05 02:46,51.80,48.20,87.47,20.00,6.00,T,29.86,M,3.00,M,OVC,M,M,M,400.00,M,M,M,BR,M,M,M,M,M,M,51.80,KEWR 050746Z 02006KT 3SM BR OVC004 11/09 A2986 RMK AO2 DZE35 P0000,M
EWR,2023-01-05 02:51,51.00,49.00,92.14,30.00,6.00,T,29.86,1011.10,3.00,M,OVC,M,M,M,400.00,M,M,M,BR,M,M,M,M,M,M,51.10,KEWR 050751Z 03006KT 3SM BR OVC004 11/09 A2986 RMK AO2 DZE35 SLP111 P0000 T01060094,M
EWR,2023-01-05 03:51,51.00,48.00,89.09,40.00,5.00,0.00,29.88,1011.80,3.00,M,OVC,M,M,M,400.00,M,M,M,BR,M,M,M,M,M,M,51.10,KEWR 050851Z 04005KT 3SM BR OVC004 11/09 A2988 RMK AO2 SLP118 60000 T01060089 51017,M
EWR,2023-01-05 04:51,51.00,49.00,92.14,340.00,3.00,0.00,29.89,1012.10,3.00,M,OVC,M,M,M,400.00,M,M,M,BR,M,M,M,M,M,M,51.10,KEWR 050951Z 34003KT 3SM BR OVC004 11/09 A2989 RMK AO2 SLP121 T01060094,M
EWR,2023-01-05 05:37,51.00,49.00,92.14,10.00,4.00,0.00,29.90,M,0.25,M,OVC,M,M,M,200.00,M,M,M,BR,M,M,M,M,M,M,51.10,KEWR 051037Z 01004KT 1/4SM R04R/P6000FT BR OVC002 11/09 A2990 RMK AO2 SFC VIS 1 T01060094,M
EWR,2023-01-05 05:51,51.00,49.00,92.14,350.00,3.00,0.00,29.91,1012.60,0.25,M,VV ,M,M,M,200.00,M,M,M,FG,M,M,M,M,M,M,51.10,KEWR 051051Z 35003KT 1/4SM R04R/1800V3500FT FG VV002 11/09 A2991 RMK AO2 SLP126 T01060094,M
EWR,2023-01-05 06:03,51.00,50.00,96.00,340.00,3.00,0.00,29.91,M,0.25,M,VV ,M,M,M,200.00,M,M,M,FG,M,M,M,M,M,M,51.10,KEWR 051103Z 34003KT 1/4SM R04R/1200V1800FT FG VV002 11/10 A2991 RMK AO2 T01060100,M
EWR,2023-01-05 06:32,51.00,50.00,96.00,0.00,0.00,0.00,29.92,M,0.25,M,VV ,M,M,M,200.00,M,M,M,FG,M,M,M,M,M,M,51.10,KEWR 051132Z 00000KT 1/4SM R04R/1600V2600FT FG VV002 11/10 A2992 RMK AO2 T01060100,M
EWR,2023-01-05 06:51,51.00,50.00,96.00,80.00,3.00,0.00,29.92,1013.10,0.25,M,VV ,M,M,M,200.00,M,M,M,FG,M,M,M,M,M,M,51.10,KEWR 051151Z 08003KT 1/4SM R04R/1800V2200FT FG VV002 11/10 A2992 RMK AO2 SLP131 60000 70002 T01060100 10111 20100 53013,M
EWR,2023-01-05 06:58,51.00,50.00,96.00,60.00,4.00,0.00,29.92,M,0.25,M,VV ,M,M,M,200.00,M,M,M,FG,M,M,M,M,M,M,51.10,KEWR 051158Z 06004KT 1/4SM R04R/1600V2400FT FG VV002 11/10 A2992 RMK AO2 T01060100,M
EWR,2023-01-05 07:08,51.00,49.00,92.14,50.00,5.00,0.00,29.93,M,0.25,M,VV ,M,M,M,200.00,M,M,M,FG,M,M,M,M,M,M,51.10,KEWR 051208Z 05005KT 1/4SM R04R/1600V2000FT FG VV002 11/09 A2993 RMK AO2 T01060094,M
EWR,2023-01-05 07:51,51.00,50.00,96.00,0.00,0.00,0.00,29.94,1013.70,0.25,M,VV ,M,M,M,200.00,M,M,M,FG,M,M,M,M,M,M,51.10,KEWR 051251Z 00000KT 1/4SM R04R/1000V1400FT FG VV002 11/10 A2994 RMK AO2 SLP137 T01060100,M
EWR,2023-01-05 08:51,51.00,51.00,100.00,0.00,0.00,0.00,29.95,1014.20,0.25,M,VV ,M,M,M,200.00,M,M,M,FG,M,M,M,M,M,M,51.10,KEWR 051351Z 00000KT 1/4SM R04R/1600V1800FT FG VV002 11/11 A2995 RMK AO2 SLP142 T01060106,M
EWR,2023-01-05 09:04,51.00,51.00,100.00,150.00,3.00,0.00,29.96,M,0.25,M,OVC,M,M,M,100.00,M,M,M,FG,M,M,M,M,M,M,51.10,KEWR 051404Z 15003KT 1/4SM R04R/1600V2800FT FG OVC001 11/11 A2996 RMK AO2 SFC VIS 1/2 T01060106,M
EWR,2023-01-05 09:41,51.00,51.00,100.00,60.00,4.00,0.00,29.98,M,0.25,M,OVC,M,M,M,200.00,M,M,M,BR,M,M,M,M,M,M,51.10,KEWR 051441Z 06004KT 1/4SM R04R/2600V4000FT BR OVC002 11/11 A2998 RMK AO2 SFC VIS 3/4 T01060106,M
EWR,2023-01-05 09:51,51.00,50.00,96.00,80.00,4.00,0.00,29.98,1015.20,0.25,M,OVC,M,M,M,200.00,M,M,M,BR,M,M,M,M,M,M,51.10,KEWR 051451Z 08004KT 1/4SM R04R/2800V5000FT BR OVC002 11/10 A2998 RMK AO2 SFC VIS 3/4 SLP152 T01060100 53021,M
EWR,2023-01-05 10:46,51.80,50.00,93.55,50.00,3.00,0.00,30.00,M,3.00,M,OVC,M,M,M,400.00,M,M,M,BR,M,M,M,M,M,M,51.80,KEWR 051546Z 05003KT 3SM BR OVC004 11/10 A3000 RMK AO2 CIG 003V006,M
EWR,2023-01-05 10:51,51.00,50.00,96.00,50.00,3.00,0.00,29.99,1015.60,3.00,M,OVC,M,M,M,500.00,M,M,M,BR,M,M,M,M,M,M,51.10,KEWR 051551Z 05003KT 3SM BR OVC005 11/10 A2999 RMK AO2 SFC VIS 4 SLP156 CIG 004V006 T01060100,M
EWR,2023-01-05 11:51,52.00,47.00,82.68,80.00,5.00,0.00,29.97,1014.80,10.00,M,OVC,M,M,M,900.00,M,M,M,M,M,M,M,M,M,M,52.00,KEWR 051651Z 08005KT 10SM OVC009 11/08 A2997 RMK AO2 SLP148 T01110083,M
EWR,2023-01-05 12:03,52.00,47.00,82.68,100.00,5.00,0.00,29.97,M,10.00,M,OVC,M,M,M,1000.00,M,M,M,M,M,M,M,M,M,M,52.00,KEWR 051703Z 10005KT 10SM OVC010 11/08 A2997 RMK AO2 CIG 009V011 T01110083,M
EWR,2023-01-05 12:51,52.00,47.00,82.68,110.00,5.00,0.00,29.96,1014.60,10.00,M,OVC,M,M,M,1300.00,M,M,M,M,M,M,M,M,M,M,52.00,KEWR 051751Z 11005KT 10SM OVC013 11/08 A2996 RMK AO2 SLP146 T01110083 10111 20100 58005,M
EWR,2023-01-05 13:51,53.00,47.00,79.40,M,3.00,0.00,29.94,1013.90,10.00,M,BKN,OVC,M,M,1400.00,11000.00,M,M,M,M,M,M,M,M,M,53.10,KEWR 051851Z VRB03KT 10SM BKN014 OVC110 12/08 A2994 RMK AO2 SLP139 T01170083,M
EWR,2023-01-05 14:51,52.00,47.00,82.68,30.00,7.00,0.00,29.93,1013.50,10.00,M,OVC,M,M,M,1300.00,M,M,M,M,M,M,M,M,M,M,52.00,KEWR 051951Z 03007KT 10SM OVC013 11/08 A2993 RMK AO2 SLP135 T01110083,M
EWR,2023-01-05 15:51,52.00,46.00,79.92,10.00,6.00,0.00,29.94,1013.80,10.00,M,OVC,M,M,M,1200.00,M,M,M,M,M,M,M,M,M,M,52.00,KEWR 052051Z 01006KT 10SM OVC012 11/08 A2994 RMK AO2 SLP138 T01110078 55008,M
EWR,2023-01-05 16:51,51.00,45.00,79.54,70.00,5.00,0.00,29.94,1013.60,10.00,M,OVC,M,M,M,1200.00,M,M,M,M,M,M,M,M,M,M,51.10,KEWR 052151Z 07005KT 10SM OVC012 11/07 A2994 RMK AO2 SLP136 T01060072,M
EWR,2023-01-05 17:46,50.00,46.40,87.37,140.00,5.00,T,29.94,M,9.00,M,FEW,OVC,M,M,700.00,1000.00,M,M,-RA,M,M,M,M,M,M,50.00,KEWR 052246Z 14005KT 9SM -RA FEW007 OVC010 10/08 A2994 RMK AO2 RAB45 P0000,M
EWR,2023-01-05 17:51,50.00,46.00,86.06,M,4.00,T,29.94,1013.70,9.00,M,SCT,OVC,M,M,700.00,1000.00,M,M,-RA,M,M,M,M,M,M,50.00,KEWR 052251Z VRB04KT 9SM -RA SCT007 OVC010 10/08 A2994 RMK AO2 RAB45 SLP137 P0000 T01000078,M
EWR,2023-01-05 17:54,50.00,46.00,86.06,150.00,5.00,T,29.94,M,8.00,M,BKN,OVC,M,M,400.00,1000.00,M,M,-RA,M,M,M,M,M,M,50.00,KEWR 052254Z 15005KT 8SM -RA BKN004 OVC010 10/08 A2994 RMK AO2 P0000 T01000078,M
EWR,2023-01-05 18:51,48.00,46.00,92.74,150.00,3.00,T,29.96,1014.60,4.00,M,OVC,M,M,M,300.00,M,M,M,BR,M,M,M,M,M,M,46.98,KEWR 052351Z 15003KT 4SM BR OVC003 09/08 A2996 RMK AO2 RAE2257 SLP146 VIS E 2 1/2 CIG 002V004 P0000 60000 T00890078 10117 20089 53008,M
EWR,2023-01-05 19:51,49.00,46.00,89.67,M,3.00,0.00,29.96,1014.30,5.00,M,OVC,M,M,M,300.00,M,M,M,BR,M,M,M,M,M,M,48.01,KEWR 060051Z VRB03KT 5SM BR OVC003 09/08 A2996 RMK AO2 SLP143 T00940078,M
EWR,2023-01-05 20:51,48.00,46.00,92.74,0.00,0.00,0.00,29.96,1014.40,5.00,M,OVC,M,M,M,400.00,M,M,M,BR,M,M,M,M,M,M,48.00,KEWR 060151Z 00000KT 5SM BR OVC004 09/08 A2996 RMK AO2 SLP144 CIG 003V005 T00890078,M
EWR,2023-01-05 21:51,48.00,45.00,89.29,180.00,5.00,0.00,29.97,1014.80,5.00,M,BKN,OVC,M,M,400.00,800.00,M,M,BR,M,M,M,M,M,M,45.40,KEWR 060251Z 18005KT 5SM BR BKN004 OVC008 09/07 A2997 RMK AO2 SLP148 T00890072 53002,M
EWR,2023-01-05 22:51,48.00,45.00,89.29,120.00,4.00,T,29.97,1014.70,3.00,M,BKN,OVC,M,M,400.00,800.00,M,M,-DZ BR,M,M,M,M,M,M,46.10,KEWR 060351Z 12004KT 3SM -DZ BR BKN004 OVC008 09/07 A2997 RMK AO2 DZB40 SLP147 P0000 T00890072,M
EWR,2023-01-05 23:23,48.00,45.00,89.29,90.00,4.00,T,29.96,M,5.00,M,OVC,M,M,M,600.00,M,M,M,BR,M,M,M,M,M,M,46.10,KEWR 060423Z 09004KT 5SM BR OVC006 09/07 A2996 RMK AO2 DZE22 P0000 T00890072,M
EWR,2023-01-05 23:51,48.00,44.00,86.28,100.00,6.00,T,29.96,1014.40,6.00,M,OVC,M,M,M,500.00,M,M,M,BR,M,M,M,M,M,M,44.80,KEWR 060451Z 10006KT 6SM BR OVC005 09/07 A2996 RMK AO2 DZE22 SLP144 P0000 T00890067 401280089,M
EWR,2023-01-06 00:39,47.00,44.00,89.92,80.00,4.00,T,29.95,M,2.00,M,OVC,M,M,M,400.00,M,M,M,-RA BR,M,M,M,M,M,M,44.82,KEWR 060539Z 08004KT 2SM -RA BR OVC004 08/07 A2995 RMK AO2 SFC VIS 5 RAB21 P0000 T00830067,M
EWR,2023-01-06 00:51,47.00,45.00,93.06,110.00,4.00,0.01,29.95,1014.10,2.00,M,OVC,M,M,M,300.00,M,M,M,-RA BR,M,M,M,M,M,M,44.82,KEWR 060551Z 11004KT 2SM -RA BR OVC003 08/07 A2995 RMK AO2 SFC VIS 4 RAB21 SLP141 P0001 60001 T00830072 10094 20083 58006,M
EWR,2023-01-06 01:51,46.00,44.00,93.03,130.00,5.00,0.04,29.97,1014.70,2.50,M,BKN,OVC,M,M,400.00,800.00,M,M,-RA BR,M,M,M,M,M,M,43.02,KEWR 060651Z 13005KT 2 1/2SM -RA BR BKN004 OVC008 08/07 A2997 RMK AO2 SFC VIS 5 SLP147 P0004 T00780067,M
EWR,2023-01-06 02:34,46.00,44.00,93.03,0.00,0.00,0.10,29.99,M,3.00,M,SCT,OVC,M,M,500.00,1200.00,M,M,RA BR,M,M,M,M,M,M,46.00,KEWR 060734Z 00000KT 3SM RA BR SCT005 OVC012 08/07 A2999 RMK AO2 SFC VIS 5 P0010 T00780067,M
EWR,2023-01-06 02:51,46.00,44.00,93.03,0.00,0.00,0.14,29.99,1015.50,3.00,M,FEW,BKN,OVC,M,500.00,1200.00,2500.00,M,RA BR,M,M,M,M,M,M,46.00,KEWR 060751Z 00000KT 3SM RA BR FEW005 BKN012 OVC025 08/07 A2999 RMK AO2 SFC VIS 5 SLP155 P0014 T00780067,M
EWR,2023-01-06 03:21,46.00,42.00,86.16,330.00,6.00,0.06,29.98,M,3.00,M,FEW,BKN,OVC,M,500.00,1700.00,2500.00,M,-RA BR,M,M,M,M,M,M,42.39,KEWR 060821Z 33006KT 3SM -RA BR FEW005 BKN017 OVC025 08/06 A2998 RMK AO2 SFC VIS 5 P0006 T00780056,M
EWR,2023-01-06 03:51,46.00,43.00,89.20,10.00,3.00,0.07,29.97,1014.80,6.00,M,FEW,SCT,OVC,M,500.00,1700.00,2800.00,M,-RA BR,M,M,M,M,M,M,44.69,KEWR 060851Z 01003KT 6SM -RA BR FEW005 SCT017 OVC028 08/06 A2997 RMK AO2 SLP148 P0007 60025 T00780061 50006,M
EWR,2023-01-06 04:40,45.00,42.00,89.49,70.00,4.00,T,29.96,M,9.00,M,FEW,SCT,OVC,M,500.00,1800.00,3500.00,M,M,M,M,M,M,M,M,42.60,KEWR 060940Z 07004KT 9SM FEW005 SCT018 OVC035 07/06 A2996 RMK AO2 RAE39 P0000 T00720056,M
EWR,2023-01-06 04:51,45.00,42.00,89.49,70.00,3.00,T,29.97,1014.70,9.00,M,FEW,SCT,OVC,M,500.00,1800.00,3500.00,M,M,M,M,M,M,M,M,43.55,KEWR 060951Z 07003KT 9SM FEW005 SCT018 OVC035 07/06 A2997 RMK AO2 RAE39 SLP147 P0000 T00720056,M
EWR,2023-01-06 05:51,46.00,42.00,86.16,80.00,5.00,0.00,29.95,1014.00,10.00,M,FEW,FEW,BKN,M,2000.00,4500.00,13000.00,M,M,M,M,M,M,M,M,43.02,KEWR 061051Z 08005KT 10SM FEW020 FEW045 BKN130 08/06 A2995 RMK AO2 SLP140 T00780056,M
EWR,2023-01-06 06:51,45.00,43.00,92.65,0.00,0.00,0.00,29.97,1014.70,10.00,M,BKN,OVC,M,M,700.00,10000.00,M,M,M,M,M,M,M,M,M,45.00,KEWR 061151Z 00000KT 10SM BKN007 OVC100 07/06 A2997 RMK AO2 SLP147 60025 70026 T00720061 10083 20072 55001,M
EWR,2023-01-06 07:51,46.00,43.00,89.20,140.00,4.00,T,29.97,1014.90,8.00,M,BKN,OVC,M,M,700.00,10000.00,M,M,-RA,M,M,M,M,M,M,43.77,KEWR 061251Z 14004KT 8SM -RA BKN007 OVC100 08/06 A2997 RMK AO2 RAB19 SLP149 P0000 T00780061,M
EWR,2023-01-06 08:51,46.00,43.00,89.20,110.00,3.00,T,29.98,1015.00,9.00,M,OVC,M,M,M,800.00,M,M,M,M,M,M,M,M,M,M,44.69,KEWR 061351Z 11003KT 9SM OVC008 08/06 A2998 RMK AO2 RAE03 SLP150 CIG 007V009 P0000 T00780061,M
EWR,2023-01-06 09:51,47.00,43.00,86.21,0.00,0.00,0.01,29.99,1015.60,7.00,M,BKN,BKN,OVC,M,800.00,1200.00,2000.00,M,-RA,M,M,M,M,M,M,46.90,KEWR 061451Z 00000KT 7SM -RA BKN008 BKN012 OVC020 08/06 A2999 RMK AO2 RAB17 SLP156 P0001 60001 T00830061 53009,M
EWR,2023-01-06 10:51,47.00,43.00,86.21,250.00,5.00,T,29.99,1015.40,10.00,M,BKN,OVC,M,M,800.00,1700.00,M,M,M,M,M,M,M,M,M,44.09,KEWR 061551Z 25005KT 10SM BKN008 OVC017 08/06 A2999 RMK AO2 RAE36 SLP154 P0000 T00830061,M
EWR,2023-01-06 11:20,48.00,43.00,82.72,M,5.00,0.00,29.98,M,10.00,M,FEW,BKN,OVC,M,800.00,1100.00,2200.00,M,M,M,M,M,M,M,M,45.40,KEWR 061620Z VRB05KT 10SM FEW008 BKN011 OVC022 09/06 A2998 RMK AO2 T00890061,M
EWR,2023-01-06 11:51,48.00,42.00,79.91,290.00,8.00,0.00,29.97,1014.70,10.00,M,FEW,BKN,OVC,M,800.00,1100.00,2100.00,M,M,M,M,M,M,M,M,43.82,KEWR 061651Z 29008KT 10SM FEW008 BKN011 OVC021 09/06 A2997 RMK AO2 SLP147 T00890056,M
EWR,2023-01-06 12:21,50.00,43.00,76.76,280.00,9.00,0.00,29.96,M,10.00,15.00,SCT,SCT,BKN,BKN,1000.00,1600.00,3000.00,16000.00,M,M,M,M,M,M,M,50.00,KEWR 061721Z 28009G15KT 10SM SCT010 SCT016 BKN030 BKN160 10/06 A2996 RMK AO2 T01000061,M
EWR,2023-01-06 12:51,49.00,41.00,74.05,250.00,7.00,0.00,29.95,1014.00,10.00,M,FEW,SCT,BKN,M,1000.00,1900.00,9000.00,M,M,M,M,M,M,M,M,45.38,KEWR 061751Z 25007KT 10SM FEW010 SCT019 BKN090 09/05 A2995 RMK AO2 SLP140 SCT V BKN 60001 T00940050 10100 20078 58017,M
EWR,2023-01-06 12:56,50.00,41.00,71.07,270.00,6.00,0.00,29.94,M,10.00,M,FEW,SCT,BKN,M,1000.00,1900.00,9000.00,M,M,M,M,M,M,M,M,50.00,KEWR 061756Z 27006KT 10SM FEW010 SCT019 BKN090 10/05 A2994 RMK AO2 SCT V BKN T01000050,M
EWR,2023-01-06 13:51,46.00,38.00,73.18,290.00,5.00,0.04,29.95,1014.30,5.00,M,FEW,SCT,BKN,M,800.00,2000.00,3400.00,M,RA,M,M,M,27.00,290.00,2023-01-06 13:39,43.02,KEWR 061851Z 29005KT 5SM R04R/4500VP6000FT RA FEW008 SCT020 BKN034 08/03 A2995 RMK AO2 PK WND 29027/1839 RAB40 SLP143 P0004 T00780033,M
EWR,2023-01-06 14:51,48.00,40.00,73.38,260.00,10.00,T,29.96,1014.50,10.00,M,FEW,SCT,BKN,BKN,1800.00,3600.00,5000.00,13000.00,M,M,M,M,M,M,M,43.03,KEWR 061951Z 26010KT 10SM FEW018 SCT036 BKN050 BKN130 09/04 A2996 RMK AO2 RAE00 SLP145 P0000 T00890044,M
EWR,2023-01-06 15:51,48.00,37.00,65.51,280.00,13.00,0.00,29.99,1015.30,10.00,21.00,FEW,FEW,BKN,BKN,2200.00,3800.00,6000.00,13000.00,M,M,M,M,M,M,M,42.07,KEWR 062051Z 28013G21KT 10SM FEW022 FEW038 BKN060 BKN130 09/03 A2999 RMK AO2 SLP153 60004 T00890028 53014,M
EWR,2023-01-06 16:51,47.00,36.00,65.63,280.00,10.00,0.00,30.00,1016.00,10.00,18.00,BKN,BKN,M,M,3200.00,6000.00,M,M,M,M,M,M,M,M,M,41.65,KEWR 062151Z 28010G18KT 10SM BKN032 BKN060 08/02 A3000 RMK AO2 SLP160 T00830022,M
EWR,2023-01-06 17:51,46.00,36.00,67.90,270.00,6.00,0.00,30.03,1016.90,10.00,M,SCT,BKN,M,M,3500.00,12000.00,M,M,M,M,M,M,M,M,M,42.39,KEWR 062251Z 27006KT 10SM SCT035 BKN120 08/02 A3003 RMK AO2 SLP169 T00780022,M
EWR,2023-01-06 18:51,45.00,35.00,68.05,250.00,7.00,0.00,30.06,1017.80,10.00,M,SCT,BKN,BKN,M,3400.00,7500.00,12000.00,M,M,M,M,M,M,M,M,40.63,KEWR 062351Z 25007KT 10SM SCT034 BKN075 BKN120 07/02 A3006 RMK AO2 SLP178 60004 T00720017 10100 20067 53025,M
EWR,2023-01-06 19:51,44.00,32.00,62.21,290.00,8.00,0.00,30.08,1018.60,10.00,17.00,FEW,SCT,SCT,M,3200.00,8000.00,12000.00,M,M,M,M,M,M,M,M,39.02,KEWR 070051Z 29008G17KT 10SM FEW032 SCT080 SCT120 07/00 A3008 RMK AO2 SLP186 T00670000,M
EWR,2023-01-06 20:51,43.00,30.90,62.06,290.00,8.00,0.00,30.11,1019.40,10.00,M,FEW,BKN,M,M,3200.00,8000.00,M,M,M,M,M,M,M,M,M,37.66,KEWR 070151Z 29008KT 10SM FEW032 BKN080 06/M01 A3011 RMK AO2 SLP194 T00611006,M
EWR,2023-01-06 21:51,42.00,30.90,64.24,270.00,6.00,0.00,30.12,1019.90,10.00,M,BKN,M,M,M,8500.00,M,M,M,M,M,M,M,M,M,M,37.69,KEWR 070251Z 27006KT 10SM BKN085 06/M01 A3012 RMK AO2 SLP199 T00561006 51021,M
EWR,2023-01-06 22:51,41.00,30.00,64.63,250.00,6.00,0.00,30.13,1020.20,10.00,M,SCT,M,M,M,7500.00,M,M,M,M,M,M,M,M,M,M,36.37,KEWR 070351Z 25006KT 10SM SCT075 05/M01 A3013 RMK AO2 SLP202 T00501011,M
EWR,2023-01-06 23:51,39.00,28.90,66.79,270.00,6.00,0.00,30.12,1019.80,10.00,M,FEW,M,M,M,7500.00,M,M,M,M,M,M,M,M,M,M,33.96,KEWR 070451Z 27006KT 10SM FEW075 04/M02 A3012 RMK AO2 SLP198 T00391017 401000039,M
EWR,2023-01-07 00:51,38.00,30.00,72.93,250.00,8.00,0.00,30.12,1019.90,10.00,M,FEW,M,M,M,8000.00,M,M,M,M,M,M,M,M,M,M,31.38,KEWR 070551Z 25008KT 10SM FEW080 03/M01 A3012 RMK AO2 SLP199 T00331011 10072 20033 58001,M
EWR,2023-01-07 01:51,37.00,28.90,72.24,270.00,7.00,0.00,30.12,1019.80,10.00,M,CLR,M,M,M,M,M,M,M,M,M,M,M,M,M,M,30.87,KEWR 070651Z 27007KT 10SM CLR 03/M02 A3012 RMK AO2 SLP198 T00281017,M
EWR,2023-01-07 02:51,37.00,30.00,75.56,260.00,7.00,0.00,30.12,1020.00,10.00,M,FEW,M,M,M,6000.00,M,M,M,M,M,M,M,M,M,M,30.87,KEWR 070751Z 26007KT 10SM FEW060 03/M01 A3012 RMK AO2 SLP200 T00281011,M
EWR,2023-01-07 03:51,37.00,30.00,75.56,260.00,8.00,0.00,30.12,1019.80,10.00,M,FEW,M,M,M,5500.00,M,M,M,M,M,M,M,M,M,M,30.27,KEWR 070851Z 26008KT 10SM FEW055 03/M01 A3012 RMK AO2 SLP198 T00281011 58000,M
EWR,2023-01-07 04:51,37.00,30.00,75.56,260.00,9.00,0.00,30.11,1019.70,10.00,M,FEW,M,M,M,5500.00,M,M,M,M,M,M,M,M,M,M,29.73,KEWR 070951Z 26009KT 10SM FEW055 03/M01 A3011 RMK AO2 SLP197 T00281011,M
EWR,2023-01-07 05:51,37.00,30.00,75.56,280.00,9.00,0.00,30.12,1020.00,10.00,M,BKN,M,M,M,6000.00,M,M,M,M,M,M,M,M,M,M,29.73,KEWR 071051Z 28009KT 10SM BKN060 03/M01 A3012 RMK AO2 SLP200 T00281011,M
EWR,2023-01-07 06:51,38.00,30.00,72.93,260.00,7.00,0.00,30.14,1020.40,10.00,M,BKN,M,M,M,6500.00,M,M,M,M,M,M,M,M,M,M,31.97,KEWR 071151Z 26007KT 10SM BKN065 03/M01 A3014 RMK AO2 SLP204 70005 T00331011 10033 20028 53006,M
EWR,2023-01-07 07:51,39.00,30.00,69.85,M,5.00,0.00,30.15,1020.80,10.00,M,BKN,M,M,M,7000.00,M,M,M,M,M,M,M,M,M,M,34.71,KEWR 071251Z VRB05KT 10SM BKN070 04/M01 A3015 RMK AO2 SLP208 T00391011,M
EWR,2023-01-07 08:51,40.00,30.00,67.45,280.00,7.00,0.00,30.16,1021.20,10.00,M,OVC,M,M,M,7000.00,M,M,M,M,M,M,M,M,M,M,34.41,KEWR 071351Z 28007KT 10SM OVC070 04/M01 A3016 RMK AO2 SLP212 T00441011,M
EWR,2023-01-07 09:51,41.00,30.00,64.63,260.00,6.00,0.00,30.17,1021.60,10.00,M,BKN,M,M,M,7000.00,M,M,M,M,M,M,M,M,M,M,36.37,KEWR 071451Z 26006KT 10SM BKN070 05/M01 A3017 RMK AO2 SLP216 T00501011 53012,M
EWR,2023-01-07 10:51,43.00,30.00,59.83,280.00,6.00,0.00,30.16,1021.20,10.00,M,BKN,M,M,M,7500.00,M,M,M,M,M,M,M,M,M,M,38.78,KEWR 071551Z 28006KT 10SM BKN075 06/M01 A3016 RMK AO2 SLP212 T00611011,M
EWR,2023-01-07 11:51,46.00,28.00,49.18,300.00,10.00,0.00,30.13,1020.10,10.00,19.00,FEW,BKN,M,M,3500.00,7500.00,M,M,M,M,M,M,M,M,M,40.52,KEWR 071651Z 30010G19KT 10SM FEW035 BKN075 08/M02 A3013 RMK AO2 SLP201 T00781022,M
EWR,2023-01-07 12:51,45.00,28.00,51.08,290.00,15.00,0.00,30.12,1019.80,10.00,20.00,FEW,OVC,M,M,3500.00,7000.00,M,M,M,M,M,M,M,M,M,37.63,KEWR 071751Z 29015G20KT 10SM FEW035 OVC070 07/M02 A3012 RMK AO2 SLP198 T00721022 10089 20033 56018,M
EWR,2023-01-07 13:51,46.00,28.90,51.03,290.00,14.00,0.00,30.12,1019.90,10.00,20.00,FEW,OVC,M,M,3500.00,7500.00,M,M,M,M,M,M,M,M,M,39.21,KEWR 071851Z 29014G20KT 10SM FEW035 OVC075 08/M02 A3012 RMK AO2 SLP199 T00781017,M
EWR,2023-01-07 14:51,45.00,28.90,53.00,290.00,13.00,0.00,30.13,1020.10,10.00,20.00,SCT,BKN,M,M,3600.00,7500.00,M,M,M,M,M,M,M,M,M,38.22,KEWR 071951Z 29013G20KT 10SM SCT036 BKN075 07/M02 A3013 RMK AO2 SLP201 T00721017,M
EWR,2023-01-07 15:51,45.00,28.90,53.00,310.00,8.00,0.00,30.14,1020.50,10.00,M,SCT,BKN,M,M,3900.00,8000.00,M,M,M,M,M,M,M,M,M,40.13,KEWR 072051Z 31008KT 10SM SCT039 BKN080 07/M02 A3014 RMK AO2 SLP205 T00721017 53007,M
EWR,2023-01-07 16:51,44.00,27.00,50.73,300.00,11.00,0.00,30.15,1020.90,10.00,20.00,FEW,FEW,BKN,M,4400.00,8000.00,25000.00,M,M,M,M,M,M,M,M,37.76,KEWR 072151Z 30011G20KT 10SM FEW044 FEW080 BKN250 07/M03 A3015 RMK AO2 SLP209 T00671028,M
EWR,2023-01-07 17:51,43.00,28.00,55.14,270.00,9.00,0.00,30.18,1021.80,10.00,16.00,FEW,FEW,BKN,M,4500.00,8000.00,25000.00,M,M,M,M,M,M,M,M,37.19,KEWR 072251Z 27009G16KT 10SM FEW045 FEW080 BKN250 06/M02 A3018 RMK AO2 SLP218 T00611022,M
EWR,2023-01-07 18:51,42.00,28.90,59.22,270.00,8.00,0.00,30.20,1022.60,10.00,M,FEW,FEW,BKN,M,4500.00,8000.00,25000.00,M,M,M,M,M,M,M,M,36.55,KEWR 072351Z 27008KT 10SM FEW045 FEW080 BKN250 06/M02 A3020 RMK AO2 SLP226 T00561017 10078 20056 53020,M
EWR,2023-01-07 19:51,41.00,30.00,64.63,280.00,8.00,0.00,30.22,1023.20,10.00,16.00,FEW,FEW,BKN,M,4500.00,8000.00,25000.00,M,M,M,M,M,M,M,M,35.20,KEWR 080051Z 28008G16KT 10SM FEW045 FEW080 BKN250 05/M01 A3022 RMK AO2 SLP232 T00501011,M
EWR,2023-01-07 20:51,41.00,30.00,64.63,280.00,8.00,0.00,30.23,1023.50,10.00,M,FEW,FEW,SCT,M,4500.00,8000.00,25000.00,M,M,M,M,M,M,M,M,35.20,KEWR 080151Z 28008KT 10SM FEW045 FEW080 SCT250 05/M01 A3023 RMK AO2 SLP235 T00501011,M
EWR,2023-01-07 21:51,41.00,28.90,61.79,300.00,7.00,0.00,30.24,1023.80,10.00,M,SCT,SCT,BKN,M,4300.00,8000.00,25000.00,M,M,M,M,M,M,M,M,35.75,KEWR 080251Z 30007KT 10SM SCT043 SCT080 BKN250 05/M02 A3024 RMK AO2 SLP238 T00501017 51012,M
EWR,2023-01-07 22:51,40.00,28.00,62.15,310.00,8.00,0.00,30.25,1024.10,10.00,M,FEW,SCT,BKN,M,4500.00,8000.00,25000.00,M,M,M,M,M,M,M,M,33.84,KEWR 080351Z 31008KT 10SM FEW045 SCT080 BKN250 04/M02 A3025 RMK AO2 SLP241 T00441022,M
EWR,2023-01-07 23:51,39.00,25.00,56.86,320.00,11.00,0.00,30.25,1024.20,10.00,M,FEW,FEW,M,M,8000.00,25000.00,M,M,M,M,M,M,M,M,M,31.31,KEWR 080451Z 32011KT 10SM FEW080 FEW250 04/M04 A3025 RMK AO2 SLP242 T00391039 400890028,M
EWR,2023-01-08 00:51,38.00,25.00,59.36,310.00,5.00,0.00,30.26,1024.50,10.00,M,FEW,FEW,M,M,4000.00,25000.00,M,M,M,M,M,M,M,M,M,33.40,KEWR 080551Z 31005KT 10SM FEW040 FEW250 03/M04 A3026 RMK AO2 SLP245 T00331039 10056 20033 51007,M
EWR,2023-01-08 01:51,37.00,25.00,61.50,310.00,4.00,0.00,30.26,1024.70,10.00,M,FEW,M,M,M,3500.00,M,M,M,M,M,M,M,M,M,M,33.26,KEWR 080651Z 31004KT 10SM FEW035 03/M04 A3026 RMK AO2 SLP247 T00281039,M
EWR,2023-01-08 02:51,36.00,25.00,63.98,310.00,6.00,0.00,30.28,1025.40,10.00,M,CLR,M,M,M,M,M,M,M,M,M,M,M,M,M,M,30.35,KEWR 080751Z 31006KT 10SM CLR 02/M04 A3028 RMK AO2 SLP254 T00221039,M
EWR,2023-01-08 03:51,36.00,25.00,63.98,310.00,7.00,0.00,30.29,1025.60,10.00,M,CLR,M,M,M,M,M,M,M,M,M,M,M,M,M,M,29.65,KEWR 080851Z 31007KT 10SM CLR 02/M04 A3029 RMK AO2 SLP256 T00221039 53011,M
EWR,2023-01-08 04:51,36.00,21.90,56.18,290.00,7.00,0.00,30.31,1026.20,10.00,M,CLR,M,M,M,M,M,M,M,M,M,M,M,M,M,M,29.65,KEWR 080951Z 29007KT 10SM CLR 02/M06 A3031 RMK AO2 SLP262 T00221056,M
EWR,2023-01-08 05:51,34.00,21.90,60.83,300.00,5.00,0.00,30.32,1026.70,10.00,M,CLR,M,M,M,M,M,M,M,M,M,M,M,M,M,M,28.77,KEWR 081051Z 30005KT 10SM CLR 01/M06 A3032 RMK AO2 SLP267 T00111056,M
EWR,2023-01-08 06:51,34.00,21.00,58.56,350.00,9.00,0.00,30.32,1026.60,10.00,M,CLR,M,M,M,M,M,M,M,M,M,M,M,M,M,M,26.00,KEWR 081151Z 35009KT 10SM CLR 01/M06 A3032 RMK AO2 SLP266 T00111061 10033 20011 50010,M
EWR,2023-01-08 07:51,35.00,21.00,56.05,320.00,6.00,0.00,30.34,1027.20,10.00,M,FEW,M,M,M,25000.00,M,M,M,M,M,M,M,M,M,M,29.26,KEWR 081251Z 32006KT 10SM FEW250 02/M06 A3034 RMK AO2 SLP272 T00171061,M
EWR,2023-01-08 08:51,36.00,21.00,54.08,320.00,7.00,0.00,30.34,1027.40,10.00,M,FEW,M,M,M,25000.00,M,M,M,M,M,M,M,M,M,M,29.65,KEWR 081351Z 32007KT 10SM FEW250 02/M06 A3034 RMK AO2 SLP274 T00221061,M
EWR,2023-01-08 09:51,38.00,21.90,52.13,360.00,4.00,0.00,30.35,1027.50,10.00,M,FEW,M,M,M,25000.00,M,M,M,M,M,M,M,M,M,M,34.31,KEWR 081451Z 36004KT 10SM FEW250 03/M06 A3035 RMK AO2 SLP275 T00331056 51009,M
EWR,2023-01-08 10:51,39.00,21.90,49.93,40.00,3.00,0.00,30.34,1027.40,10.00,M,SCT,M,M,M,25000.00,M,M,M,M,M,M,M,M,M,M,36.69,KEWR 081551Z 04003KT 10SM SCT250 04/M06 A3034 RMK AO2 SLP274 T00391056,M
EWR,2023-01-08 11:51,40.00,21.90,48.21,30.00,4.00,0.00,30.30,1025.90,10.00,M,BKN,M,M,M,25000.00,M,M,M,M,M,M,M,M,M,M,36.65,KEWR 081651Z 03004KT 10SM BKN250 04/M06 A3030 RMK AO2 PRESFR SLP259 T00441056,M
EWR,2023-01-08 12:51,40.00,21.90,48.21,0.00,0.00,0.00,30.28,1025.40,10.00,M,SCT,BKN,M,M,20000.00,25000.00,M,M,M,M,M,M,M,M,M,39.90,KEWR 081751Z 00000KT 10SM SCT200 BKN250 04/M06 A3028 RMK AO2 SLP254 T00441056 10056 20006 58021,M
EWR,2023-01-08 13:51,41.00,21.00,44.47,160.00,5.00,0.00,30.26,1024.60,10.00,M,SCT,BKN,M,M,20000.00,25000.00,M,M,M,M,M,M,M,M,M,37.08,KEWR 081851Z 16005KT 10SM SCT200 BKN250 05/M06 A3026 RMK AO2 SLP246 T00501061,M
EWR,2023-01-08 14:51,42.00,21.90,44.27,170.00,5.00,0.00,30.26,1024.40,10.00,M,FEW,BKN,M,M,20000.00,25000.00,M,M,M,M,M,M,M,M,M,38.39,KEWR 081951Z 17005KT 10SM FEW200 BKN250 06/M06 A3026 RMK AO2 SLP244 T00561056,M
EWR,2023-01-08 15:51,41.00,21.00,44.47,180.00,5.00,0.00,30.24,1023.90,10.00,M,FEW,SCT,BKN,M,13000.00,20000.00,25000.00,M,M,M,M,M,M,M,M,37.08,KEWR 082051Z 18005KT 10SM FEW130 SCT200 BKN250 05/M06 A3024 RMK AO2 SLP239 T00501061 56015,M
EWR,2023-01-08 16:51,39.00,21.90,49.93,210.00,6.00,0.00,30.24,1023.90,10.00,M,BKN,BKN,BKN,M,14000.00,20000.00,25000.00,M,M,M,M,M,M,M,M,33.96,KEWR 082151Z 21006KT 10SM BKN140 BKN200 BKN250 04/M06 A3024 RMK AO2 SLP239 T00391056,M
EWR,2023-01-08 17:51,39.00,27.00,61.78,150.00,7.00,0.00,30.22,1023.10,10.00,M,BKN,BKN,BKN,M,13000.00,20000.00,25000.00,M,M,M,M,M,M,M,M,33.31,KEWR 082251Z 15007KT 10SM BKN130 BKN200 BKN250 04/M03 A3022 RMK AO2 SLP231 T00391028,M
EWR,2023-01-08 18:51,39.00,27.00,61.78,160.00,3.00,0.00,30.20,1022.70,10.00,M,BKN,BKN,BKN,M,12000.00,20000.00,25000.00,M,M,M,M,M,M,M,M,36.69,KEWR 082351Z 16003KT 10SM BKN120 BKN200 BKN250 04/M03 A3020 RMK AO2 SLP227 T00391028 10056 20039 58012,M
EWR,2023-01-08 19:51,38.00,28.00,67.20,170.00,5.00,0.00,30.19,1022.20,10.00,M,BKN,BKN,M,M,12000.00,24000.00,M,M,M,M,M,M,M,M,M,33.40,KEWR 090051Z 17005KT 10SM BKN120 BKN240 03/M02 A3019 RMK AO2 SLP222 T00331022,M
EWR,2023-01-08 20:51,38.00,28.00,67.20,180.00,5.00,0.00,30.18,1021.90,10.00,M,BKN,BKN,M,M,10000.00,22000.00,M,M,M,M,M,M,M,M,M,33.40,KEWR 090151Z 18005KT 10SM BKN100 BKN220 03/M02 A3018 RMK AO2 SLP219 T00331022,M
EWR,2023-01-08 21:51,38.00,28.00,67.20,170.00,5.00,0.00,30.16,1021.00,10.00,M,SCT,OVC,M,M,10000.00,21000.00,M,M,M,M,M,M,M,M,M,33.40,KEWR 090251Z 17005KT 10SM SCT100 OVC210 03/M02 A3016 RMK AO2 SLP210 T00331022 58017,M
EWR,2023-01-08 22:51,38.00,28.90,69.73,160.00,3.00,0.00,30.14,1020.40,10.00,M,BKN,BKN,OVC,M,5000.00,9000.00,20000.00,M,M,M,M,M,M,M,M,35.43,KEWR 090351Z 16003KT 10SM BKN050 BKN090 OVC200 03/M02 A3014 RMK AO2 SLP204 T00331017,M
EWR,2023-01-08 23:51,38.00,28.90,69.73,150.00,3.00,0.00,30.11,1019.50,10.00,M,OVC,M,M,M,4300.00,M,M,M,M,M,M,M,M,M,M,35.43,KEWR 090451Z 15003KT 10SM OVC043 03/M02 A3011 RMK AO2 SLP195 T00331017 400560006,M
EWR,2023-01-09 00:30,39.00,28.90,66.79,180.00,3.00,T,30.09,M,10.00,M,OVC,M,M,M,4200.00,M,M,M,-RASN,M,M,M,M,M,M,36.69,KEWR 090530Z 18003KT 10SM -RASN OVC042 04/M02 A3009 RMK AO2 RAB05SNB30 P0000 T00391017,M
EWR,2023-01-09 00:51,39.00,30.00,69.85,190.00,3.00,T,30.08,1018.50,10.00,M,OVC,M,M,M,3800.00,M,M,M,-RASN,M,M,M,M,M,M,36.69,KEWR 090551Z 19003KT 10SM -RASN OVC038 04/M01 A3008 RMK AO2 RAB05SNB30 SLP185 P0000 60000 T00391011 10039 20028 58025,M
EWR,2023-01-09 01:51,39.00,30.90,72.45,200.00,4.00,T,30.06,1017.80,10.00,M,OVC,M,M,M,3400.00,M,M,M,-RASN,M,M,M,M,M,M,35.59,KEWR 090651Z 20004KT 10SM -RASN OVC034 04/M01 A3006 RMK AO2 SLP178 P0000 T00391006,M
EWR,2023-01-09 02:15,39.00,32.00,75.75,220.00,3.00,T,30.05,M,9.00,M,BKN,OVC,M,M,2000.00,3400.00,M,M,-RASN,M,M,M,M,M,M,36.69,KEWR 090715Z 22003KT 9SM -RASN BKN020 OVC034 04/00 A3005 RMK AO2 P0000 T00390000,M
EWR,2023-01-09 02:51,39.00,33.00,79.17,200.00,4.00,T,30.03,1016.80,9.00,M,FEW,BKN,OVC,M,1000.00,1600.00,3200.00,M,-RASN,M,M,M,M,M,M,35.59,KEWR 090751Z 20004KT 9SM -RASN FEW010 BKN016 OVC032 04/01 A3003 RMK AO2 SLP168 P0000 T00390006,M
EWR,2023-01-09 03:07,38.00,33.00,82.66,220.00,3.00,T,30.02,M,9.00,M,FEW,BKN,OVC,M,900.00,1400.00,2100.00,M,-RASN,M,M,M,M,M,M,35.43,KEWR 090807Z 22003KT 9SM -RASN FEW009 BKN014 OVC021 03/01 A3002 RMK AO2 P0000 T00330006,M
EWR,2023-01-09 03:51,39.00,35.00,85.76,0.00,0.00,0.01,29.99,1015.60,9.00,M,OVC,M,M,M,1000.00,M,M,M,-RASN,M,M,M,M,M,M,39.00,KEWR 090851Z 00000KT 9SM -RASN OVC010 04/02 A2999 RMK AO2 SLP156 P0001 60001 T00390017 58030,M
EWR,2023-01-09 04:19,39.00,35.00,85.76,0.00,0.00,T,29.98,M,9.00,M,OVC,M,M,M,900.00,M,M,M,-RASN,M,M,M,M,M,M,39.00,KEWR 090919Z 00000KT 9SM -RASN OVC009 04/02 A2998 RMK AO2 P0000 T00390017,M
EWR,2023-01-09 04:40,38.00,34.00,85.69,340.00,5.00,T,29.97,M,9.00,M,OVC,M,M,M,1000.00,M,M,M,-RASN,M,M,M,M,M,M,33.40,KEWR 090940Z 34005KT 9SM -RASN OVC010 03/01 A2997 RMK AO2 P0000 T00330011,M
EWR,2023-01-09 04:51,38.00,34.00,85.69,320.00,4.00,T,29.97,1014.80,9.00,M,OVC,M,M,M,1100.00,M,M,M,-RASN,M,M,M,M,M,M,34.31,KEWR 090951Z 32004KT 9SM -RASN OVC011 03/01 A2997 RMK AO2 SLP148 P0000 T00330011,M
EWR,2023-01-09 04:59,38.00,34.00,85.69,330.00,3.00,T,29.97,M,9.00,M,OVC,M,M,M,1100.00,M,M,M,M,M,M,M,M,M,M,35.43,KEWR 090959Z 33003KT 9SM OVC011 03/01 A2997 RMK AO2 RAE58SNE58 P0000 T00330011,M
EWR,2023-01-09 05:51,38.00,34.00,85.69,270.00,3.00,T,29.97,1014.90,10.00,M,BKN,OVC,M,M,1000.00,1700.00,M,M,M,M,M,M,M,M,M,35.43,KEWR 091051Z 27003KT 10SM BKN010 OVC017 03/01 A2997 RMK AO2 RAE0958SNE0958 SLP149 P0000 T00330011,M
EWR,2023-01-09 06:34,38.00,34.00,85.69,0.00,0.00,0.00,29.96,M,9.00,M,SCT,BKN,OVC,M,1200.00,2700.00,3400.00,M,M,M,M,M,M,M,M,37.90,KEWR 091134Z 00000KT 9SM SCT012 BKN027 OVC034 03/01 A2996 RMK AO2 T00330011,M
EWR,2023-01-09 06:51,38.00,34.00,85.69,0.00,0.00,0.00,29.95,1014.30,10.00,M,FEW,BKN,OVC,M,1100.00,2800.00,8000.00,M,M,M,M,M,M,M,M,37.90,KEWR 091151Z 00000KT 10SM FEW011 BKN028 OVC080 03/01 A2995 RMK AO2 SLP143 60001 70001 T00330011 10039 20028 56013,M
EWR,2023-01-09 07:20,38.00,33.00,82.66,290.00,5.00,0.00,29.96,M,10.00,M,FEW,SCT,BKN,OVC,1100.00,3000.00,6500.00,13000.00,M,M,M,M,M,M,M,33.40,KEWR 091220Z 29005KT 10SM FEW011 SCT030 BKN065 OVC130 03/01 A2996 RMK AO2 T00330006,M
EWR,2023-01-09 07:51,38.00,33.00,82.66,280.00,6.00,0.00,29.96,1014.50,10.00,M,FEW,FEW,BKN,BKN,1200.00,3000.00,6500.00,13000.00,M,M,M,M,M,M,M,32.64,KEWR 091251Z 28006KT 10SM FEW012 FEW030 BKN065 BKN130 03/01 A2996 RMK AO2 SLP145 T00330006,M
EWR,2023-01-09 08:51,39.00,34.00,82.08,250.00,5.00,0.00,29.97,1014.70,10.00,M,FEW,BKN,BKN,M,3000.00,7000.00,12000.00,M,M,M,M,M,M,M,M,34.71,KEWR 091351Z 25005KT 10SM FEW030 BKN070 BKN120 04/01 A2997 RMK AO2 SLP147 T00390011,M
EWR,2023-01-09 09:51,41.00,34.00,75.94,270.00,5.00,0.00,29.97,1014.80,10.00,M,FEW,SCT,SCT,M,3000.00,8500.00,11000.00,M,M,M,M,M,M,M,M,37.08,KEWR 091451Z 27005KT 10SM FEW030 SCT085 SCT110 05/01 A2997 RMK AO2 SLP148 T00500011 51006,M
EWR,2023-01-09 10:51,43.00,30.90,62.06,320.00,12.00,0.00,29.96,1014.40,10.00,M,FEW,FEW,SCT,M,3500.00,9000.00,11000.00,M,M,M,M,M,M,M,M,36.00,KEWR 091551Z 32012KT 10SM FEW035 FEW090 SCT110 06/M01 A2996 RMK AO2 SLP144 T00611006,M
EWR,2023-01-09 11:51,45.00,28.90,53.00,300.00,7.00,0.00,29.93,1013.40,10.00,M,FEW,FEW,M,M,3500.00,10000.00,M,M,M,M,M,M,M,M,M,40.63,KEWR 091651Z 30007KT 280V350 10SM FEW035 FEW100 07/M02 A2993 RMK AO2 SLP134 T00721017,M
EWR,2023-01-09 12:51,46.00,26.10,45.47,310.00,12.00,0.00,29.90,1012.60,10.00,M,FEW,FEW,M,M,3500.00,10000.00,M,M,M,M,M,M,M,M,M,39.82,KEWR 091751Z 31012KT 10SM FEW035 FEW100 08/M03 A2990 RMK AO2 SLP126 T00781033 10078 20033 58022,M
EWR,2023-01-09 13:51,47.00,26.10,43.95,300.00,11.00,0.00,29.89,1012.00,10.00,19.00,FEW,M,M,M,4000.00,M,M,M,M,M,M,M,M,M,M,41.30,KEWR 091851Z 30011G19KT 270V350 10SM FEW040 08/M03 A2989 RMK AO2 SLP120 T00831033,M
EWR,2023-01-09 14:51,47.00,24.10,40.44,310.00,12.00,0.00,29.89,1012.00,10.00,21.00,CLR,M,M,M,M,M,M,M,M,M,M,M,M,M,M,40.97,KEWR 091951Z 31012G21KT 10SM CLR 08/M04 A2989 RMK AO2 SLP120 T00831044,M
EWR,2023-01-09 15:51,45.00,21.90,39.62,280.00,14.00,0.00,29.90,1012.40,10.00,M,CLR,M,M,M,M,M,M,M,M,M,M,M,M,M,M,37.92,KEWR 092051Z 28014KT 10SM CLR 07/M06 A2990 RMK AO2 SLP124 T00721056 55002,M
EWR,2023-01-09 16:51,43.00,21.90,42.77,300.00,11.00,0.00,29.91,1012.70,10.00,20.00,CLR,M,M,M,M,M,M,M,M,M,M,M,M,M,M,36.37,KEWR 092151Z 30011G20KT 10SM CLR 06/M06 A2991 RMK AO2 SLP127 T00611056,M
EWR,2023-01-09 17:51,42.00,21.90,44.27,310.00,8.00,0.00,29.93,1013.40,10.00,M,CLR,M,M,M,M,M,M,M,M,M,M,M,M,M,M,36.55,KEWR 092251Z 31008KT 10SM CLR 06/M06 A2993 RMK AO2 SLP134 T00561056,M
EWR,2023-01-09 18:51,41.00,21.90,46.19,260.00,4.00,0.00,29.94,1013.80,10.00,M,CLR,M,M,M,M,M,M,M,M,M,M,M,M,M,M,37.93,KEWR 092351Z 26004KT 10SM CLR 05/M06 A2994 RMK AO2 SLP138 T00501056 10089 20050 53014,M
EWR,2023-01-09 19:51,41.00,21.90,46.19,0.00,0.00,0.00,29.93,1013.50,10.00,M,CLR,M,M,M,M,M,M,M,M,M,M,M,M,M,M,41.00,KEWR 100051Z 00000KT 10SM CLR 05/M06 A2993 RMK AO2 SLP135 T00501056,M
EWR,2023-01-09 20:51,39.00,24.10,54.77,250.00,6.00,0.00,29.94,1013.60,10.00,M,CLR,M,M,M,M,M,M,M,M,M,M,M,M,M,M,33.96,KEWR 100151Z 25006KT 10SM CLR 04/M04 A2994 RMK AO2 SLP136 T00391044,M
EWR,2023-01-09 21:51,39.00,24.10,54.77,260.00,6.00,0.00,29.94,1013.70,10.00,M,FEW,M,M,M,25000.00,M,M,M,M,M,M,M,M,M,M,33.96,KEWR 100251Z 26006KT 10SM FEW250 04/M04 A2994 RMK AO2 SLP137 T00391044 55001,M
EWR,2023-01-09 22:51,38.00,23.00,54.60,230.00,6.00,0.00,29.95,1014.10,10.00,M,FEW,M,M,M,25000.00,M,M,M,M,M,M,M,M,M,M,32.64,KEWR 100351Z 23006KT 10SM FEW250 03/M05 A2995 RMK AO2 SLP141 T00331050,M
EWR,2023-01-09 23:51,38.00,23.00,54.60,240.00,6.00,0.00,29.95,1014.00,10.00,M,FEW,M,M,M,25000.00,M,M,M,M,M,M,M,M,M,M,32.64,KEWR 100451Z 24006KT 10SM FEW250 03/M05 A2995 RMK AO2 SLP140 T00331050 400890028,M
EWR,2023-01-10 00:51,37.00,23.00,56.57,240.00,5.00,0.00,29.95,1014.20,10.00,M,FEW,M,M,M,25000.00,M,M,M,M,M,M,M,M,M,M,32.33,KEWR 100551Z 24005KT 10SM FEW250 03/M05 A2995 RMK AO2 SLP142 T00281050 10050 20028 51005,M
EWR,2023-01-10 01:51,37.00,23.00,56.57,270.00,5.00,0.00,29.97,1014.80,10.00,M,FEW,M,M,M,4000.00,M,M,M,M,M,M,M,M,M,M,32.33,KEWR 100651Z 27005KT 10SM FEW040 03/M05 A2997 RMK AO2 SLP148 T00281050,M
EWR,2023-01-10 02:51,34.00,23.00,63.72,200.00,4.00,0.00,29.99,1015.50,10.00,M,SCT,M,M,M,4000.00,M,M,M,M,M,M,M,M,M,M,29.76,KEWR 100751Z 20004KT 10SM SCT040 01/M05 A2999 RMK AO2 SLP155 T00111050,M
EWR,2023-01-10 03:51,35.00,24.10,63.86,230.00,7.00,0.00,29.99,1015.30,10.00,M,BKN,M,M,M,4000.00,M,M,M,M,M,M,M,M,M,M,28.56,KEWR 100851Z 23007KT 10SM BKN040 02/M04 A2999 RMK AO2 SLP153 T00171044 50010,M
EWR,2023-01-10 04:51,36.00,24.10,61.62,250.00,7.00,0.00,30.00,1015.70,10.00,M,OVC,M,M,M,3800.00,M,M,M,M,M,M,M,M,M,M,29.65,KEWR 100951Z 25007KT 10SM OVC038 02/M04 A3000 RMK AO2 SLP157 T00221044,M
EWR,2023-01-10 05:51,36.00,25.00,63.98,240.00,7.00,0.00,30.01,1016.30,10.00,M,OVC,M,M,M,3500.00,M,M,M,M,M,M,M,M,M,M,29.65,KEWR 101051Z 24007KT 10SM OVC035 02/M04 A3001 RMK AO2 SLP163 T00221039,M
EWR,2023-01-10 06:51,37.00,25.00,61.50,260.00,7.00,0.00,30.02,1016.50,10.00,M,OVC,M,M,M,3400.00,M,M,M,M,M,M,M,M,M,M,30.87,KEWR 101151Z 26007KT 10SM OVC034 03/M04 A3002 RMK AO2 SLP165 T00281039 10028 20006 51012,M
EWR,2023-01-10 07:51,38.00,26.10,62.14,250.00,6.00,0.00,30.04,1017.00,10.00,M,OVC,M,M,M,3400.00,M,M,M,M,M,M,M,M,M,M,32.64,KEWR 101251Z 25006KT 10SM OVC034 03/M03 A3004 RMK AO2 SLP170 T00331033,M
EWR,2023-01-10 08:51,39.00,26.10,59.52,250.00,7.00,0.00,30.05,1017.50,10.00,M,OVC,M,M,M,3500.00,M,M,M,M,M,M,M,M,M,M,33.31,KEWR 101351Z 25007KT 10SM OVC035 04/M03 A3005 RMK AO2 SLP175 T00391033,M
EWR,2023-01-10 09:51,39.00,27.00,61.78,240.00,8.00,0.00,30.06,1018.00,10.00,M,OVC,M,M,M,3700.00,M,M,M,M,M,M,M,M,M,M,32.74,KEWR 101451Z 24008KT 10SM OVC037 04/M03 A3006 RMK AO2 SLP180 T00391028 51015,M
EWR,2023-01-10 10:51,40.00,27.00,59.65,240.00,8.00,0.00,30.06,1017.80,10.00,M,OVC,M,M,M,3700.00,M,M,M,M,M,M,M,M,M,M,33.84,KEWR 101551Z 24008KT 10SM OVC037 04/M03 A3006 RMK AO2 SLP178 T00441028,M
EWR,2023-01-10 11:51,41.00,27.00,57.15,260.00,8.00,0.00,30.04,1017.00,10.00,M,OVC,M,M,M,3800.00,M,M,M,M,M,M,M,M,M,M,35.20,KEWR 101651Z 26008KT 10SM OVC038 05/M03 A3004 RMK AO2 SLP170 T00501028,M
EWR,2023-01-10 12:51,42.00,27.00,54.78,240.00,9.00,0.00,30.02,1016.60,10.00,M,OVC,M,M,M,3700.00,M,M,M,M,M,M,M,M,M,M,36.07,KEWR 101751Z 24009KT 10SM OVC037 06/M03 A3002 RMK AO2 SLP166 T00561028 10056 20028 58014,M
EWR,2023-01-10 13:51,42.00,27.00,54.78,250.00,9.00,0.00,30.02,1016.60,10.00,M,OVC,M,M,M,3600.00,M,M,M,M,M,M,M,M,M,M,36.07,KEWR 101851Z 25009KT 10SM OVC036 06/M03 A3002 RMK AO2 SLP166 T00561028,M
EWR,2023-01-10 14:51,42.00,28.00,57.08,290.00,7.00,0.00,30.02,1016.50,10.00,M,OVC,M,M,M,3800.00,M,M,M,M,M,M,M,M,M,M,37.09,KEWR 101951Z 29007KT 10SM OVC038 06/M02 A3002 RMK AO2 SLP165 T00561022,M
EWR,2023-01-10 15:51,42.00,28.00,57.08,280.00,8.00,0.00,30.03,1016.80,10.00,M,OVC,M,M,M,3500.00,M,M,M,M,M,M,M,M,M,M,36.55,KEWR 102051Z 28008KT 10SM OVC035 06/M02 A3003 RMK AO2 SLP168 T00561022 53002,M
EWR,2023-01-10 16:51,42.00,28.00,57.08,M,6.00,0.00,30.04,1017.20,10.00,M,OVC,M,M,M,3500.00,M,M,M,M,M,M,M,M,M,M,37.69,KEWR 102151Z VRB06KT 10SM OVC035 06/M02 A3004 RMK AO2 SLP172 T00561022,M
EWR,2023-01-10 17:51,42.00,28.00,57.08,290.00,7.00,0.00,30.06,1017.70,10.00,M,OVC,M,M,M,3800.00,M,M,M,M,M,M,M,M,M,M,37.09,KEWR 102251Z 29007KT 10SM OVC038 06/M02 A3006 RMK AO2 SLP177 T00561022,M
EWR,2023-01-10 18:51,42.00,28.00,57.08,290.00,7.00,0.00,30.07,1018.20,10.00,M,OVC,M,M,M,4100.00,M,M,M,M,M,M,M,M,M,M,37.09,KEWR 102351Z 29007KT 10SM OVC041 06/M02 A3007 RMK AO2 SLP182 T00561022 10061 20056 53014,M
EWR,2023-01-10 19:51,42.00,25.00,50.42,340.00,8.00,0.00,30.09,1018.70,10.00,M,OVC,M,M,M,3700.00,M,M,M,M,M,M,M,M,M,M,36.55,KEWR 110051Z 34008KT 10SM OVC037 06/M04 A3009 RMK AO2 SLP187 T00561039,M
EWR,2023-01-10 20:51,41.00,25.00,52.61,360.00,7.00,0.00,30.09,1019.00,10.00,M,OVC,M,M,M,4000.00,M,M,M,M,M,M,M,M,M,M,35.75,KEWR 110151Z 36007KT 10SM OVC040 05/M04 A3009 RMK AO2 SLP190 T00501039,M
EWR,2023-01-10 21:51,41.00,24.10,50.67,360.00,6.00,0.00,30.11,1019.50,10.00,M,OVC,M,M,M,4300.00,M,M,M,M,M,M,M,M,M,M,36.37,KEWR 110251Z 36006KT 10SM OVC043 05/M04 A3011 RMK AO2 SLP195 T00501044 53013,M
EWR,2023-01-10 22:51,40.00,25.00,54.90,20.00,4.00,0.00,30.12,1019.70,10.00,M,OVC,M,M,M,4300.00,M,M,M,M,M,M,M,M,M,M,36.65,KEWR 110351Z 02004KT 10SM OVC043 04/M04 A3012 RMK AO2 SLP197 T00441039,M
EWR,2023-01-10 23:51,40.00,25.00,54.90,20.00,4.00,0.00,30.13,1020.20,10.00,M,OVC,M,M,M,4400.00,M,M,M,M,M,M,M,M,M,M,36.65,KEWR 110451Z 02004KT 10SM OVC044 04/M04 A3013 RMK AO2 SLP202 T00441039 400610006,M
EWR,2023-01-11 00:51,40.00,25.00,54.90,30.00,6.00,0.00,30.13,1020.30,10.00,M,OVC,M,M,M,4500.00,M,M,M,M,M,M,M,M,M,M,35.04,KEWR 110551Z 03006KT 10SM OVC045 04/M04 A3013 RMK AO2 SLP203 T00441039 10056 20039 51008,M
EWR,2023-01-11 01:51,40.00,25.00,54.90,40.00,5.00,0.00,30.14,1020.50,10.00,M,OVC,M,M,M,4400.00,M,M,M,M,M,M,M,M,M,M,35.78,KEWR 110651Z 04005KT 10SM OVC044 04/M04 A3014 RMK AO2 SLP205 T00441039,M
EWR,2023-01-11 02:51,39.00,26.10,59.52,20.00,6.00,0.00,30.16,1021.30,10.00,M,OVC,M,M,M,4400.00,M,M,M,M,M,M,M,M,M,M,33.96,KEWR 110751Z 02006KT 10SM OVC044 04/M03 A3016 RMK AO2 SLP213 T00391033,M
EWR,2023-01-11 03:51,38.00,25.00,59.36,20.00,10.00,0.00,30.18,1021.80,10.00,M,OVC,M,M,M,4400.00,M,M,M,M,M,M,M,M,M,M,30.37,KEWR 110851Z 02010KT 10SM OVC044 03/M04 A3018 RMK AO2 SLP218 T00331039 53015,M
EWR,2023-01-11 04:51,37.00,23.00,56.57,10.00,10.00,0.00,30.19,1022.20,10.00,M,OVC,M,M,M,4500.00,M,M,M,M,M,M,M,M,M,M,29.24,KEWR 110951Z 01010KT 10SM OVC045 03/M05 A3019 RMK AO2 SLP222 T00281050,M
EWR,2023-01-11 05:51,37.00,24.10,59.24,20.00,9.00,0.00,30.18,1021.90,10.00,M,OVC,M,M,M,4300.00,M,M,M,M,M,M,M,M,M,M,29.73,KEWR 111051Z 02009KT 10SM OVC043 03/M04 A3018 RMK AO2 SLP219 T00281044,M
EWR,2023-01-11 06:51,36.00,23.00,58.85,10.00,9.00,0.00,30.20,1022.60,10.00,M,OVC,M,M,M,4200.00,M,M,M,M,M,M,M,M,M,M,28.49,KEWR 111151Z 01009KT 10SM OVC042 02/M05 A3020 RMK AO2 SLP226 T00221050 10044 20022 53008,M
EWR,2023-01-11 07:51,36.00,21.90,56.18,10.00,8.00,0.00,30.23,1023.70,10.00,M,OVC,M,M,M,4200.00,M,M,M,M,M,M,M,M,M,M,29.04,KEWR 111251Z 01008KT 10SM OVC042 02/M06 A3023 RMK AO2 SLP237 T00221056,M
EWR,2023-01-11 08:51,37.00,23.00,56.57,20.00,7.00,0.00,30.24,1023.80,10.00,M,OVC,M,M,M,4300.00,M,M,M,M,M,M,M,M,M,M,30.87,KEWR 111351Z 02007KT 10SM OVC043 03/M05 A3024 RMK AO2 SLP238 T00281050,M
EWR,2023-01-11 09:51,38.00,23.00,54.60,360.00,6.00,0.00,30.26,1024.70,10.00,M,OVC,M,M,M,4400.00,M,M,M,M,M,M,M,M,M,M,32.64,KEWR 111451Z 36006KT 10SM OVC044 03/M05 A3026 RMK AO2 SLP247 T00331050 51021,M
EWR,2023-01-11 10:51,39.00,24.10,54.77,20.00,5.00,0.00,30.27,1024.80,10.00,M,FEW,OVC,M,M,3500.00,4300.00,M,M,M,M,M,M,M,M,M,34.71,KEWR 111551Z 02005KT 10SM FEW035 OVC043 04/M04 A3027 RMK AO2 SLP248 T00391044,M
EWR,2023-01-11 11:51,40.00,24.10,52.88,M,3.00,0.00,30.26,1024.40,10.00,M,FEW,OVC,M,M,3500.00,4300.00,M,M,M,M,M,M,M,M,M,37.72,KEWR 111651Z VRB03KT 10SM FEW035 OVC043 04/M04 A3026 RMK AO2 SLP244 T00441044,M
EWR,2023-01-11 12:51,41.00,23.00,48.39,80.00,5.00,0.00,30.23,1023.60,10.00,M,FEW,BKN,OVC,M,3800.00,4400.00,25000.00,M,M,M,M,M,M,M,M,37.08,KEWR 111751Z 08005KT 10SM FEW038 BKN044 OVC250 05/M05 A3023 RMK AO2 SLP236 T00501050 10050 20022 58011,M
EWR,2023-01-11 13:51,41.00,21.90,46.19,M,3.00,0.00,30.23,1023.40,10.00,M,FEW,BKN,OVC,M,3800.00,4500.00,25000.00,M,M,M,M,M,M,M,M,38.98,KEWR 111851Z VRB03KT 10SM FEW038 BKN045 OVC250 05/M06 A3023 RMK AO2 SLP234 T00501056,M
EWR,2023-01-11 14:51,41.00,21.90,46.19,0.00,0.00,0.00,30.23,1023.60,10.00,M,FEW,BKN,OVC,M,3800.00,4500.00,25000.00,M,M,M,M,M,M,M,M,41.00,KEWR 111951Z 00000KT 10SM FEW038 BKN045 OVC250 05/M06 A3023 RMK AO2 SLP236 T00501056,M
EWR,2023-01-11 15:51,41.00,23.00,48.39,70.00,4.00,0.00,30.24,1023.90,10.00,M,FEW,BKN,OVC,M,4000.00,4500.00,25000.00,M,M,M,M,M,M,M,M,37.93,KEWR 112051Z 07004KT 10SM FEW040 BKN045 OVC250 05/M05 A3024 RMK AO2 SLP239 T00501050 53003,M
EWR,2023-01-11 16:51,40.00,23.00,50.50,M,5.00,0.00,30.24,1024.10,10.00,M,FEW,BKN,OVC,M,4000.00,17000.00,25000.00,M,M,M,M,M,M,M,M,35.78,KEWR 112151Z VRB05KT 10SM FEW040 BKN170 OVC250 04/M05 A3024 RMK AO2 SLP241 T00441050,M
EWR,2023-01-11 17:51,40.00,25.00,54.90,0.00,0.00,0.00,30.26,1024.40,10.00,M,SCT,BKN,OVC,M,4200.00,15000.00,25000.00,M,M,M,M,M,M,M,M,39.90,KEWR 112251Z 00000KT 10SM SCT042 BKN150 OVC250 04/M04 A3026 RMK AO2 SLP244 T00441039,M
EWR,2023-01-11 18:51,40.00,24.10,52.88,110.00,6.00,0.00,30.25,1024.40,10.00,M,BKN,BKN,OVC,M,3700.00,14000.00,24000.00,M,M,M,M,M,M,M,M,35.04,KEWR 112351Z 11006KT 10SM BKN037 BKN140 OVC240 04/M04 A3025 RMK AO2 SLP244 T00441044 10050 20039 50005,M
EWR,2023-01-11 19:51,40.00,25.00,54.90,100.00,4.00,0.00,30.26,1024.60,10.00,M,BKN,BKN,OVC,M,3800.00,8000.00,20000.00,M,M,M,M,M,M,M,M,36.65,KEWR 120051Z 10004KT 10SM BKN038 BKN080 OVC200 04/M04 A3026 RMK AO2 SLP246 T00441039,M
EWR,2023-01-11 20:51,39.00,25.00,56.86,100.00,4.00,0.00,30.26,1024.50,10.00,M,BKN,BKN,OVC,M,3800.00,18000.00,25000.00,M,M,M,M,M,M,M,M,35.59,KEWR 120151Z 10004KT 10SM BKN038 BKN180 OVC250 04/M04 A3026 RMK AO2 SLP245 T00391039,M
EWR,2023-01-11 21:51,39.00,27.00,61.78,80.00,5.00,0.00,30.26,1024.60,10.00,M,BKN,BKN,OVC,M,3800.00,7000.00,18000.00,M,M,M,M,M,M,M,M,34.71,KEWR 120251Z 08005KT 10SM BKN038 BKN070 OVC180 04/M03 A3026 RMK AO2 SLP246 T00391028 51002,M
EWR,2023-01-11 22:51,39.00,28.00,64.37,80.00,3.00,0.00,30.27,1024.80,10.00,M,SCT,OVC,M,M,3900.00,7000.00,M,M,M,M,M,M,M,M,M,36.69,KEWR 120351Z 08003KT 10SM SCT039 OVC070 04/M02 A3027 RMK AO2 SLP248 T00391022,M
EWR,2023-01-11 23:51,39.00,28.90,66.79,60.00,4.00,0.00,30.25,1024.20,10.00,M,FEW,OVC,M,M,4000.00,7000.00,M,M,M,M,M,M,M,M,M,35.59,KEWR 120451Z 06004KT 10SM FEW040 OVC070 04/M02 A3025 RMK AO2 SLP242 T00391017 400500022,M
EWR,2023-01-12 00:51,40.00,28.90,64.49,70.00,6.00,0.00,30.24,1023.80,10.00,M,FEW,BKN,OVC,M,4000.00,7000.00,8500.00,M,M,M,M,M,M,M,M,35.04,KEWR 120551Z 07006KT 10SM FEW040 BKN070 OVC085 04/M02 A3024 RMK AO2 SLP238 T00441017 10044 20039 58008,M
EWR,2023-01-12 01:42,40.00,28.90,64.49,70.00,5.00,0.00,30.22,M,10.00,M,OVC,M,M,M,2800.00,M,M,M,M,M,M,M,M,M,M,35.78,KEWR 120642Z 07005KT 10SM OVC028 04/M02 A3022 RMK AO2 T00441017,M
EWR,2023-01-12 01:51,40.00,28.90,64.49,80.00,5.00,0.00,30.23,1023.40,10.00,M,OVC,M,M,M,2800.00,M,M,M,M,M,M,M,M,M,M,35.78,KEWR 120651Z 08005KT 10SM OVC028 04/M02 A3023 RMK AO2 SLP234 T00441017,M
EWR,2023-01-12 02:51,40.00,30.00,67.45,70.00,6.00,0.00,30.21,1022.80,10.00,M,BKN,OVC,M,M,2600.00,3200.00,M,M,M,M,M,M,M,M,M,35.04,KEWR 120751Z 07006KT 10SM BKN026 OVC032 04/M01 A3021 RMK AO2 SLP228 T00441011,M
EWR,2023-01-12 03:51,41.00,30.90,67.03,60.00,6.00,0.00,30.19,1022.20,10.00,M,OVC,M,M,M,2200.00,M,M,M,M,M,M,M,M,M,M,36.37,KEWR 120851Z 06006KT 10SM OVC022 05/M01 A3019 RMK AO2 SLP222 T00501006 58016,M
EWR,2023-01-12 04:51,42.00,33.00,70.20,60.00,4.00,0.00,30.18,1021.90,10.00,M,BKN,OVC,M,M,2000.00,2500.00,M,M,M,M,M,M,M,M,M,39.21,KEWR 120951Z 06004KT 10SM BKN020 OVC025 06/01 A3018 RMK AO2 SLP219 T00560006,M
EWR,2023-01-12 05:51,42.00,34.00,72.78,50.00,6.00,T,30.18,1022.00,10.00,M,BKN,BKN,OVC,M,1900.00,2500.00,2900.00,M,-RA,M,M,M,M,M,M,37.69,KEWR 121051Z 05006KT 10SM -RA BKN019 BKN025 OVC029 06/01 A3018 RMK AO2 RAB27 SLP220 P0000 T00560011,M
EWR,2023-01-12 06:51,43.00,37.00,79.19,70.00,5.00,0.01,30.18,1021.80,7.00,M,FEW,SCT,OVC,M,1600.00,2600.00,3100.00,M,-RA,M,M,M,M,M,M,39.46,KEWR 121151Z 07005KT 7SM -RA FEW016 SCT026 OVC031 06/03 A3018 RMK AO2 SLP218 P0001 60001 70001 T00610028 10061 20044 56004,M
EWR,2023-01-12 07:37,43.00,38.00,82.04,60.00,4.00,0.02,30.17,M,5.00,M,SCT,BKN,OVC,M,1500.00,2300.00,3100.00,M,-RA,M,M,M,M,M,M,40.27,KEWR 121237Z 06004KT 5SM -RA SCT015 BKN023 OVC031 06/03 A3017 RMK AO2 P0002 T00610033,M
EWR,2023-01-12 07:51,43.00,39.00,85.66,80.00,4.00,0.03,30.17,1021.70,5.00,M,SCT,BKN,OVC,M,1200.00,2300.00,3300.00,M,-RA BR,M,M,M,M,M,M,40.27,KEWR 121251Z 08004KT 5SM -RA BR SCT012 BKN023 OVC033 06/04 A3017 RMK AO2 SLP217 P0003 T00610039,M
EWR,2023-01-12 08:51,42.00,39.00,88.67,10.00,5.00,0.05,30.17,1021.60,5.00,M,FEW,BKN,OVC,M,1500.00,2500.00,3400.00,M,-RA BR,M,M,M,M,M,M,38.39,KEWR 121351Z 01005KT 5SM -RA BR FEW015 BKN025 OVC034 06/04 A3017 RMK AO2 SLP216 P0005 T00560039,M
EWR,2023-01-12 09:47,44.60,39.20,81.20,20.00,5.00,T,30.17,M,10.00,M,SCT,BKN,OVC,M,1100.00,3200.00,5000.00,M,M,M,M,M,M,M,M,41.36,KEWR 121447Z 02005KT 10SM SCT011 BKN032 OVC050 07/04 A3017 RMK AO2 RAE43 P0000,M
EWR,2023-01-12 09:51,44.00,41.00,88.77,30.00,6.00,T,30.17,1021.60,10.00,M,SCT,BKN,OVC,M,1100.00,3200.00,5000.00,M,M,M,M,M,M,M,M,40.10,KEWR 121451Z 03006KT 10SM SCT011 BKN032 OVC050 07/05 A3017 RMK AO2 RAE43 SLP216 P0000 60008 T00670050 55001,M
EWR,2023-01-12 10:51,45.00,42.00,89.49,50.00,4.00,0.00,30.15,1020.90,10.00,M,FEW,BKN,OVC,M,1200.00,3200.00,5000.00,M,M,M,M,M,M,M,M,42.60,KEWR 121551Z 05004KT 10SM FEW012 BKN032 OVC050 07/06 A3015 RMK AO2 SLP209 T00720056,M
EWR,2023-01-12 11:45,46.40,42.80,87.19,20.00,5.00,0.00,30.11,M,10.00,M,FEW,BKN,OVC,M,1200.00,2900.00,5000.00,M,M,M,M,M,M,M,M,43.50,KEWR 121645Z 02005KT 10SM FEW012 BKN029 OVC050 08/06 A3011 RMK AO2 PRESFR,M
EWR,2023-01-12 11:51,46.00,42.00,86.16,360.00,5.00,0.00,30.10,1019.30,10.00,M,FEW,BKN,OVC,M,1500.00,2900.00,5000.00,M,M,M,M,M,M,M,M,43.02,KEWR 121651Z 36005KT 10SM FEW015 BKN029 OVC050 08/06 A3010 RMK AO2 SLP193 T00780056,M
EWR,2023-01-12 12:51,48.00,43.00,82.72,30.00,4.00,0.00,30.05,1017.40,10.00,M,FEW,SCT,OVC,M,1500.00,2500.00,4500.00,M,M,M,M,M,M,M,M,46.10,KEWR 121751Z 03004KT 10SM FEW015 SCT025 OVC045 09/06 A3005 RMK AO2 SLP174 60008 T00890061 10089 20056 58042,M
EWR,2023-01-12 13:51,50.00,45.00,82.86,40.00,4.00,0.00,30.02,1016.40,10.00,M,FEW,SCT,OVC,M,1500.00,2500.00,3700.00,M,M,M,M,M,M,M,M,50.00,KEWR 121851Z 04004KT 10SM FEW015 SCT025 OVC037 10/07 A3002 RMK AO2 SLP164 T01000072,M
EWR,2023-01-12 14:51,53.00,44.00,71.40,100.00,8.00,0.00,29.99,1015.30,10.00,M,FEW,BKN,OVC,M,1500.00,2800.00,4500.00,M,M,M,M,M,M,M,M,53.10,KEWR 121951Z 10008KT 10SM FEW015 BKN028 OVC045 12/07 A2999 RMK AO2 SLP153 T01170067,M
EWR,2023-01-12 15:51,53.00,45.00,73.89,130.00,8.00,0.00,29.95,1014.20,10.00,M,FEW,BKN,OVC,M,1500.00,2500.00,5500.00,M,M,M,M,M,M,M,M,53.10,KEWR 122051Z 13008KT 10SM FEW015 BKN025 OVC055 12/07 A2995 RMK AO2 SLP142 T01170072 58032,M
EWR,2023-01-12 16:51,52.00,46.00,79.92,120.00,8.00,0.00,29.90,1012.50,10.00,M,FEW,BKN,OVC,M,1100.00,2800.00,5500.00,M,M,M,M,M,M,M,M,52.00,KEWR 122151Z 12008KT 10SM FEW011 BKN028 OVC055 11/08 A2990 RMK AO2 SLP125 T01110078,M
EWR,2023-01-12 17:08,52.00,46.00,79.92,130.00,6.00,0.00,29.90,M,10.00,M,BKN,BKN,OVC,M,1100.00,2800.00,5000.00,M,M,M,M,M,M,M,M,52.00,KEWR 122208Z 13006KT 10SM BKN011 BKN028 OVC050 11/08 A2990 RMK AO2 T01110078,M
EWR,2023-01-12 17:31,52.00,46.00,79.92,140.00,6.00,0.00,29.88,M,10.00,M,FEW,BKN,OVC,M,800.00,1100.00,5000.00,M,M,M,M,M,M,M,M,52.00,KEWR 122231Z 14006KT 10SM FEW008 BKN011 OVC050 11/08 A2988 RMK AO2 LTG DSNT S AND SW OCNL LTGIC DSNT S-DSNT SW CB DSNT S-DSNT SW MOV NE T01110078,M
EWR,2023-01-12 17:42,52.00,47.00,82.68,M,5.00,0.00,29.88,M,10.00,M,BKN,OVC,M,M,800.00,5000.00,M,M,TS,M,M,M,M,M,M,52.00,KEWR 122242Z VRB05KT 10SM TS BKN008 OVC050CB 11/08 A2988 RMK AO2 LTG DSNT S-W TSB42 OCNL LTGIC VC SE-VC S TS VC SE-VC S MOV NE T01110083,M
EWR,2023-01-12 17:51,52.00,48.00,86.17,170.00,6.00,0.02,29.89,1012.00,5.00,M,BKN,OVC,M,M,800.00,4500.00,M,M,TSRA BR,M,M,M,M,M,M,52.00,KEWR 122251Z 17006KT 5SM TSRA BR BKN008 OVC045CB 11/09 A2989 RMK AO2 LTG DSNT SE AND W AND NW RAB43 TSB42 SLP120 OCNL LTGIC OHD TS OHD MOV NE P0002 T01110089,M
EWR,2023-01-12 18:12,52.00,49.00,89.13,110.00,5.00,0.05,29.86,M,5.00,M,BKN,BKN,OVC,M,800.00,4000.00,6000.00,M,RA BR,M,M,M,M,M,M,52.00,KEWR 122312Z 11005KT 5SM RA BR BKN008 BKN040 OVC060 11/09 A2986 RMK AO2 LTG DSNT N AND E TSE12 PRESFR P0005 T01110094 $,M
EWR,2023-01-12 18:51,52.00,49.00,89.13,130.00,6.00,0.06,29.84,1010.50,6.00,M,BKN,BKN,OVC,M,900.00,1600.00,4200.00,M,-RA BR,M,M,M,M,M,M,52.00,KEWR 122351Z 13006KT 6SM -RA BR BKN009 BKN016 OVC042 11/09 A2984 RMK AO2 TSE12 SLP105 CIG 008V010 P0006 60008 T01110094 10117 20089 56037 $,M
EWR,2023-01-12 19:51,54.00,51.00,89.88,170.00,5.00,0.01,29.81,1009.20,8.00,M,BKN,OVC,M,M,800.00,1400.00,M,M,-RA,M,M,M,M,M,M,54.00,KEWR 130051Z 17005KT 8SM -RA BKN008 OVC014 12/11 A2981 RMK AO2 RAE2356B17 SLP092 P0001 T01220106 $,M
EWR,2023-01-12 20:51,54.00,52.00,92.92,150.00,5.00,0.03,29.76,1007.80,6.00,M,BKN,BKN,OVC,M,800.00,1600.00,3200.00,M,-RA BR,M,M,M,M,M,M,54.00,KEWR 130151Z 15005KT 6SM -RA BR BKN008 BKN016 OVC032 12/11 A2976 RMK AO2 SLP078 BKN008 V SCT P0003 T01220111 $,M
EWR,2023-01-12 21:16,55.00,52.00,89.59,160.00,5.00,T,29.75,M,9.00,M,SCT,BKN,OVC,M,800.00,2500.00,3600.00,M,-RA,M,M,M,M,M,M,55.00,KEWR 130216Z 16005KT 9SM -RA SCT008 BKN025 OVC036 13/11 A2975 RMK AO2 P0000 T01280111 $,M
EWR,2023-01-12 21:51,55.00,53.00,93.29,M,4.00,T,29.73,1006.60,9.00,M,FEW,BKN,OVC,M,800.00,2800.00,5500.00,M,M,M,M,M,M,M,M,55.00,KEWR 130251Z VRB04KT 9SM FEW008 BKN028 OVC055 13/12 A2973 RMK AO2 RAE39 SLP066 P0000 60004 T01280117 56039 $,M
EWR,2023-01-12 22:21,56.00,53.00,90.29,170.00,4.00,T,29.71,M,10.00,M,FEW,SCT,OVC,M,800.00,3000.00,5500.00,M,M,M,M,M,M,M,M,55.90,KEWR 130321Z 17004KT 10SM FEW008 SCT030 OVC055 13/12 A2971 RMK AO2 RAB12E21 P0000 T01330117 $,M
EWR,2023-01-12 22:51,56.00,53.00,90.29,160.00,5.00,T,29.69,1005.30,9.00,M,FEW,SCT,BKN,OVC,800.00,4500.00,6000.00,13000.00,-RA,M,M,M,M,M,M,55.90,KEWR 130351Z 16005KT 9SM -RA FEW008 SCT045 BKN060 OVC130 13/12 A2969 RMK AO2 RAB12E21B45 SLP053 P0000 T01330117 $,M
EWR,2023-01-12 23:51,57.00,53.00,86.77,170.00,9.00,T,29.66,1004.20,10.00,M,FEW,SCT,BKN,BKN,1000.00,5500.00,9500.00,25000.00,M,M,M,M,M,M,M,57.00,KEWR 130451Z 17009KT 10SM FEW010 SCT055 BKN095 BKN250 14/12 A2966 RMK AO2 RAE20 SLP042 P0000 T01390117 401390039 $,M
EWR,2023-01-13 00:51,57.00,52.00,83.33,180.00,10.00,0.02,29.62,1002.80,7.00,M,FEW,BKN,OVC,M,1000.00,4200.00,8000.00,M,-RA,M,M,M,M,M,M,57.00,KEWR 130551Z 18010KT 7SM -RA FEW010 BKN042 OVC080 14/11 A2962 RMK AO2 RAB35 SLP028 P0002 60006 T01390111 10144 20111 58038 $,M
EWR,2023-01-13 01:51,57.00,54.00,89.68,170.00,6.00,0.08,29.58,1001.70,9.00,M,FEW,BKN,OVC,M,1000.00,3000.00,8000.00,M,M,M,M,M,M,M,M,57.00,KEWR 130651Z 17006KT 9SM FEW010 BKN030 OVC080 14/12 A2958 RMK AO2 RAE49 SLP017 P0008 T01390122 $,M
EWR,2023-01-13 02:48,59.00,53.60,82.25,190.00,9.00,0.01,29.58,M,10.00,M,BKN,BKN,OVC,M,1900.00,3000.00,8500.00,M,M,M,M,M,M,M,M,59.00,KEWR 130748Z 19009KT 10SM BKN019 BKN030 OVC085 15/12 A2958 RMK AO2 P0001 $,M
EWR,2023-01-13 02:51,59.00,54.00,83.46,190.00,10.00,0.01,29.57,1001.40,10.00,M,BKN,BKN,BKN,OVC,1800.00,3000.00,8500.00,16000.00,M,M,M,M,M,M,M,59.00,KEWR 130751Z 19010KT 10SM BKN018 BKN030 BKN085 OVC160 15/12 A2957 RMK AO2 SLP014 P0001 T01500122 $,M
EWR,2023-01-13 03:22,58.00,54.00,86.82,180.00,7.00,0.00,29.54,M,10.00,M,SCT,BKN,BKN,OVC,1800.00,3500.00,9500.00,15000.00,M,M,M,M,M,M,M,57.90,KEWR 130822Z 18007KT 10SM SCT018 BKN035 BKN095 OVC150 14/12 A2954 RMK AO2 PRESFR T01440122 $,M
EWR,2023-01-13 03:51,58.00,53.00,84.00,200.00,8.00,0.00,29.55,1000.60,10.00,M,SCT,BKN,BKN,OVC,1800.00,3500.00,9500.00,15000.00,M,M,M,M,M,M,M,57.90,KEWR 130851Z 20008KT 10SM SCT018 BKN035 BKN095 OVC150 14/12 A2955 RMK AO2 SLP006 60009 T01440117 58011 $,M
EWR,2023-01-13 04:40,57.00,52.00,83.33,190.00,9.00,0.00,29.53,M,10.00,M,FEW,BKN,OVC,M,1600.00,2800.00,18000.00,M,M,M,M,M,M,M,M,57.00,KEWR 130940Z 19009KT 10SM FEW016 BKN028 OVC180 14/11 A2953 RMK AO2 T01390111 $,M
EWR,2023-01-13 04:51,58.00,52.00,80.67,180.00,11.00,0.00,29.53,999.90,10.00,M,FEW,BKN,OVC,M,1600.00,2800.00,18000.00,M,M,M,M,M,M,M,M,57.90,KEWR 130951Z 18011KT 10SM FEW016 BKN028 OVC180 14/11 A2953 RMK AO2 SLP999 T01440111 $,M
EWR,2023-01-13 05:51,57.00,50.00,77.38,190.00,10.00,T,29.55,1000.60,10.00,M,OVC,M,M,M,2500.00,M,M,M,-RA,M,M,M,M,M,M,57.00,KEWR 131051Z 19010KT 10SM -RA OVC025 14/10 A2955 RMK AO2 RAB49 SLP006 P0000 T01390100 $,M
EWR,2023-01-13 06:51,56.00,50.00,80.52,190.00,10.00,T,29.54,1000.30,10.00,M,BKN,OVC,M,M,2500.00,3100.00,M,M,M,M,M,M,M,M,M,55.90,KEWR 131151Z 19010KT 10SM BKN025 OVC031 13/10 A2954 RMK AO2 RAE48 SLP003 P0000 60009 70031 T01330100 10150 20133 56002 $,M
EWR,2023-01-13 07:51,56.00,50.00,80.52,180.00,9.00,0.00,29.53,999.90,10.00,M,OVC,M,M,M,2300.00,M,M,M,M,M,M,M,M,M,M,55.90,KEWR 131251Z 18009KT 10SM OVC023 13/10 A2953 RMK AO2 SLP999 T01330100 $,M
EWR,2023-01-13 08:51,56.00,51.00,83.88,200.00,11.00,0.00,29.54,1000.30,10.00,M,SCT,OVC,M,M,1100.00,1500.00,M,M,M,M,M,M,M,M,M,55.90,KEWR 131351Z 20011KT 10SM SCT011 OVC015 13/11 A2954 RMK AO2 SLP003 T01330106 $,M
EWR,2023-01-13 09:51,57.00,51.00,80.60,230.00,11.00,0.00,29.54,1000.10,10.00,22.00,FEW,OVC,M,M,1300.00,1700.00,M,M,M,M,M,M,M,M,M,57.00,KEWR 131451Z 23011G22KT 10SM FEW013 OVC017 14/11 A2954 RMK AO2 SLP001 T01390106 56002 $,M
EWR,2023-01-13 10:51,57.00,50.00,77.38,220.00,13.00,0.00,29.55,1000.40,10.00,22.00,FEW,BKN,OVC,M,1300.00,1700.00,2500.00,M,M,M,M,M,M,M,M,57.00,KEWR 131551Z 22013G22KT 10SM FEW013 BKN017 OVC025 14/10 A2955 RMK AO2 SLP004 T01390100 $,M
EWR,2023-01-13 11:51,55.00,46.00,71.60,250.00,14.00,T,29.55,1000.60,10.00,21.00,FEW,BKN,OVC,M,1400.00,2000.00,2700.00,M,M,M,M,M,M,M,M,55.00,KEWR 131651Z 25014G21KT 10SM FEW014 BKN020 OVC027 13/08 A2955 RMK AO2 RAB14E23 SLP006 P0000 T01280078 $,M
EWR,2023-01-13 12:18,55.00,46.00,71.60,250.00,14.00,0.00,29.54,M,10.00,M,FEW,SCT,BKN,M,1900.00,2700.00,8000.00,M,M,M,M,M,M,M,M,55.00,KEWR 131718Z 25014KT 10SM FEW019 SCT027 BKN080 13/08 A2954 RMK AO2 T01280078 $,M
EWR,2023-01-13 12:51,55.00,45.00,68.93,250.00,12.00,0.00,29.52,999.60,10.00,M,BKN,BKN,BKN,M,1900.00,2800.00,8000.00,M,M,M,M,M,M,M,M,55.00,KEWR 131751Z 25012KT 10SM BKN019 BKN028 BKN080 13/07 A2952 RMK AO2 SLP996 60000 T01280072 10144 20122 58006 $,M
EWR,2023-01-13 13:46,50.00,41.00,71.07,300.00,18.00,0.00,29.57,M,10.00,22.00,BKN,OVC,M,M,1900.00,3000.00,M,M,M,M,M,M,M,M,M,50.00,KEWR 131846Z 30018G22KT 10SM BKN019 OVC030 10/05 A2957 RMK AO2 WSHFT 1826 $,M
EWR,2023-01-13 13:51,50.00,41.00,71.07,300.00,15.00,0.00,29.56,1000.90,10.00,M,BKN,OVC,M,M,1900.00,3000.00,M,M,M,M,M,M,M,M,M,50.00,KEWR 131851Z 30015KT 10SM BKN019 OVC030 10/05 A2956 RMK AO2 WSHFT 1826 SLP009 T01000050 $,M
EWR,2023-01-13 14:29,49.00,37.00,63.34,310.00,16.00,0.00,29.57,M,10.00,21.00,BKN,BKN,M,M,3000.00,8000.00,M,M,M,M,M,M,M,M,M,42.45,KEWR 131929Z 31016G21KT 10SM BKN030 BKN080 09/03 A2957 RMK AO2 T00940028 $,M
EWR,2023-01-13 14:51,48.00,36.00,62.97,290.00,16.00,0.00,29.58,1001.70,10.00,22.00,BKN,BKN,M,M,3400.00,8000.00,M,M,M,M,M,M,M,M,M,41.27,KEWR 131951Z 29016G22KT 10SM BKN034 BKN080 09/02 A2958 RMK AO2 SLP017 T00890022,M
EWR,2023-01-13 15:51,46.00,32.00,57.87,320.00,17.00,0.00,29.61,1002.60,10.00,29.00,SCT,BKN,BKN,M,4300.00,8000.00,25000.00,M,M,M,M,M,29.00,290.00,2023-01-13 15:25,38.42,KEWR 132051Z 32017G29KT 10SM SCT043 BKN080 BKN250 08/00 A2961 RMK AO2 PK WND 29029/2025 SLP026 T00780000 53015,M
EWR,2023-01-13 16:51,43.00,30.00,59.83,320.00,14.00,0.00,29.66,1004.40,10.00,M,FEW,FEW,BKN,M,4400.00,8000.00,24000.00,M,M,M,M,M,27.00,310.00,2023-01-13 16:06,35.34,KEWR 132151Z 32014KT 10SM FEW044 FEW080 BKN240 06/M01 A2966 RMK AO2 PK WND 31027/2106 PRESRR SLP044 T00611011,M
EWR,2023-01-13 17:51,42.00,28.90,59.22,310.00,12.00,0.00,29.68,1005.00,10.00,21.00,SCT,BKN,M,M,2800.00,22000.00,M,M,M,M,M,M,M,M,M,34.86,KEWR 132251Z 31012G21KT 10SM SCT028 BKN220 06/M02 A2968 RMK AO2 SLP050 T00561017 $,M
EWR,2023-01-13 18:51,41.00,28.00,59.55,330.00,13.00,0.00,29.68,1005.00,10.00,M,BKN,M,M,M,3200.00,M,M,M,M,M,M,M,M,M,M,33.10,KEWR 132351Z 33013KT 10SM BKN032 05/M02 A2968 RMK AO2 SLP050 T00501022 10128 20050 51024 $,M
EWR,2023-01-13 19:51,41.00,28.00,59.55,320.00,11.00,0.00,29.71,1006.00,10.00,21.00,OVC,M,M,M,3300.00,M,M,M,M,M,M,M,M,M,M,33.84,KEWR 140051Z 32011G21KT 10SM OVC033 05/M02 A2971 RMK AO2 SLP060 T00501022 $,M
EWR,2023-01-13 20:51,41.00,27.00,57.15,340.00,13.00,0.00,29.71,1006.10,10.00,22.00,OVC,M,M,M,3300.00,M,M,M,M,M,M,M,M,M,M,33.10,KEWR 140151Z 34013G22KT 10SM OVC033 05/M03 A2971 RMK AO2 SLP061 T00501028 $,M
EWR,2023-01-13 21:51,40.00,26.10,57.47,340.00,18.00,0.00,29.70,1005.60,10.00,M,OVC,M,M,M,3600.00,M,M,M,M,M,M,M,M,M,M,30.15,KEWR 140251Z 34018KT 10SM OVC036 04/M03 A2970 RMK AO2 SLP056 T00441033 50005 $,M
EWR,2023-01-13 22:51,39.00,25.00,56.86,330.00,13.00,0.00,29.72,1006.40,10.00,21.00,OVC,M,M,M,3800.00,M,M,M,M,M,M,M,M,M,M,30.54,KEWR 140351Z 33013G21KT 10SM OVC038 04/M04 A2972 RMK AO2 SLP064 T00391039 $,M
EWR,2023-01-13 23:51,38.00,25.00,59.36,340.00,13.00,0.00,29.72,1006.40,10.00,23.00,SCT,OVC,M,M,3800.00,4700.00,M,M,M,M,M,M,M,M,M,29.13,KEWR 140451Z 34013G23KT 10SM SCT038 OVC047 03/M04 A2972 RMK AO2 SLP064 T00331039 401500033 $,M
EWR,2023-01-14 00:51,38.00,25.00,59.36,340.00,13.00,0.00,29.71,1006.00,10.00,23.00,SCT,OVC,M,M,3200.00,4500.00,M,M,M,M,M,M,M,M,M,29.13,KEWR 140551Z 34013G23KT 10SM SCT032 OVC045 03/M04 A2971 RMK AO2 SLP060 T00331039 10050 20033 50004 $,M
EWR,2023-01-14 01:51,38.00,25.00,59.36,330.00,16.00,0.00,29.72,1006.30,10.00,M,OVC,M,M,M,3100.00,M,M,M,M,M,M,M,M,M,M,28.11,KEWR 140651Z 33016KT 10SM OVC031 03/M04 A2972 RMK AO2 SLP063 T00331039 $,M
EWR,2023-01-14 02:05,37.00,25.00,61.50,340.00,16.00,0.00,29.73,M,10.00,23.00,OVC,M,M,M,2900.00,M,M,M,M,M,M,M,M,M,M,26.94,KEWR 140705Z 34016G23KT 10SM OVC029 03/M04 A2973 RMK AO2 T00281039 $,M
EWR,2023-01-14 02:51,37.00,25.00,61.50,330.00,14.00,0.00,29.75,1007.40,10.00,M,OVC,M,M,M,2700.00,M,M,M,M,M,M,M,M,M,M,27.61,KEWR 140751Z 33014KT 10SM OVC027 03/M04 A2975 RMK AO2 SLP074 T00281039 $,M
EWR,2023-01-14 03:40,36.00,25.00,63.98,330.00,13.00,T,29.76,M,10.00,M,OVC,M,M,M,2400.00,M,M,M,-SN,M,M,M,M,M,M,26.69,KEWR 140840Z 33013KT 10SM -SN OVC024 02/M04 A2976 RMK AO2 SNB40 P0000 T00221039 $,M
EWR,2023-01-14 03:51,36.00,25.00,63.98,320.00,16.00,T,29.76,1007.50,10.00,M,BKN,OVC,M,M,2400.00,3600.00,M,M,-SN,M,M,M,M,M,M,25.63,KEWR 140851Z 32016KT 10SM -SN BKN024 OVC036 02/M04 A2976 RMK AO2 SNB40 SLP075 P0000 60000 T00221039 51015 $,M
EWR,2023-01-14 04:51,36.00,25.00,63.98,340.00,14.00,T,29.76,1007.60,9.00,22.00,FEW,BKN,OVC,M,1700.00,2700.00,5000.00,M,-SN,M,M,M,M,M,M,26.32,KEWR 140951Z 34014G22KT 9SM -SN FEW017 BKN027 OVC050 02/M04 A2976 RMK AO2 SLP076 P0000 T00221039 $,M
EWR,2023-01-14 05:04,36.00,25.00,63.98,330.00,16.00,T,29.76,M,10.00,23.00,FEW,BKN,OVC,M,1800.00,2800.00,5500.00,M,M,M,M,M,M,M,M,25.63,KEWR 141004Z 33016G23KT 10SM FEW018 BKN028 OVC055 02/M04 A2976 RMK AO2 SNE04 P0000 T00221039 $,M
EWR,2023-01-14 05:51,36.00,24.10,61.62,340.00,12.00,T,29.76,1007.80,10.00,M,FEW,OVC,M,M,2000.00,2900.00,M,M,M,M,M,M,M,M,M,27.09,KEWR 141051Z 34012KT 10SM FEW020 OVC029 02/M04 A2976 RMK AO2 SNE04 SLP078 P0000 T00221044 $,M
EWR,2023-01-14 06:51,35.00,23.00,60.99,340.00,15.00,0.00,29.78,1008.30,10.00,M,FEW,OVC,M,M,2000.00,2800.00,M,M,M,M,M,M,M,M,M,24.80,KEWR 141151Z 34015KT 10SM FEW020 OVC028 02/M05 A2978 RMK AO2 SLP083 60000 T00171050 10033 20011 53007 $,M
EWR,2023-01-14 07:10,35.00,23.00,60.99,330.00,15.00,T,29.79,M,10.00,22.00,BKN,OVC,M,M,2800.00,4200.00,M,M,-SN,M,M,M,M,M,M,24.80,KEWR 141210Z 33015G22KT 10SM -SN BKN028 OVC042 02/M05 A2979 RMK AO2 SNB09 P0000 T00171050 $,M
EWR,2023-01-14 07:51,35.00,23.00,60.99,340.00,16.00,T,29.79,1008.60,8.00,M,SCT,BKN,BKN,M,2600.00,3600.00,5500.00,M,-SN,M,M,M,M,M,M,24.46,KEWR 141251Z 34016KT 8SM -SN SCT026 BKN036 BKN055 02/M05 A2979 RMK AO2 SNB09 SLP086 P0000 T00171050 $,M
EWR,2023-01-14 08:15,35.00,24.10,63.86,340.00,15.00,T,29.81,M,10.00,M,BKN,BKN,BKN,M,2400.00,3800.00,5500.00,M,-SN,M,M,M,M,M,M,24.80,KEWR 141315Z 34015KT 10SM -SN BKN024 BKN038 BKN055 02/M04 A2981 RMK AO2 P0000 T00171044 $,M
EWR,2023-01-14 08:35,35.00,24.10,63.86,340.00,13.00,T,29.82,M,10.00,M,BKN,OVC,M,M,2600.00,5500.00,M,M,M,M,M,M,M,M,M,25.54,KEWR 141335Z 34013KT 10SM BKN026 OVC055 02/M04 A2982 RMK AO2 SNE35 P0000 T00171044 $,M
EWR,2023-01-14 08:51,36.00,23.00,58.85,340.00,12.00,T,29.83,1009.90,10.00,M,BKN,OVC,M,M,2700.00,5000.00,M,M,M,M,M,M,M,M,M,27.09,KEWR 141351Z 34012KT 10SM BKN027 OVC050 02/M05 A2983 RMK AO2 SNE35 SLP099 P0000 T00221050 $,M
EWR,2023-01-14 09:51,35.00,21.90,58.22,330.00,13.00,0.00,29.85,1010.70,10.00,M,BKN,OVC,M,M,2700.00,5000.00,M,M,M,M,M,M,M,M,M,25.54,KEWR 141451Z 33013KT 10SM BKN027 OVC050 02/M06 A2985 RMK AO2 SLP107 60000 T00171056 53024 $,M
EWR,2023-01-14 09:58,35.00,21.90,58.22,340.00,15.00,T,29.85,M,10.00,M,BKN,OVC,M,M,2700.00,5000.00,M,M,-SN,M,M,M,M,M,M,24.80,KEWR 141458Z 34015KT 10SM -SN BKN027 OVC050 02/M06 A2985 RMK AO2 SNB57 P0000 T00171056 $,M
EWR,2023-01-14 10:51,35.00,24.10,63.86,340.00,17.00,T,29.86,1011.10,7.00,M,BKN,OVC,M,M,2700.00,4000.00,M,M,-SN,M,M,M,M,M,M,24.14,KEWR 141551Z 34017KT 7SM -SN BKN027 OVC040 02/M04 A2986 RMK AO2 SNB1457 SLP111 P0000 T00171044 $,M
EWR,2023-01-14 11:51,37.00,24.10,59.24,340.00,14.00,T,29.84,1010.20,9.00,M,BKN,BKN,OVC,M,2700.00,3500.00,5500.00,M,-SN,M,M,M,M,M,M,27.61,KEWR 141651Z 34014KT 9SM -SN BKN027 BKN035 OVC055 03/M04 A2984 RMK AO2 SLP102 P0000 T00281044 $,M
EWR,2023-01-14 11:54,36.00,23.00,58.85,320.00,12.00,T,29.84,M,9.00,M,SCT,BKN,OVC,M,2700.00,3300.00,5500.00,M,-SN,M,M,M,M,M,M,27.09,KEWR 141654Z 32012KT 9SM -SN SCT027 BKN033 OVC055 02/M05 A2984 RMK AO2 P0000 T00221050 $,M
EWR,2023-01-14 12:24,36.00,21.90,56.18,330.00,15.00,T,29.84,M,10.00,M,SCT,BKN,OVC,M,2700.00,3300.00,5500.00,M,M,M,M,M,M,M,M,25.97,KEWR 141724Z 33015KT 10SM SCT027 BKN033 OVC055 02/M06 A2984 RMK AO2 SNE24 P0000 T00221056 $,M
EWR,2023-01-14 12:51,37.00,21.90,54.01,320.00,14.00,T,29.84,1010.50,10.00,M,BKN,OVC,M,M,3000.00,5500.00,M,M,M,M,M,M,M,M,M,27.61,KEWR 141751Z 32014KT 10SM BKN030 OVC055 03/M06 A2984 RMK AO2 SNE24 SLP105 P0000 60000 T00281056 10028 20017 58002 $,M
EWR,2023-01-14 13:51,37.00,21.00,51.99,340.00,14.00,0.00,29.83,1010.10,10.00,M,FEW,BKN,OVC,M,3000.00,4000.00,5500.00,M,M,M,M,M,M,M,M,27.61,KEWR 141851Z 34014KT 10SM FEW030 BKN040 OVC055 03/M06 A2983 RMK AO2 SLP101 T00281061 $,M
EWR,2023-01-14 14:51,37.00,21.00,51.99,340.00,16.00,0.00,29.85,1010.60,10.00,22.00,SCT,OVC,M,M,3500.00,4500.00,M,M,M,M,M,M,28.00,310.00,2023-01-14 14:38,26.94,KEWR 141951Z 34016G22KT 10SM SCT035 OVC045 03/M06 A2985 RMK AO2 PK WND 31028/1938 SLP106 T00281061 $,M
EWR,2023-01-14 15:51,36.00,19.90,51.61,330.00,19.00,0.00,29.86,1011.10,10.00,25.00,BKN,BKN,M,M,4000.00,5500.00,M,M,M,M,M,M,28.00,320.00,2023-01-14 15:05,24.73,KEWR 142051Z 33019G25KT 10SM BKN040 BKN055 02/M07 A2986 RMK AO2 PK WND 32028/2005 SLP111 T00221067 53006 $,M
EWR,2023-01-14 16:51,35.00,19.90,53.49,340.00,18.00,0.00,29.88,1011.80,10.00,23.00,BKN,OVC,M,M,4000.00,5500.00,M,M,M,M,M,M,26.00,320.00,2023-01-14 16:14,23.83,KEWR 142151Z 34018G23KT 10SM BKN040 OVC055 02/M07 A2988 RMK AO2 PK WND 32026/2114 SLP118 T00171067 $,M
EWR,2023-01-14 17:51,35.00,19.90,53.49,340.00,16.00,0.00,29.89,1012.00,10.00,25.00,FEW,OVC,M,M,4000.00,5000.00,M,M,M,M,M,M,M,M,M,24.46,KEWR 142251Z 34016G25KT 10SM FEW040 OVC050 02/M07 A2989 RMK AO2 SLP120 T00171067 $,M
EWR,2023-01-14 18:51,35.00,19.90,53.49,350.00,19.00,0.00,29.91,1012.60,10.00,25.00,FEW,OVC,M,M,4000.00,5500.00,M,M,M,M,M,M,27.00,360.00,2023-01-14 18:02,23.54,KEWR 142351Z 35019G25KT 10SM FEW040 OVC055 02/M07 A2991 RMK AO2 PK WND 36027/2302 SLP126 T00171067 10033 20017 51015 $,M
EWR,2023-01-14 19:51,34.00,19.90,55.88,350.00,17.00,0.00,29.88,1011.80,10.00,M,FEW,OVC,M,M,4000.00,5500.00,M,M,M,M,M,M,29.00,340.00,2023-01-14 19:20,22.70,KEWR 150051Z 35017KT 10SM FEW040 OVC055 01/M07 A2988 RMK AO2 PK WND 34029/0020 SLP118 T00111067 $,M
EWR,2023-01-14 20:51,34.00,19.90,55.88,350.00,20.00,0.00,29.86,1011.10,10.00,27.00,BKN,OVC,M,M,4500.00,5500.00,M,M,M,M,M,M,27.00,350.00,2023-01-14 20:45,21.80,KEWR 150151Z 35020G27KT 10SM BKN045 OVC055 01/M07 A2986 RMK AO2 PK WND 35027/0145 SLP111 T00111067 $,M
EWR,2023-01-14 21:51,34.00,19.90,55.88,10.00,16.00,0.00,29.92,1013.20,10.00,M,BKN,OVC,M,M,5000.00,6000.00,M,M,M,M,M,M,M,M,M,23.03,KEWR 150251Z 01016KT 10SM BKN050 OVC060 01/M07 A2992 RMK AO2 SLP132 T00111067 53005 $,M
EWR,2023-01-14 22:51,33.00,19.90,57.93,360.00,18.00,0.00,29.91,1012.80,10.00,24.00,OVC,M,M,M,5000.00,M,M,M,M,M,M,M,M,M,M,21.20,KEWR 150351Z 36018G24KT 10SM OVC050 01/M07 A2991 RMK AO2 SLP128 T00061067 $,M
EWR,2023-01-14 23:51,33.00,19.90,57.93,360.00,12.00,0.00,29.91,1012.80,10.00,22.00,BKN,OVC,M,M,3500.00,5000.00,M,M,M,M,M,M,29.00,330.00,2023-01-14 23:01,23.40,KEWR 150451Z 36012G22KT 10SM BKN035 OVC050 01/M07 A2991 RMK AO2 PK WND 33029/0401 SLP128 T00061067 400330006 $,M
EWR,2023-01-15 00:51,33.00,19.90,57.93,350.00,20.00,0.00,29.92,1013.00,10.00,31.00,BKN,OVC,M,M,3500.00,6000.00,M,M,M,M,M,M,33.00,350.00,2023-01-15 00:41,20.60,KEWR 150551Z 35020G31KT 10SM BKN035 OVC060 01/M07 A2992 RMK AO2 PK WND 35033/0541 SLP130 T00061067 10017 20006 55002 $,M
EWR,2023-01-15 01:51,32.00,19.90,60.55,350.00,12.00,0.00,29.93,1013.30,10.00,25.00,FEW,SCT,M,M,3400.00,7000.00,M,M,M,M,M,M,30.00,350.00,2023-01-15 01:11,22.00,KEWR 150651Z 35012G25KT 10SM FEW034 SCT070 00/M07 A2993 RMK AO2 PK WND 35030/0611 SLP133 T00001067 $,M
EWR,2023-01-15 02:51,32.00,19.90,60.55,360.00,17.00,0.00,29.96,1014.30,10.00,22.00,BKN,BKN,M,M,3200.00,7000.00,M,M,M,M,M,M,M,M,M,20.08,KEWR 150751Z 36017G22KT 10SM BKN032 BKN070 00/M07 A2996 RMK AO2 SLP143 T00001067 $,M
EWR,2023-01-15 03:51,32.00,19.90,60.55,360.00,20.00,0.00,29.97,1014.90,10.00,26.00,OVC,M,M,M,3100.00,M,M,M,M,M,M,M,26.00,360.00,2023-01-15 03:51,19.14,KEWR 150851Z 36020G26KT 10SM OVC031 00/M07 A2997 RMK AO2 PK WND 36026/0851 SLP149 T00001067 53019 $,M
EWR,2023-01-15 04:09,32.00,19.00,58.27,350.00,18.00,0.00,29.97,M,10.00,29.00,OVC,M,M,M,2900.00,M,M,M,M,M,M,M,29.00,350.00,2023-01-15 04:04,19.75,KEWR 150909Z 35018G29KT 10SM OVC029 00/M07 A2997 RMK AO2 PK WND 35029/0904 T00001072 $,M
EWR,2023-01-15 04:37,32.00,19.00,58.27,340.00,20.00,0.00,29.97,M,10.00,25.00,SCT,OVC,M,M,2900.00,4000.00,M,M,M,M,M,M,29.00,350.00,2023-01-15 04:04,19.14,KEWR 150937Z 34020G25KT 10SM SCT029 OVC040 00/M07 A2997 RMK AO2 PK WND 35029/0904 T00001072 $,M
EWR,2023-01-15 04:51,32.00,19.00,58.27,340.00,20.00,0.00,29.97,1014.80,10.00,28.00,SCT,BKN,OVC,M,2900.00,4000.00,6000.00,M,M,M,M,M,29.00,350.00,2023-01-15 04:04,19.14,KEWR 150951Z 34020G28KT 10SM SCT029 BKN040 OVC060 00/M07 A2997 RMK AO2 PK WND 35029/0904 SLP148 T00001072 $,M
EWR,2023-01-15 05:51,32.00,19.90,60.55,350.00,21.00,0.00,29.99,1015.30,10.00,26.00,FEW,BKN,M,M,3500.00,5500.00,M,M,M,M,M,M,26.00,340.00,2023-01-15 05:48,18.85,KEWR 151051Z 35021G26KT 10SM FEW035 BKN055 00/M07 A2999 RMK AO2 PK WND 34026/1048 SLP153 T00001067 $,M
EWR,2023-01-15 06:51,32.00,19.90,60.55,360.00,19.00,0.00,30.01,1016.10,10.00,26.00,SCT,BKN,M,M,4200.00,6000.00,M,M,M,M,M,M,28.00,350.00,2023-01-15 05:52,19.44,KEWR 151151Z 36019G26KT 10SM SCT042 BKN060 00/M07 A3001 RMK AO2 PK WND 35028/1052 SLP161 T00001067 10006 20000 53012 $,M
EWR,2023-01-15 07:51,32.00,19.90,60.55,360.00,13.00,0.00,30.03,1016.70,10.00,23.00,FEW,SCT,SCT,M,3400.00,6000.00,25000.00,M,M,M,M,M,26.00,360.00,2023-01-15 06:59,21.57,KEWR 151251Z 36013G23KT 10SM FEW034 SCT060 SCT250 00/M07 A3003 RMK AO2 PK WND 36026/1159 SLP167 T00001067 $,M
EWR,2023-01-15 08:51,34.00,21.00,58.56,360.00,18.00,0.00,30.04,1017.20,10.00,M,FEW,FEW,SCT,M,3600.00,6000.00,25000.00,M,M,M,M,M,M,M,M,22.38,KEWR 151351Z 36018KT 10SM FEW036 FEW060 SCT250 01/M06 A3004 RMK AO2 SLP172 T00111061 $,M
EWR,2023-01-15 09:51,36.00,21.00,54.08,350.00,20.00,0.00,30.04,1017.10,10.00,25.00,FEW,FEW,FEW,M,5000.00,13000.00,25000.00,M,M,M,M,M,27.00,350.00,2023-01-15 09:35,24.45,KEWR 151451Z 35020G25KT 10SM FEW050 FEW130 FEW250 02/M06 A3004 RMK AO2 PK WND 35027/1435 SLP171 T00221061 50010 $,M
EWR,2023-01-15 10:51,39.00,21.00,48.06,360.00,21.00,0.00,30.03,1016.80,10.00,29.00,FEW,FEW,SCT,SCT,4500.00,8000.00,13000.00,25000.00,M,M,M,M,29.00,350.00,2023-01-15 10:44,28.19,KEWR 151551Z 36021G29KT 10SM FEW045 FEW080 SCT130 SCT250 04/M06 A3003 RMK AO2 PK WND 35029/1544 SLP168 T00391061 $,M
EWR,2023-01-15 11:51,41.00,21.90,46.19,350.00,20.00,0.00,30.02,1016.50,10.00,29.00,FEW,FEW,SCT,SCT,3500.00,8500.00,15000.00,25000.00,M,M,M,M,29.00,340.00,2023-01-15 11:26,31.09,KEWR 151651Z 35020G29KT 10SM FEW035 FEW085 SCT150 SCT250 05/M06 A3002 RMK AO2 PK WND 34029/1626 SLP165 T00501056 $,M
EWR,2023-01-15 12:51,42.00,21.00,42.62,340.00,16.00,0.00,30.01,1016.20,10.00,M,FEW,FEW,SCT,M,8000.00,18000.00,25000.00,M,M,M,M,M,27.00,330.00,2023-01-15 12:15,33.58,KEWR 151751Z 34016KT 10SM FEW080 FEW180 SCT250 06/M06 A3001 RMK AO2 PK WND 33027/1715 SLP162 T00561061 10056 20000 58009 $,M
EWR,2023-01-15 13:51,45.00,19.00,35.02,350.00,16.00,0.00,29.99,1015.50,10.00,24.00,FEW,SCT,SCT,M,8000.00,18000.00,25000.00,M,M,M,M,M,30.00,320.00,2023-01-15 13:37,37.36,KEWR 151851Z 35016G24KT 10SM FEW080 SCT180 SCT250 07/M07 A2999 RMK AO2 PK WND 32030/1837 SLP155 T00721072 $,M
EWR,2023-01-15 14:51,45.00,16.00,30.77,350.00,18.00,0.00,29.98,1015.00,10.00,28.00,FEW,FEW,SCT,M,8000.00,20000.00,25000.00,M,M,M,M,M,29.00,360.00,2023-01-15 14:13,36.86,KEWR 151951Z 35018G28KT 10SM FEW080 FEW200 SCT250 07/M09 A2998 RMK AO2 PK WND 36029/1913 SLP150 T00721089 $,M
EWR,2023-01-15 15:51,45.00,12.90,26.87,350.00,17.00,0.00,29.98,1015.10,10.00,25.00,FEW,FEW,SCT,M,8500.00,20000.00,25000.00,M,M,M,M,M,28.00,350.00,2023-01-15 15:25,37.11,KEWR 152051Z 35017G25KT 10SM FEW085 FEW200 SCT250 07/M11 A2998 RMK AO2 PK WND 35028/2025 SLP151 T00721106 55010 $,M
EWR,2023-01-15 16:51,44.00,16.00,31.85,350.00,19.00,0.00,30.00,1015.80,10.00,M,FEW,FEW,SCT,M,9000.00,20000.00,25000.00,M,M,M,M,M,28.00,350.00,2023-01-15 15:55,35.44,KEWR 152151Z 35019KT 10SM FEW090 FEW200 SCT250 07/M09 A3000 RMK AO2 PK WND 35028/2055 SLP158 T00671089 $,M
EWR,2023-01-15 17:51,42.00,18.00,37.49,360.00,14.00,0.00,30.01,1016.30,10.00,19.00,FEW,FEW,SCT,M,9500.00,20000.00,25000.00,M,M,M,M,M,M,M,M,34.18,KEWR 152251Z 36014G19KT 10SM FEW095 FEW200 SCT250 06/M08 A3001 RMK AO2 SLP163 T00561078 $,M
EWR,2023-01-15 18:51,39.00,18.00,42.28,350.00,13.00,0.00,30.02,1016.60,10.00,M,FEW,SCT,SCT,M,9500.00,20000.00,25000.00,M,M,M,M,M,M,M,M,30.54,KEWR 152351Z 35013KT 10SM FEW095 SCT200 SCT250 04/M08 A3002 RMK AO2 SLP166 T00391078 10078 20039 51015 $,M
EWR,2023-01-15 19:51,37.00,14.00,38.44,340.00,13.00,0.00,30.02,1016.60,10.00,M,FEW,SCT,SCT,M,10000.00,20000.00,25000.00,M,M,M,M,M,M,M,M,27.97,KEWR 160051Z 34013KT 10SM FEW100 SCT200 SCT250 03/M10 A3002 RMK AO2 SLP166 T00281100 $,M
EWR,2023-01-15 20:51,36.00,12.00,36.62,350.00,13.00,0.00,30.01,1016.20,10.00,M,FEW,FEW,M,M,20000.00,25000.00,M,M,M,M,M,M,M,M,M,26.69,KEWR 160151Z 35013KT 10SM FEW200 FEW250 02/M11 A3001 RMK AO2 SLP162 T00221111 $,M
EWR,2023-01-15 21:51,35.00,12.00,37.95,360.00,17.00,0.00,30.01,1016.10,10.00,24.00,FEW,FEW,M,M,9000.00,25000.00,M,M,M,M,M,M,28.00,350.00,2023-01-15 21:30,24.14,KEWR 160251Z 36017G24KT 10SM FEW090 FEW250 02/M11 A3001 RMK AO2 PK WND 35028/0230 SLP161 T00171111 58005 $,M
EWR,2023-01-15 22:51,33.00,12.90,42.77,360.00,14.00,0.00,30.02,1016.30,10.00,M,FEW,M,M,M,9000.00,M,M,M,M,M,M,M,M,M,M,22.58,KEWR 160351Z 36014KT 10SM FEW090 01/M11 A3002 RMK AO2 SLP163 T00061106 $,M
EWR,2023-01-15 23:51,33.00,12.90,42.77,350.00,12.00,0.00,30.01,1016.00,10.00,M,FEW,M,M,M,8000.00,M,M,M,M,M,M,M,M,M,M,23.40,KEWR 160451Z 35012KT 10SM FEW080 01/M11 A3001 RMK AO2 SLP160 T00061106 400780000 $,M
EWR,2023-01-16 00:51,32.00,12.90,44.70,350.00,12.00,0.00,29.99,1015.50,10.00,M,FEW,M,M,M,6000.00,M,M,M,M,M,M,M,M,M,M,22.00,KEWR 160551Z 35012KT 10SM FEW060 00/M11 A2999 RMK AO2 SLP155 T00001106 10039 20000 58005 $,M
EWR,2023-01-16 01:51,30.90,12.90,46.74,330.00,11.00,0.00,29.99,1015.60,10.00,M,FEW,M,M,M,6000.00,M,M,M,M,M,M,M,M,M,M,21.08,KEWR 160651Z 33011KT 10SM FEW060 M01/M11 A2999 RMK AO2 SLP156 T10061106 $,M
EWR,2023-01-16 02:51,30.00,12.90,48.48,340.00,13.00,0.00,30.00,1015.90,10.00,M,FEW,M,M,M,6500.00,M,M,M,M,M,M,M,M,M,M,19.01,KEWR 160751Z 34013KT 10SM FEW065 M01/M11 A3000 RMK AO2 SLP159 T10111106 $,M
EWR,2023-01-16 03:51,28.90,12.90,50.70,320.00,11.00,0.00,30.00,1015.70,10.00,M,FEW,M,M,M,7000.00,M,M,M,M,M,M,M,M,M,M,18.55,KEWR 160851Z 32011KT 10SM FEW070 M02/M11 A3000 RMK AO2 SLP157 T10171106 50002 $,M
EWR,2023-01-16 04:51,28.90,12.90,50.70,330.00,11.00,0.00,30.00,1015.70,10.00,M,SCT,M,M,M,6500.00,M,M,M,M,M,M,M,M,M,M,18.55,KEWR 160951Z 33011KT 10SM SCT065 M02/M11 A3000 RMK AO2 SLP157 T10171106 $,M
EWR,2023-01-16 05:51,28.90,12.00,48.72,320.00,11.00,0.00,29.99,1015.30,10.00,M,FEW,FEW,SCT,M,3400.00,4800.00,10000.00,M,M,M,M,M,M,M,M,18.55,KEWR 161051Z 32011KT 10SM FEW034 FEW048 SCT100 M02/M11 A2999 RMK AO2 SLP153 T10171111 $,M
EWR,2023-01-16 06:51,28.90,12.00,48.72,330.00,9.00,0.00,29.98,1015.20,10.00,M,FEW,SCT,M,M,3400.00,6000.00,M,M,M,M,M,M,M,M,M,19.66,KEWR 161151Z 33009KT 10SM FEW034 SCT060 M02/M11 A2998 RMK AO2 SLP152 T10171111 10000 21017 58005 $,M
EWR,2023-01-16 07:51,30.00,12.00,46.59,330.00,10.00,0.00,29.98,1015.20,10.00,M,FEW,FEW,SCT,M,3500.00,6000.00,12000.00,M,M,M,M,M,M,M,M,20.46,KEWR 161251Z 33010KT 10SM FEW035 FEW060 SCT120 M01/M11 A2998 RMK AO2 SLP152 T10111111 $,M
EWR,2023-01-16 08:51,33.00,10.90,39.14,340.00,9.00,0.00,29.97,1014.70,10.00,M,FEW,FEW,M,M,4000.00,7000.00,M,M,M,M,M,M,M,M,M,24.88,KEWR 161351Z 34009KT 10SM FEW040 FEW070 01/M12 A2997 RMK AO2 SLP147 T00061117 $,M
EWR,2023-01-16 09:51,35.00,10.90,36.14,330.00,11.00,0.00,29.96,1014.30,10.00,M,FEW,FEW,FEW,M,4000.00,7000.00,20000.00,M,M,M,M,M,M,M,M,26.38,KEWR 161451Z 33011KT 10SM FEW040 FEW070 FEW200 02/M12 A2996 RMK AO2 SLP143 T00171117 58009 $,M
EWR,2023-01-16 10:51,37.00,10.90,33.52,350.00,6.00,0.00,29.93,1013.40,10.00,M,FEW,FEW,FEW,M,4000.00,10000.00,25000.00,M,M,M,M,M,M,M,M,31.55,KEWR 161551Z 35006KT 10SM FEW040 FEW100 FEW250 03/M12 A2993 RMK AO2 SLP134 T00281117 $,M
EWR,2023-01-16 11:51,41.00,10.90,28.67,280.00,5.00,0.00,29.88,1011.80,10.00,M,FEW,FEW,FEW,M,5000.00,10000.00,25000.00,M,M,M,M,M,M,M,M,37.08,KEWR 161651Z 28005KT 10SM FEW050 FEW100 FEW250 05/M12 A2988 RMK AO2 SLP118 T00501117 $,M
EWR,2023-01-16 12:51,47.00,8.10,20.19,310.00,7.00,0.00,29.84,1010.30,10.00,M,FEW,FEW,FEW,M,5000.00,11000.00,25000.00,M,M,M,M,M,M,M,M,42.94,KEWR 161751Z 31007KT 10SM FEW050 FEW110 FEW250 08/M13 A2984 RMK AO2 SLP103 T00831133 10083 21017 58040 $,M
EWR,2023-01-16 13:51,50.00,6.00,16.42,300.00,12.00,0.00,29.81,1009.20,10.00,19.00,FEW,FEW,FEW,M,5000.00,12000.00,25000.00,M,M,M,M,M,M,M,M,50.00,KEWR 161851Z 30012G19KT 10SM FEW050 FEW120 FEW250 10/M14 A2981 RMK AO2 SLP092 T01001144 $,M
EWR,2023-01-16 14:51,51.00,6.00,15.76,280.00,12.00,0.00,29.79,1008.80,10.00,20.00,FEW,FEW,FEW,M,5000.00,12000.00,25000.00,M,M,M,M,M,M,M,M,51.10,KEWR 161951Z 28012G20KT 10SM FEW050 FEW120 FEW250 11/M14 A2979 RMK AO2 SLP088 T01061144 $,M
EWR,2023-01-16 15:51,50.00,5.00,15.61,310.00,11.00,0.00,29.80,1008.90,10.00,19.00,FEW,FEW,SCT,M,6000.00,12000.00,25000.00,M,M,M,M,M,M,M,M,50.00,KEWR 162051Z 31011G19KT 10SM FEW060 FEW120 SCT250 10/M15 A2980 RMK AO2 SLP089 T01001150 55014 $,M
EWR,2023-01-16 16:51,47.00,5.00,17.54,320.00,11.00,0.00,29.79,1008.80,10.00,M,FEW,FEW,SCT,M,6000.00,12000.00,25000.00,M,M,M,M,M,M,M,M,41.30,KEWR 162151Z 32011KT 10SM FEW060 FEW120 SCT250 08/M15 A2979 RMK AO2 SLP088 T00831150 $,M
EWR,2023-01-16 17:51,45.00,7.00,20.64,300.00,5.00,0.00,29.80,1009.10,10.00,M,FEW,FEW,M,M,10000.00,25000.00,M,M,M,M,M,M,M,M,M,41.83,KEWR 162251Z 30005KT 10SM FEW100 FEW250 07/M14 A2980 RMK AO2 SLP091 T00721139 $,M
EWR,2023-01-16 18:51,44.00,7.00,21.36,280.00,9.00,0.00,29.80,1009.10,10.00,M,FEW,M,M,M,25000.00,M,M,M,M,M,M,M,M,M,M,38.56,KEWR 162351Z 28009KT 10SM FEW250 07/M14 A2980 RMK AO2 SLP091 T00671139 10106 20067 53002 $,M
EWR,2023-01-16 19:51,43.00,8.10,23.42,300.00,8.00,0.00,29.81,1009.20,10.00,M,FEW,M,M,M,25000.00,M,M,M,M,M,M,M,M,M,M,37.66,KEWR 170051Z 30008KT 280V060 10SM FEW250 06/M13 A2981 RMK AO2 SLP092 T00611133 $,M
EWR,2023-01-16 20:51,42.00,9.00,25.24,310.00,10.00,0.00,29.80,1009.10,10.00,M,FEW,M,M,M,25000.00,M,M,M,M,M,M,M,M,M,M,35.63,KEWR 170151Z 31010KT 10SM FEW250 06/M13 A2980 RMK AO2 SLP091 T00561128 $,M
EWR,2023-01-16 21:51,41.00,10.90,28.67,290.00,10.00,0.00,29.82,1009.50,10.00,18.00,FEW,M,M,M,25000.00,M,M,M,M,M,M,M,M,M,M,34.25,KEWR 170251Z 29010G18KT 10SM FEW250 05/M12 A2982 RMK AO2 SLP095 T00501117 53004 $,M
EWR,2023-01-16 22:51,39.00,14.00,35.54,320.00,5.00,0.00,29.80,1009.10,10.00,M,FEW,M,M,M,25000.00,M,M,M,M,M,M,M,M,M,M,34.71,KEWR 170351Z 32005KT 10SM FEW250 04/M10 A2980 RMK AO2 SLP091 T00391100 $,M
EWR,2023-01-16 23:51,37.00,15.10,40.34,M,5.00,0.00,29.80,1008.90,10.00,M,BKN,M,M,M,25000.00,M,M,M,M,M,M,M,M,M,M,32.33,KEWR 170451Z VRB05KT 10SM BKN250 03/M09 A2980 RMK AO2 SLP089 T00281094 401061017 $,M
EWR,2023-01-17 00:51,37.00,14.00,38.44,270.00,4.00,0.00,29.79,1008.60,10.00,M,FEW,BKN,M,M,20000.00,25000.00,M,M,M,M,M,M,M,M,M,33.26,KEWR 170551Z 27004KT 10SM FEW200 BKN250 03/M10 A2979 RMK AO2 SLP086 T00281100 10067 20017 56009 $,M
EWR,2023-01-17 01:51,36.00,14.00,39.99,290.00,4.00,0.00,29.79,1008.60,10.00,M,SCT,BKN,M,M,20000.00,25000.00,M,M,M,M,M,M,M,M,M,32.09,KEWR 170651Z 29004KT 10SM SCT200 BKN250 02/M10 A2979 RMK AO2 SLP086 T00221100 $,M
EWR,2023-01-17 02:51,36.00,12.90,38.10,250.00,6.00,0.00,29.78,1008.50,10.00,M,FEW,BKN,M,M,20000.00,25000.00,M,M,M,M,M,M,M,M,M,30.35,KEWR 170751Z 25006KT 10SM FEW200 BKN250 02/M11 A2978 RMK AO2 SLP085 T00221106 $,M
EWR,2023-01-17 03:51,32.00,14.00,46.92,210.00,6.00,0.00,29.78,1008.20,10.00,M,BKN,M,M,M,25000.00,M,M,M,M,M,M,M,M,M,M,25.53,KEWR 170851Z 21006KT 10SM BKN250 00/M10 A2978 RMK AO2 SLP082 T00001100 58004 $,M
EWR,2023-01-17 04:51,35.00,14.00,41.44,M,3.00,0.00,29.76,1007.70,10.00,M,SCT,M,M,M,25000.00,M,M,M,M,M,M,M,M,M,M,32.23,KEWR 170951Z VRB03KT 10SM SCT250 02/M10 A2976 RMK AO2 SLP077 T00171100 $,M
EWR,2023-01-17 05:51,33.00,14.00,44.89,240.00,6.00,0.00,29.77,1008.10,10.00,M,FEW,SCT,M,M,13000.00,25000.00,M,M,M,M,M,M,M,M,M,26.86,KEWR 171051Z 24006KT 10SM FEW130 SCT250 01/M10 A2977 RMK AO2 SLP081 T00061100 $,M
EWR,2023-01-17 06:51,34.00,14.00,43.30,230.00,4.00,0.00,29.77,1007.90,10.00,M,BKN,BKN,M,M,11000.00,25000.00,M,M,M,M,M,M,M,M,M,29.76,KEWR 171151Z 23004KT 10SM BKN110 BKN250 01/M10 A2977 RMK AO2 SLP079 T00111100 10028 21006 56003 $,M
EWR,2023-01-17 07:51,36.00,15.10,41.96,220.00,6.00,0.00,29.77,1008.20,10.00,M,BKN,BKN,BKN,M,11000.00,15000.00,25000.00,M,M,M,M,M,M,M,M,30.35,KEWR 171251Z 22006KT 10SM BKN110 BKN150 BKN250 02/M09 A2977 RMK AO2 SLP082 T00221094 $,M
EWR,2023-01-17 08:51,40.00,12.90,32.70,250.00,6.00,0.00,29.78,1008.20,10.00,M,SCT,BKN,BKN,M,11000.00,18000.00,25000.00,M,M,M,M,M,M,M,M,35.04,KEWR 171351Z 25006KT 10SM SCT110 BKN180 BKN250 04/M11 A2978 RMK AO2 SLP082 T00441106 $,M
EWR,2023-01-17 09:51,42.00,12.90,30.03,250.00,6.00,0.00,29.75,1007.50,10.00,M,SCT,SCT,BKN,M,14000.00,18000.00,25000.00,M,M,M,M,M,M,M,M,37.69,KEWR 171451Z 25006KT 10SM SCT140 SCT180 BKN250 06/M11 A2975 RMK AO2 SLP075 T00561106 58005 $,M
EWR,2023-01-17 10:51,43.00,12.00,27.87,0.00,0.00,0.00,29.73,1006.70,10.00,M,BKN,BKN,BKN,M,12000.00,18000.00,25000.00,M,M,M,M,M,M,M,M,43.00,KEWR 171551Z 00000KT 10SM BKN120 BKN180 BKN250 06/M11 A2973 RMK AO2 SLP067 T00611111,M
EWR,2023-01-17 11:51,45.00,10.90,24.59,230.00,5.00,0.00,29.71,1006.20,10.00,M,BKN,OVC,M,M,10000.00,25000.00,M,M,M,M,M,M,M,M,M,41.83,KEWR 171651Z 23005KT 10SM BKN100 OVC250 07/M12 A2971 RMK AO2 SLP062 T00721117,M
EWR,2023-01-17 12:51,45.00,14.00,28.20,210.00,4.00,0.00,29.67,1004.60,10.00,M,FEW,BKN,OVC,M,5500.00,8000.00,9000.00,M,M,M,M,M,M,M,M,42.60,KEWR 171751Z 21004KT 10SM FEW055 BKN080 OVC090 07/M10 A2967 RMK AO2 PRESFR SLP046 T00721100 10078 20000 58028,M
EWR,2023-01-17 13:51,47.00,15.10,27.54,230.00,5.00,0.00,29.66,1004.30,10.00,M,FEW,BKN,BKN,OVC,6500.00,8500.00,11000.00,25000.00,M,M,M,M,M,M,M,44.09,KEWR 171851Z 23005KT 10SM FEW065 BKN085 BKN110 OVC250 08/M09 A2966 RMK AO2 SLP043 T00831094,M
EWR,2023-01-17 14:51,47.00,16.00,28.64,M,3.00,0.00,29.64,1003.70,10.00,M,BKN,BKN,OVC,M,3400.00,10000.00,25000.00,M,M,M,M,M,M,M,M,45.72,KEWR 171951Z VRB03KT 10SM BKN034 BKN100 OVC250 08/M09 A2964 RMK AO2 SLP037 T00831089,M
EWR,2023-01-17 15:48,46.40,19.40,33.79,210.00,4.00,0.00,29.66,M,10.00,M,BKN,BKN,OVC,M,2800.00,10000.00,25000.00,M,M,M,M,M,M,M,M,44.24,KEWR 172048Z 21004KT 10SM BKN028 BKN100 OVC250 08/M07 A2966 RMK AO2,M
EWR,2023-01-17 15:51,47.00,19.00,32.59,210.00,5.00,0.00,29.65,1004.10,10.00,M,BKN,BKN,OVC,M,2800.00,10000.00,25000.00,M,M,M,M,M,M,M,M,44.09,KEWR 172051Z 21005KT 10SM BKN028 BKN100 OVC250 08/M07 A2965 RMK AO2 SLP041 T00831072 55005,M
EWR,2023-01-17 16:51,47.00,19.00,32.59,220.00,5.00,0.00,29.65,1003.90,10.00,M,SCT,BKN,BKN,BKN,2300.00,3800.00,10000.00,25000.00,M,M,M,M,M,M,M,44.09,KEWR 172151Z 22005KT 10SM SCT023 BKN038 BKN100 BKN250 08/M07 A2965 RMK AO2 SLP039 T00831072,M
EWR,2023-01-17 17:51,47.00,19.00,32.59,230.00,7.00,0.00,29.66,1004.20,10.00,M,SCT,BKN,BKN,BKN,2600.00,3500.00,10000.00,25000.00,M,M,M,M,M,M,M,42.94,KEWR 172251Z 23007KT 10SM SCT026 BKN035 BKN100 BKN250 08/M07 A2966 RMK AO2 SLP042 T00831072,M
EWR,2023-01-17 18:51,47.00,19.90,33.87,230.00,13.00,0.00,29.66,1004.40,10.00,M,SCT,BKN,OVC,M,2800.00,4000.00,10000.00,M,M,M,M,M,M,M,M,40.66,KEWR 172351Z 23013KT 10SM SCT028 BKN040 OVC100 08/M07 A2966 RMK AO2 SLP044 T00831067 10089 20072 53003,M
EWR,2023-01-17 19:51,46.00,23.00,39.96,230.00,9.00,0.00,29.67,1004.50,10.00,M,FEW,OVC,M,M,3000.00,3800.00,M,M,M,M,M,M,M,M,M,40.92,KEWR 180051Z 23009KT 10SM FEW030 OVC038 08/M05 A2967 RMK AO2 SLP045 T00781050,M
EWR,2023-01-17 20:51,46.00,24.10,41.84,240.00,7.00,0.00,29.66,1004.20,10.00,M,FEW,OVC,M,M,3500.00,7500.00,M,M,M,M,M,M,M,M,M,41.84,KEWR 180151Z 24007KT 10SM FEW035 OVC075 08/M04 A2966 RMK AO2 SLP042 T00781044,M
EWR,2023-01-17 21:51,45.00,23.00,41.50,230.00,9.00,0.00,29.66,1004.40,10.00,M,FEW,BKN,M,M,4000.00,8000.00,M,M,M,M,M,M,M,M,M,39.68,KEWR 180251Z 23009KT 10SM FEW040 BKN080 07/M05 A2966 RMK AO2 SLP044 T00721050 55000,M
EWR,2023-01-17 22:51,41.00,26.10,55.07,210.00,5.00,0.00,29.66,1004.20,10.00,M,FEW,BKN,M,M,4000.00,8500.00,M,M,M,M,M,M,M,M,M,37.08,KEWR 180351Z 21005KT 10SM FEW040 BKN085 05/M03 A2966 RMK AO2 SLP042 T00501033,M
EWR,2023-01-17 23:51,40.00,27.00,59.65,210.00,4.00,0.00,29.65,1003.80,10.00,M,SCT,M,M,M,8000.00,M,M,M,M,M,M,M,M,M,M,36.65,KEWR 180451Z 21004KT 10SM SCT080 04/M03 A2965 RMK AO2 SLP038 T00441028 400891006,M
EWR,2023-01-18 00:51,43.00,28.00,55.14,230.00,6.00,0.00,29.64,1003.70,10.00,M,FEW,BKN,M,M,8000.00,11000.00,M,M,M,M,M,M,M,M,M,38.78,KEWR 180551Z 23006KT 10SM FEW080 BKN110 06/M02 A2964 RMK AO2 SLP037 T00611022 10083 20044 56006,M
EWR,2023-01-18 01:51,41.00,30.90,67.03,200.00,7.00,0.01,29.65,1004.10,8.00,M,SCT,BKN,OVC,M,3500.00,5500.00,10000.00,M,RA,M,M,M,M,M,M,35.75,KEWR 180651Z 20007KT 8SM RA SCT035 BKN055 OVC100 05/M01 A2965 RMK AO2 RAB37 SLP041 P0001 T00501006,M
EWR,2023-01-18 02:51,42.00,35.00,76.04,220.00,7.00,0.01,29.65,1004.00,10.00,M,FEW,BKN,BKN,M,3500.00,5500.00,10000.00,M,M,M,M,M,M,M,M,37.09,KEWR 180751Z 22007KT 10SM FEW035 BKN055 BKN100 06/02 A2965 RMK AO2 RAE09 SLP040 P0001 T00560017,M
EWR,2023-01-18 03:51,43.00,36.00,76.12,230.00,9.00,0.00,29.66,1004.20,10.00,M,FEW,BKN,BKN,M,3500.00,5500.00,10000.00,M,M,M,M,M,M,M,M,37.19,KEWR 180851Z 23009KT 10SM FEW035 BKN055 BKN100 06/02 A2966 RMK AO2 SLP042 60002 T00610022 51004,M
EWR,2023-01-18 04:51,43.00,36.00,76.12,220.00,9.00,0.00,29.67,1004.70,10.00,M,SCT,BKN,M,M,6000.00,11000.00,M,M,M,M,M,M,M,M,M,37.19,KEWR 180951Z 22009KT 10SM SCT060 BKN110 06/02 A2967 RMK AO2 SLP047 T00610022,M
EWR,2023-01-18 05:51,43.00,36.00,76.12,240.00,7.00,0.00,29.69,1005.40,10.00,M,BKN,OVC,M,M,6000.00,11000.00,M,M,M,M,M,M,M,M,M,38.19,KEWR 181051Z 24007KT 10SM BKN060 OVC110 06/02 A2969 RMK AO2 SLP054 T00610022,M
EWR,2023-01-18 06:51,42.00,36.00,78.80,230.00,5.00,0.00,29.72,1006.20,10.00,M,BKN,BKN,M,M,4500.00,12000.00,M,M,M,M,M,M,M,M,M,38.39,KEWR 181151Z 23005KT 10SM BKN045 BKN120 06/02 A2972 RMK AO2 SLP062 60002 70002 T00560022 10067 20050 53021,M
EWR,2023-01-18 07:51,48.00,40.00,73.38,280.00,8.00,0.00,29.74,1007.10,10.00,17.00,FEW,SCT,BKN,M,5000.00,7500.00,11000.00,M,M,M,M,M,M,M,M,43.82,KEWR 181251Z 28008G17KT 10SM FEW050 SCT075 BKN110 09/04 A2974 RMK AO2 SLP071 T00890044,M
EWR,2023-01-18 08:51,50.00,39.00,65.75,290.00,10.00,0.00,29.77,1008.00,10.00,M,FEW,SCT,BKN,M,5000.00,7000.00,11000.00,M,M,M,M,M,M,M,M,50.00,KEWR 181351Z 29010KT 10SM FEW050 SCT070 BKN110 10/04 A2977 RMK AO2 SLP080 T01000039,M
EWR,2023-01-18 09:51,52.00,39.00,61.06,290.00,13.00,0.00,29.79,1008.60,10.00,21.00,FEW,FEW,BKN,M,3000.00,6000.00,12000.00,M,M,M,M,M,M,M,M,52.00,KEWR 181451Z 29013G21KT 10SM FEW030 FEW060 BKN120 11/04 A2979 RMK AO2 SLP086 T01110039 51024,M
EWR,2023-01-18 10:51,54.00,36.00,50.42,300.00,18.00,0.00,29.80,1009.00,10.00,26.00,SCT,BKN,M,M,4000.00,7500.00,M,M,M,M,M,M,26.00,290.00,2023-01-18 10:46,54.00,KEWR 181551Z 30018G26KT 10SM SCT040 BKN075 12/02 A2980 RMK AO2 PK WND 29026/1546 SLP090 T01220022,M
EWR,2023-01-18 11:51,56.00,34.00,43.46,300.00,17.00,0.00,29.79,1008.70,10.00,22.00,SCT,M,M,M,4200.00,M,M,M,M,M,M,M,29.00,290.00,2023-01-18 10:53,55.90,KEWR 181651Z 30017G22KT 10SM SCT042 13/01 A2979 RMK AO2 PK WND 29029/1553 SLP087 T01330011,M
EWR,2023-01-18 12:51,55.00,34.00,44.90,320.00,17.00,0.00,29.79,1008.50,10.00,21.00,BKN,M,M,M,4400.00,M,M,M,M,M,M,M,30.00,300.00,2023-01-18 12:17,55.00,KEWR 181751Z 32017G21KT 10SM BKN044 13/01 A2979 RMK AO2 PK WND 30030/1717 SLP085 T01280011 10133 20050 58000,M
EWR,2023-01-18 13:51,56.00,33.00,41.92,310.00,19.00,0.00,29.79,1008.80,10.00,23.00,SCT,M,M,M,4500.00,M,M,M,M,M,M,M,M,M,M,55.90,KEWR 181851Z 31019G23KT 10SM SCT045 13/01 A2979 RMK AO2 SLP088 T01330006,M
EWR,2023-01-18 14:51,56.00,33.00,41.92,300.00,18.00,0.00,29.81,1009.50,10.00,26.00,SCT,M,M,M,4500.00,M,M,M,M,M,M,M,26.00,310.00,2023-01-18 14:38,55.90,KEWR 181951Z 30018G26KT 10SM SCT045 13/01 A2981 RMK AO2 PK WND 31026/1938 SLP095 T01330006,M
EWR,2023-01-18 15:51,53.00,33.00,46.42,300.00,14.00,0.00,29.85,1010.70,10.00,24.00,SCT,M,M,M,4500.00,M,M,M,M,M,M,M,M,M,M,53.10,KEWR 182051Z 30014G24KT 10SM SCT045 12/01 A2985 RMK AO2 SLP107 T01170006 53021,M
EWR,2023-01-18 16:51,52.00,33.00,48.34,290.00,14.00,0.00,29.88,1011.70,10.00,M,SCT,SCT,M,M,4500.00,7000.00,M,M,M,M,M,M,M,M,M,52.00,KEWR 182151Z 29014KT 10SM SCT045 SCT070 11/01 A2988 RMK AO2 SLP117 T01110006,M
EWR,2023-01-18 17:51,51.00,33.00,49.98,290.00,15.00,0.00,29.91,1012.70,10.00,22.00,SCT,SCT,SCT,M,4500.00,8000.00,25000.00,M,M,M,M,M,M,M,M,51.10,KEWR 182251Z 29015G22KT 10SM SCT045 SCT080 SCT250 11/01 A2991 RMK AO2 SLP127 T01060006,M
EWR,2023-01-18 18:51,50.00,33.00,52.06,300.00,10.00,0.00,29.94,1013.80,10.00,23.00,FEW,FEW,SCT,M,4500.00,8000.00,25000.00,M,M,M,M,M,29.00,290.00,2023-01-18 18:03,50.00,KEWR 182351Z 30010G23KT 10SM FEW045 FEW080 SCT250 10/01 A2994 RMK AO2 PK WND 29029/2303 SLP138 T01000006 10139 20100 53031,M
EWR,2023-01-18 19:51,49.00,34.00,56.23,280.00,10.00,0.00,29.96,1014.50,10.00,M,FEW,FEW,SCT,M,4400.00,8000.00,25000.00,M,M,M,M,M,M,M,M,44.16,KEWR 190051Z 28010KT 10SM FEW044 FEW080 SCT250 09/01 A2996 RMK AO2 SLP145 T00940011,M
EWR,2023-01-18 20:51,47.00,34.00,60.61,230.00,5.00,0.00,29.97,1014.80,10.00,M,FEW,FEW,SCT,M,4500.00,9000.00,25000.00,M,M,M,M,M,M,M,M,44.09,KEWR 190151Z 23005KT 10SM FEW045 FEW090 SCT250 08/01 A2997 RMK AO2 SLP148 T00830011,M
EWR,2023-01-18 21:51,47.00,34.00,60.61,M,4.00,0.00,29.99,1015.60,10.00,M,FEW,SCT,M,M,4000.00,25000.00,M,M,M,M,M,M,M,M,M,44.82,KEWR 190251Z VRB04KT 10SM FEW040 SCT250 08/01 A2999 RMK AO2 SLP156 T00830011 53018,M
EWR,2023-01-18 22:51,46.00,34.00,62.71,270.00,5.00,0.00,30.01,1016.00,10.00,M,FEW,SCT,M,M,3700.00,25000.00,M,M,M,M,M,M,M,M,M,43.02,KEWR 190351Z 27005KT 10SM FEW037 SCT250 08/01 A3001 RMK AO2 SLP160 T00780011,M
EWR,2023-01-18 23:51,43.00,33.00,67.82,240.00,5.00,0.00,30.00,1015.90,10.00,M,FEW,SCT,M,M,3600.00,25000.00,M,M,M,M,M,M,M,M,M,39.46,KEWR 190451Z 24005KT 10SM FEW036 SCT250 06/01 A3000 RMK AO2 SLP159 T00610006 401390044,M
EWR,2023-01-19 00:51,42.00,33.00,70.20,300.00,3.00,0.00,30.00,1015.70,10.00,M,FEW,BKN,M,M,3500.00,25000.00,M,M,M,M,M,M,M,M,M,40.23,KEWR 190551Z 30003KT 10SM FEW035 BKN250 06/01 A3000 RMK AO2 SLP157 T00560006 10100 20039 50001,M
EWR,2023-01-19 01:51,40.00,32.00,73.14,220.00,4.00,0.00,30.02,1016.50,10.00,M,FEW,SCT,M,M,3500.00,25000.00,M,M,M,M,M,M,M,M,M,36.65,KEWR 190651Z 22004KT 10SM FEW035 SCT250 04/00 A3002 RMK AO2 SLP165 T00440000,M
EWR,2023-01-19 02:51,40.00,32.00,73.14,310.00,6.00,0.00,30.02,1016.60,10.00,M,FEW,SCT,M,M,4000.00,25000.00,M,M,M,M,M,M,M,M,M,35.04,KEWR 190751Z 31006KT 10SM FEW040 SCT250 04/00 A3002 RMK AO2 PRESFR SLP166 T00440000,M
EWR,2023-01-19 03:51,39.00,32.00,75.75,250.00,4.00,0.00,30.02,1016.60,10.00,M,FEW,BKN,M,M,4000.00,25000.00,M,M,M,M,M,M,M,M,M,35.59,KEWR 190851Z 25004KT 10SM FEW040 BKN250 04/00 A3002 RMK AO2 SLP166 T00390000 51008,M
EWR,2023-01-19 04:51,41.00,32.00,70.08,10.00,4.00,0.00,30.01,1016.20,10.00,M,OVC,M,M,M,25000.00,M,M,M,M,M,M,M,M,M,M,37.93,KEWR 190951Z 01004KT 10SM OVC250 05/00 A3001 RMK AO2 SLP162 T00500000,M
EWR,2023-01-19 05:51,42.00,33.00,70.20,0.00,0.00,0.00,30.04,1017.30,10.00,M,SCT,BKN,OVC,M,8000.00,19000.00,25000.00,M,M,M,M,M,M,M,M,42.10,KEWR 191051Z 00000KT 10SM SCT080 BKN190 OVC250 06/01 A3004 RMK AO2 SLP173 T00560006,M
EWR,2023-01-19 06:51,43.00,33.00,67.82,270.00,3.00,0.00,30.04,1017.30,10.00,M,SCT,BKN,OVC,M,8500.00,11000.00,14000.00,M,M,M,M,M,M,M,M,41.26,KEWR 191151Z 27003KT 10SM SCT085 BKN110 OVC140 06/01 A3004 RMK SLP173 T00610006 10061 20033 53007,M
EWR,2023-01-19 07:51,42.00,33.00,70.20,230.00,3.00,T,30.05,1017.50,10.00,M,FEW,OVC,M,M,6000.00,9500.00,M,M,-RA,M,M,M,M,M,M,40.23,KEWR 191251Z 23003KT 10SM -RA FEW060 OVC095 06/01 A3005 RMK RAB31 SLP175 P0000 T00560006,M
EWR,2023-01-19 08:51,43.00,35.00,73.45,0.00,0.00,0.01,30.04,1017.30,10.00,M,BKN,OVC,M,M,8000.00,9500.00,M,M,-RA,M,M,M,M,M,M,43.00,KEWR 191351Z 00000KT 10SM -RA BKN080 OVC095 06/02 A3004 RMK AO2 SLP173 P0001 T00610017,M
EWR,2023-01-19 09:51,42.00,36.00,78.80,40.00,5.00,0.05,30.01,1016.30,6.00,M,FEW,SCT,OVC,M,2500.00,5500.00,8000.00,M,-RA,M,M,M,M,M,M,38.39,KEWR 191451Z 04005KT 6SM -RA FEW025 SCT055 OVC080 06/02 A3001 RMK AO2 SLP163 P0005 60006 T00560022 58010,M
EWR,2023-01-19 10:51,42.00,38.00,84.93,150.00,3.00,0.06,30.00,1015.90,5.00,M,FEW,BKN,OVC,M,2500.00,7000.00,9000.00,M,-RA BR,M,M,M,M,M,M,40.23,KEWR 191551Z 15003KT 5SM -RA BR FEW025 BKN070 OVC090 06/03 A3000 RMK AO2 SLP159 P0006 T00560033,M
EWR,2023-01-19 11:08,42.00,38.00,84.93,190.00,5.00,0.02,30.02,M,4.00,M,BKN,OVC,M,M,2500.00,9000.00,M,M,-RA BR,M,M,M,M,M,M,38.39,KEWR 191608Z 19005KT 4SM -RA BR BKN025 OVC090 06/03 A3002 RMK AO2 P0002 T00560033,M
EWR,2023-01-19 11:45,42.80,39.20,86.99,90.00,4.00,0.03,29.97,M,9.00,M,BKN,OVC,M,M,900.00,2900.00,M,M,-RA,M,M,M,M,M,M,40.03,KEWR 191645Z 09004KT 9SM -RA BKN009 OVC029 06/04 A2997 RMK AO2 PRESFR P0003,M
EWR,2023-01-19 11:51,42.00,39.00,88.67,M,3.00,0.03,29.97,1014.80,9.00,M,BKN,OVC,M,M,900.00,2900.00,M,M,-RA,M,M,M,M,M,M,40.23,KEWR 191651Z VRB03KT 9SM -RA BKN009 OVC029 06/04 A2997 RMK AO2 SLP148 P0003 T00560039,M
EWR,2023-01-19 12:51,42.00,39.00,88.67,110.00,5.00,0.05,29.91,1012.90,5.00,M,BKN,BKN,OVC,M,900.00,3800.00,5000.00,M,-RA BR,M,M,M,M,M,M,38.39,KEWR 191751Z 11005KT 5SM -RA BR BKN009 BKN038 OVC050 06/04 A2991 RMK AO2 SLP129 P0005 60020 T00560039 10067 20056 58030,M
EWR,2023-01-19 13:51,42.00,39.00,88.67,100.00,4.00,0.03,29.88,1011.90,8.00,M,BKN,OVC,M,M,700.00,1300.00,M,M,-RA,M,M,M,M,M,M,39.21,KEWR 191851Z 10004KT 8SM -RA BKN007 OVC013 06/04 A2988 RMK AO2 SLP119 P0003 T00560039,M
EWR,2023-01-19 14:27,42.00,39.00,88.67,70.00,5.00,0.01,29.87,M,2.00,M,BKN,OVC,M,M,600.00,1400.00,M,M,BR,M,M,M,M,M,M,38.39,KEWR 191927Z 07005KT 2SM BR BKN006 OVC014 06/04 A2987 RMK AO2 SFC VIS 2 1/2 RAE27 P0001 T00560039,M
EWR,2023-01-19 14:51,42.00,39.00,88.67,40.00,6.00,0.05,29.88,1011.90,2.00,M,OVC,M,M,M,500.00,M,M,M,RA BR,M,M,M,M,M,M,37.69,KEWR 191951Z 04006KT 2SM RA BR OVC005 06/04 A2988 RMK AO2 RAE27B30 SLP119 P0005 T00560039,M
EWR,2023-01-19 15:51,43.00,40.00,88.71,40.00,7.00,0.19,29.85,1010.60,2.00,M,BKN,OVC,M,M,500.00,1900.00,M,M,-RA BR,M,M,M,M,M,M,38.19,KEWR 192051Z 04007KT 2SM -RA BR BKN005 OVC019 06/04 A2985 RMK AO2 SFC VIS 2 1/2 SLP106 P0019 60027 T00610044 58022,M
EWR,2023-01-19 16:51,43.00,41.00,92.58,90.00,6.00,0.08,29.80,1009.00,2.00,M,BKN,OVC,M,M,500.00,1000.00,M,M,RA BR,M,M,M,M,M,M,38.78,KEWR 192151Z 09006KT 2SM RA BR BKN005 OVC010 06/05 A2980 RMK AO2 SFC VIS 4 SLP090 P0008 T00610050,M
EWR,2023-01-19 17:51,43.00,41.00,92.58,80.00,6.00,0.05,29.76,1007.50,2.00,M,BKN,OVC,M,M,500.00,1000.00,M,M,-RA BR,M,M,M,M,M,M,38.78,KEWR 192251Z 08006KT 2SM -RA BR BKN005 OVC010 06/05 A2976 RMK AO2 SFC VIS 3 SLP075 CIG 004V006 P0005 T00610050,M
EWR,2023-01-19 18:51,43.00,41.00,92.58,40.00,5.00,0.03,29.72,1006.30,2.00,M,BKN,OVC,M,M,500.00,1100.00,M,M,-RA BR,M,M,M,M,M,M,39.46,KEWR 192351Z 04005KT 2SM -RA BR BKN005 OVC011 06/05 A2972 RMK AO2 SFC VIS 3 SLP063 CIG 004V006 P0003 60043 T00610050 10061 20056 56043,M
EWR,2023-01-19 19:51,43.00,41.00,92.58,20.00,6.00,0.06,29.66,1004.30,2.00,M,OVC,M,M,M,500.00,M,M,M,-RA BR,M,M,M,M,M,M,38.78,KEWR 200051Z 02006KT 2SM -RA BR OVC005 06/05 A2966 RMK AO2 SFC VIS 3 SLP043 P0006 T00610050,M
EWR,2023-01-19 20:10,42.00,40.00,91.84,360.00,9.00,0.02,29.64,M,2.00,M,OVC,M,M,M,300.00,M,M,M,-RA BR,M,M,M,M,M,M,36.07,KEWR 200110Z 36009KT 2SM -RA BR OVC003 06/04 A2964 RMK AO2 SFC VIS 2 1/2 P0002 T00560044,M
EWR,2023-01-19 20:51,42.00,40.00,91.84,20.00,10.00,0.08,29.60,1002.40,2.00,M,OVC,M,M,M,300.00,M,M,M,-RA BR,M,M,M,M,M,M,35.63,KEWR 200151Z 02010KT 2SM -RA BR OVC003 06/04 A2960 RMK AO2 SFC VIS 2 1/2 PRESFR SLP024 P0008 T00560044,M
EWR,2023-01-19 21:10,42.00,40.00,91.84,330.00,13.00,0.02,29.62,M,2.00,M,OVC,M,M,M,400.00,M,M,M,TSRA BR,M,M,M,M,M,M,34.51,KEWR 200210Z 33013KT 2SM R04R/5000VP6000FT TSRA BR OVC004CB 06/04 A2962 RMK AO2 SFC VIS 2 1/2 LTG DSNT S-NW TSE08B10 PRESRR OCNL LTGCG OHD TS OHD MOV NE P0002 T00560044,M
EWR,2023-01-19 21:42,42.00,39.00,88.67,360.00,13.00,0.11,29.62,M,2.00,19.00,BKN,BKN,OVC,M,500.00,2300.00,7000.00,M,-RA BR,M,M,M,M,M,M,34.51,KEWR 200242Z 36013G19KT 2SM -RA BR BKN005 BKN023 OVC070 06/04 A2962 RMK AO2 SFC VIS 6 LTG DSNT NE-S TSE08B10E42 P0011 T00560039,M
EWR,2023-01-19 21:51,42.00,40.00,91.84,350.00,10.00,0.12,29.63,1003.40,7.00,M,BKN,BKN,OVC,M,600.00,4000.00,9000.00,M,-RA,M,M,M,M,M,M,35.63,KEWR 200251Z 35010KT 7SM -RA BKN006 BKN040 OVC090 06/04 A2963 RMK AO2 LTG DSNT NE AND E TSE08B10E42 SLP034 P0012 60026 T00560044 55029,M
EWR,2023-01-19 22:06,42.00,39.00,88.67,360.00,13.00,0.02,29.61,M,7.00,M,SCT,BKN,OVC,M,600.00,4500.00,8500.00,M,RA,M,M,M,M,M,M,34.51,KEWR 200306Z 36013KT 7SM RA SCT006 BKN045 OVC085 06/04 A2961 RMK AO2 P0002 T00560039,M
EWR,2023-01-19 22:51,41.00,39.00,92.52,360.00,8.00,0.06,29.57,1001.30,8.00,M,SCT,BKN,OVC,M,600.00,6000.00,9500.00,M,M,M,M,M,M,M,M,35.20,KEWR 200351Z 36008KT 8SM SCT006 BKN060 OVC095 05/04 A2957 RMK AO2 RAE41 SLP013 P0006 T00500039,M
EWR,2023-01-19 22:55,41.00,39.00,92.52,10.00,8.00,0.00,29.58,M,7.00,M,BKN,BKN,OVC,M,600.00,6000.00,9500.00,M,M,M,M,M,M,M,M,35.20,KEWR 200355Z 01008KT 7SM BKN006 BKN060 OVC095 05/04 A2958 RMK AO2 T00500039,M
EWR,2023-01-19 23:51,43.00,40.00,88.71,340.00,5.00,0.00,29.58,1001.50,8.00,M,OVC,M,M,M,700.00,M,M,M,M,M,M,M,M,M,M,39.46,KEWR 200451Z 34005KT 8SM OVC007 06/04 A2958 RMK AO2 SLP015 T00610044 400670033,M
EWR,2023-01-20 00:51,43.00,40.00,88.71,0.00,0.00,0.00,29.57,1001.20,8.00,M,OVC,M,M,M,700.00,M,M,M,M,M,M,M,M,M,M,43.00,KEWR 200551Z 00000KT 8SM OVC007 06/04 A2957 RMK AO2 SLP012 60032 T00610044 10067 20050 56021,M
EWR,2023-01-20 01:28,43.00,39.00,85.66,250.00,11.00,0.00,29.63,M,10.00,M,OVC,M,M,M,900.00,M,M,M,M,M,M,M,M,M,M,36.37,KEWR 200628Z 25011KT 10SM OVC009 06/04 A2963 RMK AO2 T00610039,M
EWR,2023-01-20 01:51,43.00,39.00,85.66,350.00,3.00,T,29.60,1002.30,10.00,M,OVC,M,M,M,900.00,M,M,M,-RA,M,M,M,M,M,M,41.26,KEWR 200651Z 35003KT 10SM -RA OVC009 06/04 A2960 RMK AO2 RAB44 SLP023 P0000 T00610039,M
EWR,2023-01-20 02:51,42.00,39.00,88.67,300.00,4.00,T,29.60,1002.40,8.00,M,OVC,M,M,M,700.00,M,M,M,M,M,M,M,M,M,M,39.21,KEWR 200751Z 30004KT 8SM OVC007 06/04 A2960 RMK AO2 RAE0654 SLP024 P0000 T00560039,M
EWR,2023-01-20 03:51,42.00,40.00,91.84,260.00,4.00,0.00,29.61,1002.60,8.00,M,OVC,M,M,M,700.00,M,M,M,M,M,M,M,M,M,M,39.21,KEWR 200851Z 26004KT 8SM OVC007 06/04 A2961 RMK AO2 SLP026 60000 T00560044 51014,M
EWR,2023-01-20 04:51,41.00,38.00,88.62,240.00,4.00,0.00,29.61,1002.70,10.00,M,BKN,M,M,M,700.00,M,M,M,M,M,M,M,M,M,M,37.93,KEWR 200951Z 24004KT 10SM BKN007 05/03 A2961 RMK AO2 SLP027 T00500033,M
EWR,2023-01-20 05:51,40.00,38.00,92.48,190.00,4.00,0.00,29.62,1002.80,10.00,M,SCT,SCT,M,M,700.00,9000.00,M,M,M,M,M,M,M,M,M,36.65,KEWR 201051Z 19004KT 10SM SCT007 SCT090 04/03 A2962 RMK AO2 SLP028 T00440033,M
EWR,2023-01-20 06:51,43.00,39.00,85.66,260.00,10.00,0.00,29.62,1002.90,10.00,M,FEW,BKN,M,M,700.00,8000.00,M,M,M,M,M,M,M,M,M,36.76,KEWR 201151Z 26010KT 10SM FEW007 BKN080 06/04 A2962 RMK AO2 SLP029 60000 70095 T00610039 10061 20033 51003,M
EWR,2023-01-20 07:51,45.00,37.00,73.37,270.00,13.00,0.00,29.62,1003.00,10.00,M,FEW,SCT,M,M,1100.00,8000.00,M,M,M,M,M,M,M,M,M,38.22,KEWR 201251Z 27013KT 10SM FEW011 SCT080 07/03 A2962 RMK AO2 SLP030 T00720028,M
EWR,2023-01-20 08:51,46.00,37.00,70.64,260.00,12.00,0.00,29.64,1003.60,10.00,M,SCT,M,M,M,9000.00,M,M,M,M,M,M,M,M,M,M,39.82,KEWR 201351Z 26012KT 10SM SCT090 08/03 A2964 RMK AO2 SLP036 T00780028,M
EWR,2023-01-20 09:51,48.00,37.00,65.51,260.00,16.00,0.00,29.65,1004.00,10.00,22.00,FEW,SCT,M,M,2500.00,9000.00,M,M,M,M,M,M,M,M,M,41.27,KEWR 201451Z 26016G22KT 10SM FEW025 SCT090 09/03 A2965 RMK AO2 SLP040 T00890028 53011,M
EWR,2023-01-20 10:51,50.00,35.00,56.39,270.00,17.00,0.00,29.65,1004.00,10.00,23.00,SCT,SCT,M,M,3700.00,9000.00,M,M,M,M,M,M,M,M,M,50.00,KEWR 201551Z 27017G23KT 10SM SCT037 SCT090 10/02 A2965 RMK AO2 SLP040 T01000017,M
EWR,2023-01-20 11:51,50.00,32.00,49.81,290.00,18.00,0.00,29.65,1004.00,10.00,25.00,BKN,BKN,M,M,4100.00,9000.00,M,M,M,M,M,M,29.00,280.00,2023-01-20 11:39,50.00,KEWR 201651Z 29018G25KT 10SM BKN041 BKN090 10/00 A2965 RMK AO2 PK WND 28029/1639 SLP040 T01000000,M
EWR,2023-01-20 12:51,48.00,33.00,56.10,280.00,17.00,T,29.66,1004.40,10.00,26.00,OVC,M,M,M,3900.00,M,M,M,-RA,M,M,M,28.00,290.00,2023-01-20 12:37,41.04,KEWR 201751Z 28017G26KT 10SM -RA OVC039 09/01 A2966 RMK AO2 PK WND 29028/1737 RAB47 SLP044 P0000 60000 T00890006 10106 20061 53004,M
EWR,2023-01-20 13:51,48.00,32.00,53.67,280.00,17.00,T,29.68,1005.10,10.00,24.00,SCT,BKN,M,M,4100.00,4800.00,M,M,M,M,M,M,27.00,280.00,2023-01-20 12:56,41.04,KEWR 201851Z 28017G24KT 10SM SCT041 BKN048 09/00 A2968 RMK AO2 PK WND 28027/1756 RAE17 SLP051 P0000 T00890000,M
EWR,2023-01-20 14:51,48.00,30.90,51.34,280.00,15.00,0.00,29.70,1005.50,10.00,27.00,SCT,BKN,BKN,M,4400.00,7500.00,25000.00,M,M,M,M,M,27.00,260.00,2023-01-20 14:43,41.52,KEWR 201951Z 28015G27KT 10SM SCT044 BKN075 BKN250 09/M01 A2970 RMK AO2 PK WND 26027/1943 SLP055 T00891006,M
EWR,2023-01-20 15:51,48.00,30.90,51.34,280.00,14.00,0.00,29.73,1006.80,10.00,25.00,FEW,BKN,BKN,BKN,3800.00,5000.00,13000.00,25000.00,M,M,M,M,29.00,280.00,2023-01-20 15:37,41.79,KEWR 202051Z 28014G25KT 10SM FEW038 BKN050 BKN130 BKN250 09/M01 A2973 RMK AO2 PK WND 28029/2037 SLP068 60000 T00891006 53024,M
EWR,2023-01-20 16:51,48.00,30.00,49.49,280.00,14.00,0.00,29.77,1008.00,10.00,M,FEW,BKN,BKN,BKN,3800.00,5500.00,12000.00,25000.00,M,M,M,M,26.00,270.00,2023-01-20 15:53,41.79,KEWR 202151Z 28014KT 10SM FEW038 BKN055 BKN120 BKN250 09/M01 A2977 RMK AO2 PK WND 27026/2053 SLP080 T00891011 $,M
EWR,2023-01-20 17:51,46.00,30.90,55.36,270.00,12.00,0.00,29.80,1008.90,10.00,20.00,SCT,BKN,BKN,M,5000.00,14000.00,25000.00,M,M,M,M,M,M,M,M,39.82,KEWR 202251Z 27012G20KT 10SM SCT050 BKN140 BKN250 08/M01 A2980 RMK AO2 SLP089 T00781006 $,M
EWR,2023-01-20 18:51,45.00,30.00,55.43,260.00,12.00,0.00,29.83,1010.10,10.00,M,FEW,SCT,BKN,M,4000.00,14000.00,25000.00,M,M,M,M,M,M,M,M,38.55,KEWR 202351Z 26012KT 10SM FEW040 SCT140 BKN250 07/M01 A2983 RMK AO2 SLP101 60000 T00721011 10094 20072 53033 $,M
EWR,2023-01-20 19:51,44.00,30.00,57.37,250.00,9.00,0.00,29.85,1010.60,10.00,M,FEW,SCT,BKN,M,4000.00,12000.00,25000.00,M,M,M,M,M,M,M,M,38.56,KEWR 210051Z 25009KT 10SM FEW040 SCT120 BKN250 07/M01 A2985 RMK AO2 SLP106 T00671011 $,M
EWR,2023-01-20 20:51,44.00,30.00,57.37,260.00,11.00,0.00,29.87,1011.40,10.00,M,BKN,BKN,M,M,4400.00,13000.00,M,M,M,M,M,M,M,M,M,37.76,KEWR 210151Z 26011KT 10SM BKN044 BKN130 07/M01 A2987 RMK AO2 SLP114 T00671011 $,M
EWR,2023-01-20 21:51,43.00,30.00,59.83,260.00,10.00,0.00,29.89,1012.10,10.00,M,BKN,M,M,M,4600.00,M,M,M,M,M,M,M,M,M,M,36.76,KEWR 210251Z 26010KT 10SM BKN046 06/M01 A2989 RMK AO2 SLP121 T00611011 53020,M
EWR,2023-01-20 22:51,42.00,30.00,61.94,260.00,8.00,0.00,29.90,1012.50,10.00,17.00,SCT,BKN,M,M,3600.00,4800.00,M,M,M,M,M,M,M,M,M,36.55,KEWR 210351Z 26008G17KT 10SM SCT036 BKN048 06/M01 A2990 RMK AO2 SLP125 T00561011,M
EWR,2023-01-20 23:51,42.00,30.00,61.94,M,5.00,0.00,29.93,1013.30,10.00,M,FEW,SCT,M,M,3600.00,4800.00,M,M,M,M,M,M,M,M,M,38.39,KEWR 210451Z VRB05KT 10SM FEW036 SCT048 06/M01 A2993 RMK AO2 SLP133 T00561011 401060033,M
EWR,2023-01-21 00:51,42.00,30.90,64.24,270.00,7.00,0.00,29.93,1013.60,10.00,M,BKN,OVC,M,M,3400.00,4600.00,M,M,M,M,M,M,M,M,M,37.09,KEWR 210551Z 27007KT 10SM BKN034 OVC046 06/M01 A2993 RMK AO2 SLP136 T00561006 10072 20050 51015,M
EWR,2023-01-21 01:13,42.00,30.90,64.24,340.00,10.00,T,29.94,M,10.00,M,BKN,BKN,OVC,M,2700.00,3400.00,4600.00,M,-RA,M,M,M,M,M,M,35.63,KEWR 210613Z 34010KT 10SM -RA BKN027 BKN034 OVC046 06/M01 A2994 RMK AO2 RAB07 P0000 T00561006,M
EWR,2023-01-21 01:39,42.00,30.90,64.24,320.00,9.00,T,29.94,M,10.00,M,SCT,BKN,M,M,2600.00,3400.00,M,M,M,M,M,M,M,M,M,36.07,KEWR 210639Z 32009KT 10SM SCT026 BKN034 06/M01 A2994 RMK AO2 RAB07E22 P0000 T00561006,M
EWR,2023-01-21 01:51,42.00,30.00,61.94,310.00,7.00,T,29.95,1014.10,10.00,M,FEW,SCT,BKN,M,2600.00,3400.00,4200.00,M,M,M,M,M,M,M,M,37.09,KEWR 210651Z 31007KT 10SM FEW026 SCT034 BKN042 06/M01 A2995 RMK AO2 RAB07E22 SLP141 P0000 T00561011,M
EWR,2023-01-21 02:51,41.00,28.90,61.79,290.00,5.00,0.00,29.97,1014.90,10.00,M,BKN,OVC,M,M,3200.00,4600.00,M,M,M,M,M,M,M,M,M,37.08,KEWR 210751Z 29005KT 10SM BKN032 OVC046 05/M02 A2997 RMK AO2 SLP149 T00501017,M
EWR,2023-01-21 03:51,41.00,27.00,57.15,320.00,9.00,0.00,29.98,1015.30,10.00,M,SCT,BKN,M,M,3400.00,4200.00,M,M,M,M,M,M,M,M,M,34.70,KEWR 210851Z 32009KT 10SM SCT034 BKN042 05/M03 A2998 RMK AO2 SLP153 60000 T00501028 51017,M
EWR,2023-01-21 04:51,39.00,24.10,54.77,330.00,17.00,0.00,30.01,1016.30,10.00,21.00,BKN,M,M,M,4200.00,M,M,M,M,M,M,M,M,M,M,29.25,KEWR 210951Z 33017G21KT 10SM BKN042 04/M04 A3001 RMK AO2 SLP163 T00391044,M
EWR,2023-01-21 05:51,39.00,24.10,54.77,300.00,12.00,0.00,30.03,1017.00,10.00,18.00,BKN,M,M,M,3800.00,M,M,M,M,M,M,M,M,M,M,30.91,KEWR 211051Z 30012G18KT 10SM BKN038 04/M04 A3003 RMK AO2 SLP170 T00391044,M
EWR,2023-01-21 06:51,39.00,24.10,54.77,310.00,12.00,0.00,30.07,1018.10,10.00,18.00,SCT,OVC,M,M,3800.00,5500.00,M,M,M,M,M,M,M,M,M,30.91,KEWR 211151Z 31012G18KT 10SM SCT038 OVC055 04/M04 A3007 RMK AO2 SLP181 60000 T00391044 10056 20039 53028,M
EWR,2023-01-21 07:51,39.00,24.10,54.77,310.00,11.00,0.00,30.10,1019.20,10.00,M,FEW,BKN,M,M,3500.00,4500.00,M,M,M,M,M,M,27.00,300.00,2023-01-21 07:40,31.31,KEWR 211251Z 31011KT 10SM FEW035 BKN045 04/M04 A3010 RMK AO2 PK WND 30027/1240 SLP192 T00391044,M
EWR,2023-01-21 08:51,39.00,25.00,56.86,330.00,13.00,0.00,30.12,1020.00,10.00,M,FEW,OVC,M,M,3500.00,4300.00,M,M,M,M,M,M,M,M,M,30.54,KEWR 211351Z 33013KT 10SM FEW035 OVC043 04/M04 A3012 RMK AO2 SLP200 T00391039,M
EWR,2023-01-21 09:51,40.00,25.00,54.90,330.00,14.00,0.00,30.15,1021.00,10.00,M,SCT,OVC,M,M,3500.00,4400.00,M,M,M,M,M,M,M,M,M,31.35,KEWR 211451Z 33014KT 10SM SCT035 OVC044 04/M04 A3015 RMK AO2 SLP210 T00441039 51029,M
EWR,2023-01-21 10:51,41.00,25.00,52.61,330.00,12.00,0.00,30.16,1021.30,10.00,M,SCT,OVC,M,M,3500.00,4400.00,M,M,M,M,M,M,M,M,M,33.46,KEWR 211551Z 33012KT 10SM SCT035 OVC044 05/M04 A3016 RMK AO2 SLP213 T00501039,M
EWR,2023-01-21 11:51,42.00,25.00,50.42,330.00,11.00,0.00,30.16,1021.20,10.00,M,FEW,OVC,M,M,3400.00,3900.00,M,M,M,M,M,M,M,M,M,35.23,KEWR 211651Z 33011KT 10SM FEW034 OVC039 06/M04 A3016 RMK AO2 SLP212 T00561039,M
EWR,2023-01-21 12:51,42.00,25.00,50.42,330.00,12.00,0.00,30.15,1020.80,10.00,20.00,OVC,M,M,M,3700.00,M,M,M,M,M,M,M,M,M,M,34.86,KEWR 211751Z 33012G20KT 10SM OVC037 06/M04 A3015 RMK AO2 SLP208 T00561039 10056 20039 58002,M
EWR,2023-01-21 13:51,42.00,25.00,50.42,310.00,10.00,0.00,30.15,1020.80,10.00,M,OVC,M,M,M,3700.00,M,M,M,M,M,M,M,M,M,M,35.63,KEWR 211851Z 31010KT 10SM OVC037 06/M04 A3015 RMK AO2 SLP208 T00561039,M
EWR,2023-01-21 14:51,41.00,24.10,50.67,280.00,8.00,0.00,30.16,1021.30,10.00,15.00,OVC,M,M,M,3700.00,M,M,M,M,M,M,M,M,M,M,35.20,KEWR 211951Z 28008G15KT 10SM OVC037 05/M04 A3016 RMK AO2 SLP213 T00501044,M
EWR,2023-01-21 15:51,41.00,24.10,50.67,320.00,7.00,0.00,30.17,1021.60,10.00,M,OVC,M,M,M,3700.00,M,M,M,M,M,M,M,M,M,M,35.75,KEWR 212051Z 32007KT 10SM OVC037 05/M04 A3017 RMK AO2 SLP216 T00501044 53008,M
EWR,2023-01-21 16:51,40.00,24.10,52.88,310.00,9.00,0.00,30.20,1022.40,10.00,M,OVC,M,M,M,3700.00,M,M,M,M,M,M,M,M,M,M,33.34,KEWR 212151Z 31009KT 10SM OVC037 04/M04 A3020 RMK AO2 SLP224 T00441044,M
EWR,2023-01-21 17:51,40.00,24.10,52.88,300.00,4.00,0.00,30.21,1022.80,10.00,M,OVC,M,M,M,3700.00,M,M,M,M,M,M,M,M,M,M,36.65,KEWR 212251Z 30004KT 10SM OVC037 04/M04 A3021 RMK AO2 SLP228 T00441044,M
EWR,2023-01-21 18:51,39.00,24.10,54.77,300.00,7.00,0.00,30.22,1023.20,10.00,M,OVC,M,M,M,3600.00,M,M,M,M,M,M,M,M,M,M,33.31,KEWR 212351Z 30007KT 250V350 10SM OVC036 04/M04 A3022 RMK AO2 SLP232 T00391044 10056 20039 51016,M
EWR,2023-01-21 19:51,39.00,24.10,54.77,280.00,9.00,0.00,30.23,1023.60,10.00,M,OVC,M,M,M,3500.00,M,M,M,M,M,M,M,M,M,M,32.22,KEWR 220051Z 28009KT 10SM OVC035 04/M04 A3023 RMK AO2 SLP236 T00391044,M
EWR,2023-01-21 20:51,39.00,24.10,54.77,310.00,4.00,0.00,30.23,1023.60,10.00,M,OVC,M,M,M,3400.00,M,M,M,M,M,M,M,M,M,M,35.59,KEWR 220151Z 31004KT 10SM OVC034 04/M04 A3023 RMK AO2 SLP236 T00391044,M
EWR,2023-01-21 21:51,38.00,24.10,57.18,M,3.00,0.00,30.23,1023.70,10.00,M,OVC,M,M,M,3400.00,M,M,M,M,M,M,M,M,M,M,35.43,KEWR 220251Z VRB03KT 10SM OVC034 03/M04 A3023 RMK AO2 SLP237 T00331044 51005,M
EWR,2023-01-21 22:51,38.00,24.10,57.18,290.00,3.00,0.00,30.23,1023.60,10.00,M,OVC,M,M,M,3300.00,M,M,M,M,M,M,M,M,M,M,35.43,KEWR 220351Z 29003KT 10SM OVC033 03/M04 A3023 RMK AO2 SLP236 T00331044,M
EWR,2023-01-21 23:51,38.00,24.10,57.18,290.00,3.00,0.00,30.22,1023.30,10.00,M,OVC,M,M,M,3300.00,M,M,M,M,M,M,M,M,M,M,35.43,KEWR 220451Z 29003KT 10SM OVC033 03/M04 A3022 RMK AO2 SLP233 T00331044 400560033,M
EWR,2023-01-22 00:51,38.00,24.10,57.18,230.00,6.00,0.00,30.22,1023.10,10.00,M,OVC,M,M,M,3100.00,M,M,M,M,M,M,M,M,M,M,32.64,KEWR 220551Z 23006KT 10SM OVC031 03/M04 A3022 RMK AO2 SLP231 T00331044 10039 20033 58005,M
EWR,2023-01-22 01:51,38.00,24.10,57.18,260.00,7.00,0.00,30.23,1023.60,10.00,M,OVC,M,M,M,3200.00,M,M,M,M,M,M,M,M,M,M,31.97,KEWR 220651Z 26007KT 10SM OVC032 03/M04 A3023 RMK AO2 SLP236 T00331044,M
EWR,2023-01-22 02:51,37.00,24.10,59.24,240.00,8.00,0.00,30.24,1023.80,10.00,M,OVC,M,M,M,3300.00,M,M,M,M,M,M,M,M,M,M,30.27,KEWR 220751Z 24008KT 10SM OVC033 03/M04 A3024 RMK AO2 SLP238 T00281044,M
EWR,2023-01-22 03:51,38.00,23.00,54.60,240.00,5.00,0.00,30.22,1023.20,10.00,M,OVC,M,M,M,3400.00,M,M,M,M,M,M,M,M,M,M,33.40,KEWR 220851Z 24005KT 10SM OVC034 03/M05 A3022 RMK AO2 SLP232 T00331050 50000,M
EWR,2023-01-22 04:51,37.00,24.10,59.24,190.00,3.00,0.00,30.20,1022.70,10.00,M,OVC,M,M,M,3500.00,M,M,M,M,M,M,M,M,M,M,34.40,KEWR 220951Z 19003KT 10SM OVC035 03/M04 A3020 RMK AO2 SLP227 T00281044,M
EWR,2023-01-22 05:51,38.00,24.10,57.18,220.00,3.00,0.00,30.21,1022.70,10.00,M,OVC,M,M,M,3500.00,M,M,M,M,M,M,M,M,M,M,35.43,KEWR 221051Z 22003KT 10SM OVC035 03/M04 A3021 RMK AO2 SLP227 T00331044,M
EWR,2023-01-22 06:51,38.00,25.00,59.36,180.00,4.00,0.00,30.20,1022.40,10.00,M,OVC,M,M,M,3600.00,M,M,M,M,M,M,M,M,M,M,34.31,KEWR 221151Z 18004KT 10SM OVC036 03/M04 A3020 RMK AO2 SLP224 T00331039 10033 20028 56007,M
EWR,2023-01-22 07:51,38.00,26.10,62.14,180.00,6.00,0.00,30.19,1022.10,10.00,M,OVC,M,M,M,3500.00,M,M,M,M,M,M,M,M,M,M,32.64,KEWR 221251Z 18006KT 10SM OVC035 03/M03 A3019 RMK AO2 SLP221 T00331033,M
EWR,2023-01-22 08:51,39.00,26.10,59.52,170.00,6.00,0.00,30.21,1022.90,10.00,M,BKN,OVC,M,M,3600.00,10000.00,M,M,M,M,M,M,M,M,M,33.96,KEWR 221351Z 17006KT 10SM BKN036 OVC100 04/M03 A3021 RMK AO2 SLP229 T00391033,M
EWR,2023-01-22 09:51,40.00,25.00,54.90,170.00,7.00,0.00,30.18,1021.80,10.00,M,FEW,BKN,BKN,M,2700.00,3600.00,10000.00,M,M,M,M,M,M,M,M,34.41,KEWR 221451Z 17007KT 10SM FEW027 BKN036 BKN100 04/M04 A3018 RMK AO2 SLP218 T00441039 58006,M
EWR,2023-01-22 10:51,41.00,24.10,50.67,170.00,5.00,0.00,30.15,1020.80,10.00,M,FEW,SCT,BKN,BKN,2700.00,3500.00,10000.00,21000.00,M,M,M,M,M,M,M,37.08,KEWR 221551Z 17005KT 10SM FEW027 SCT035 BKN100 BKN210 BKN250 05/M04 A3015 RMK AO2 PRESFR SLP208 T00501044,M
EWR,2023-01-22 11:51,42.00,26.10,52.78,210.00,5.00,0.00,30.12,1020.00,10.00,M,FEW,SCT,BKN,M,3500.00,14000.00,24000.00,M,M,M,M,M,M,M,M,38.39,KEWR 221651Z 21005KT 10SM FEW035 SCT140 BKN240 06/M03 A3012 RMK AO2 SLP200 T00561033,M
EWR,2023-01-22 12:51,42.00,26.10,52.78,160.00,8.00,0.00,30.09,1018.90,10.00,M,FEW,BKN,BKN,M,3500.00,14000.00,23000.00,M,M,M,M,M,M,M,M,36.55,KEWR 221751Z 16008KT 10SM FEW035 BKN140 BKN230 06/M03 A3009 RMK AO2 SLP189 T00561033 10061 20033 58029,M
EWR,2023-01-22 13:51,42.00,26.10,52.78,170.00,6.00,0.00,30.06,1017.80,10.00,M,FEW,BKN,BKN,M,3700.00,13000.00,24000.00,M,M,M,M,M,M,M,M,37.69,KEWR 221851Z 17006KT 10SM FEW037 BKN130 BKN240 06/M03 A3006 RMK AO2 SLP178 T00561033,M
EWR,2023-01-22 14:51,42.00,28.00,57.08,110.00,5.00,0.00,30.05,1017.40,10.00,M,SCT,BKN,BKN,OVC,4000.00,9000.00,14000.00,24000.00,M,M,M,M,M,M,M,38.39,KEWR 221951Z 11005KT 10SM SCT040 BKN090 BKN140 OVC240 06/M02 A3005 RMK AO2 SLP174 T00561022,M
EWR,2023-01-22 15:51,42.00,28.90,59.22,140.00,3.00,0.00,30.03,1016.80,10.00,M,BKN,BKN,OVC,M,3500.00,8500.00,13000.00,M,M,M,M,M,M,M,M,40.23,KEWR 222051Z 14003KT 10SM BKN035 BKN085 OVC130 06/M02 A3003 RMK AO2 SLP168 T00561017 56021,M
EWR,2023-01-22 16:13,42.00,30.00,61.94,140.00,4.00,0.00,30.02,M,10.00,M,BKN,BKN,OVC,M,2800.00,7000.00,12000.00,M,M,M,M,M,M,M,M,39.21,KEWR 222113Z 14004KT 10SM BKN028 BKN070 OVC120 06/M01 A3002 RMK AO2 T00561011,M
EWR,2023-01-22 16:51,41.00,30.90,67.03,130.00,4.00,T,29.99,1015.60,9.00,M,SCT,BKN,OVC,M,2600.00,6500.00,10000.00,M,-RA,M,M,M,M,M,M,37.93,KEWR 222151Z 13004KT 9SM -RA SCT026 BKN065 OVC100 05/M01 A2999 RMK AO2 RAB40 SLP156 P0000 T00501006,M
EWR,2023-01-22 17:51,40.00,34.00,79.25,110.00,3.00,0.02,29.95,1014.20,8.00,M,FEW,BKN,OVC,M,2300.00,3200.00,6000.00,M,-RA,M,M,M,M,M,M,37.72,KEWR 222251Z 11003KT 8SM -RA FEW023 BKN032 OVC060 04/01 A2995 RMK AO2 SLP142 P0002 T00440011,M
EWR,2023-01-22 18:24,40.00,34.00,79.25,40.00,3.00,0.01,29.94,M,7.00,M,BKN,BKN,OVC,M,1800.00,2800.00,5000.00,M,RA,M,M,M,M,M,M,37.72,KEWR 222324Z 04003KT 7SM RA BKN018 BKN028 OVC050 04/01 A2994 RMK AO2 P0001 T00440011,M
EWR,2023-01-22 18:51,40.00,35.00,82.80,0.00,0.00,0.05,29.96,1014.40,5.00,M,BKN,OVC,M,M,1600.00,2800.00,M,M,-RA,M,M,M,M,M,M,39.90,KEWR 222351Z 00000KT 5SM R04R/2600VP6000FT -RA BKN016 OVC028 04/02 A2996 RMK AO2 SLP144 P0005 60007 T00440017 10061 20044 55025,M
EWR,2023-01-22 19:38,39.00,36.00,88.87,30.00,5.00,0.08,29.94,M,6.00,M,SCT,SCT,OVC,M,1800.00,3000.00,4200.00,M,RA BR,M,M,M,M,M,M,34.71,KEWR 230038Z 03005KT 6SM RA BR SCT018 SCT030 OVC042 04/02 A2994 RMK AO2 P0008 T00390022,M
EWR,2023-01-22 19:51,39.00,36.00,88.87,20.00,9.00,0.12,29.93,1013.40,5.00,M,FEW,SCT,OVC,M,1800.00,2700.00,4500.00,M,RA BR,M,M,M,M,M,M,32.22,KEWR 230051Z 02009KT 5SM RA BR FEW018 SCT027 OVC045 04/02 A2993 RMK AO2 SLP134 P0012 T00390022,M
EWR,2023-01-22 19:58,39.00,36.00,88.87,30.00,8.00,0.01,29.92,M,6.00,M,SCT,BKN,OVC,M,600.00,2700.00,4500.00,M,-RA BR,M,M,M,M,M,M,32.74,KEWR 230058Z 03008KT 6SM -RA BR SCT006 BKN027 OVC045 04/02 A2992 RMK AO2 P0001 T00390022,M
EWR,2023-01-22 20:10,39.00,36.00,88.87,30.00,8.00,0.02,29.91,M,5.00,M,BKN,BKN,OVC,M,600.00,1900.00,2600.00,M,RA BR,M,M,M,M,M,M,32.74,KEWR 230110Z 03008KT 5SM RA BR BKN006 BKN019 OVC026 04/02 A2991 RMK AO2 P0002 T00390022,M
EWR,2023-01-22 20:51,39.00,36.00,88.87,20.00,10.00,0.06,29.87,1011.30,4.00,M,BKN,OVC,M,M,500.00,2900.00,M,M,-RA BR,M,M,M,M,M,M,31.75,KEWR 230151Z 02010KT 4SM -RA BR BKN005 OVC029 04/02 A2987 RMK AO2 PRESFR SLP113 P0006 T00390022,M
EWR,2023-01-22 21:51,39.00,36.00,88.87,20.00,11.00,0.03,29.82,1009.80,4.00,M,OVC,M,M,M,500.00,M,M,M,-RA BR,M,M,M,M,M,M,31.31,KEWR 230251Z 02011KT 4SM -RA BR OVC005 04/02 A2982 RMK AO2 SLP098 P0003 60021 T00390022 58046,M
EWR,2023-01-22 22:51,38.00,36.00,92.78,30.00,13.00,0.12,29.76,1007.80,3.00,M,BKN,BKN,OVC,M,500.00,1200.00,2600.00,M,RA BR,M,M,M,M,M,M,29.13,KEWR 230351Z 03013KT 3SM RA BR BKN005 BKN012 OVC026 03/02 A2976 RMK AO2 PRESFR SLP078 P0012 T00330022,M
EWR,2023-01-22 23:51,38.00,36.00,92.78,10.00,13.00,0.10,29.71,1006.00,4.00,M,BKN,OVC,M,M,500.00,900.00,M,M,RA BR,M,M,M,M,M,M,29.13,KEWR 230451Z 01013KT 4SM RA BR BKN005 OVC009 03/02 A2971 RMK AO2 SLP060 P0010 T00330022 400610028 $,M
EWR,2023-01-23 00:51,38.00,35.00,89.53,20.00,14.00,0.08,29.65,1003.80,3.00,M,OVC,M,M,M,600.00,M,M,M,RA BR,M,M,M,M,M,M,28.77,KEWR 230551Z 02014KT 3SM R04R/5500VP6000FT RA BR OVC006 03/02 A2965 RMK AO2 SLP038 P0008 60051 T00330017 10044 20033 58059 $,M
EWR,2023-01-23 01:51,38.00,36.00,92.78,10.00,14.00,0.06,29.61,1002.40,5.00,M,BKN,OVC,M,M,500.00,900.00,M,M,-RA BR,M,M,M,M,M,M,28.77,KEWR 230651Z 01014KT 5SM -RA BR BKN005 OVC009 03/02 A2961 RMK AO2 PRESFR SLP024 P0006 T00330022 $,M
EWR,2023-01-23 02:51,39.00,37.00,92.45,10.00,12.00,T,29.57,1001.20,3.00,M,OVC,M,M,M,500.00,M,M,M,-RA BR,M,M,M,M,M,M,30.91,KEWR 230751Z 01012KT 3SM -RA BR OVC005 04/03 A2957 RMK AO2 SLP012 P0000 T00390028 $,M
EWR,2023-01-23 03:51,40.00,38.00,92.48,360.00,11.00,0.01,29.55,1000.40,3.00,M,OVC,M,M,M,500.00,M,M,M,-RA BR,M,M,M,M,M,M,32.45,KEWR 230851Z 36011KT 3SM -RA BR OVC005 04/03 A2955 RMK AO2 SLP004 P0001 60007 T00440033 56034 $,M
EWR,2023-01-23 04:33,40.00,38.00,92.48,340.00,11.00,T,29.55,M,2.50,M,OVC,M,M,M,500.00,M,M,M,-RA BR,M,M,M,M,M,M,32.45,KEWR 230933Z 34011KT 2 1/2SM -RA BR OVC005 04/03 A2955 RMK AO2 P0000 T00440033 $,M
EWR,2023-01-23 04:51,40.00,38.00,92.48,340.00,11.00,0.01,29.54,1000.40,2.50,M,BKN,OVC,M,M,500.00,900.00,M,M,-RA BR,M,M,M,M,M,M,32.45,KEWR 230951Z 34011KT 2 1/2SM -RA BR BKN005 OVC009 04/03 A2954 RMK AO2 SLP004 P0001 T00440033 $,M
EWR,2023-01-23 05:27,39.00,37.00,92.45,10.00,9.00,T,29.54,M,3.00,M,BKN,BKN,OVC,M,600.00,1200.00,2200.00,M,-RA BR,M,M,M,M,M,M,32.22,KEWR 231027Z 01009KT 3SM -RA BR BKN006 BKN012 OVC022 04/03 A2954 RMK AO2 P0000 T00390028 $,M
EWR,2023-01-23 05:51,39.00,37.00,92.45,360.00,15.00,T,29.52,999.70,7.00,M,BKN,BKN,OVC,M,700.00,1400.00,2100.00,M,-RA,M,M,M,M,M,M,29.85,KEWR 231051Z 36015KT 7SM -RA BKN007 BKN014 OVC021 04/03 A2952 RMK AO2 SLP997 P0000 T00390028,M
EWR,2023-01-23 06:51,40.00,37.00,89.27,360.00,9.00,0.01,29.53,999.80,10.00,M,BKN,OVC,M,M,700.00,2100.00,M,M,-RA,M,M,M,M,M,M,33.34,KEWR 231151Z 36009KT 10SM -RA BKN007 OVC021 04/03 A2953 RMK AO2 PRESRR SLP998 P0001 60009 70067 T00440028 10044 20033 55006,M
EWR,2023-01-23 07:51,41.00,37.00,85.54,340.00,8.00,0.01,29.53,999.90,9.00,M,BKN,OVC,M,M,800.00,1800.00,M,M,-RA,M,M,M,M,M,M,35.20,KEWR 231251Z 34008KT 9SM -RA BKN008 OVC018 05/03 A2953 RMK AO2 SLP999 P0001 T00500028,M
EWR,2023-01-23 08:51,41.00,37.00,85.54,330.00,8.00,T,29.55,1000.60,10.00,M,BKN,OVC,M,M,800.00,1500.00,M,M,M,M,M,M,M,M,M,35.20,KEWR 231351Z 33008KT 10SM BKN008 OVC015 05/03 A2955 RMK AO2 RAE47 SLP006 P0000 T00500028,M
EWR,2023-01-23 09:15,41.00,37.00,85.54,310.00,8.00,T,29.56,M,2.50,M,BKN,OVC,M,M,700.00,1400.00,M,M,-RA BR,M,M,M,M,M,M,35.20,KEWR 231415Z 31008KT 2 1/2SM -RA BR BKN007 OVC014 05/03 A2956 RMK AO2 RAB07 P0000 T00500028,M
EWR,2023-01-23 09:51,40.00,37.00,89.27,320.00,8.00,0.01,29.57,1001.30,2.50,17.00,BKN,OVC,M,M,600.00,1200.00,M,M,-RA BR,M,M,M,M,M,M,33.84,KEWR 231451Z 32008G17KT 2 1/2SM -RA BR BKN006 OVC012 04/03 A2957 RMK AO2 RAB07 SLP013 P0001 60002 T00440028 53014,M
EWR,2023-01-23 10:26,40.00,36.00,85.81,320.00,13.00,0.02,29.57,M,4.00,19.00,BKN,OVC,M,M,800.00,1500.00,M,M,-RA BR,M,M,M,M,M,M,31.69,KEWR 231526Z 32013G19KT 4SM -RA BR BKN008 OVC015 04/02 A2957 RMK AO2 P0002 T00440022,M
EWR,2023-01-23 10:51,40.00,36.00,85.81,320.00,8.00,0.03,29.57,1001.10,9.00,M,SCT,BKN,OVC,M,800.00,1500.00,2400.00,M,-RA,M,M,M,M,M,M,33.84,KEWR 231551Z 32008KT 9SM -RA SCT008 BKN015 OVC024 04/02 A2957 RMK AO2 SLP011 P0003 T00440022,M
EWR,2023-01-23 11:15,40.00,36.00,85.81,290.00,9.00,0.01,29.56,M,8.00,M,SCT,BKN,OVC,M,800.00,1400.00,2400.00,M,-RASN,M,M,M,M,M,M,33.34,KEWR 231615Z 29009KT 8SM -RASN SCT008 BKN014 OVC024 04/02 A2956 RMK AO2 SNB14 P0001 T00440022,M
EWR,2023-01-23 11:22,40.00,36.00,85.81,280.00,9.00,0.01,29.56,M,9.00,M,SCT,BKN,OVC,M,800.00,1400.00,2400.00,M,-RA,M,M,M,M,M,M,33.34,KEWR 231622Z 28009KT 9SM -RA SCT008 BKN014 OVC024 04/02 A2956 RMK AO2 SNB14E22 P0001 T00440022,M
EWR,2023-01-23 11:37,40.00,36.00,85.81,280.00,11.00,0.01,29.56,M,10.00,M,BKN,BKN,OVC,M,800.00,1400.00,2400.00,M,-RA,M,M,M,M,M,M,32.45,KEWR 231637Z 28011KT 10SM -RA BKN008 BKN014 OVC024 04/02 A2956 RMK AO2 SNB14E22 P0001 T00440022,M
EWR,2023-01-23 11:51,40.00,36.00,85.81,290.00,12.00,0.02,29.56,1000.80,10.00,17.00,BKN,OVC,M,M,800.00,1400.00,M,M,-RA,M,M,M,M,M,M,32.06,KEWR 231651Z 29012G17KT 10SM -RA BKN008 OVC014 04/02 A2956 RMK AO2 SNB14E22 SLP008 P0002 T00440022,M
EWR,2023-01-23 12:38,39.00,35.00,85.76,300.00,12.00,0.01,29.56,M,6.00,20.00,BKN,BKN,OVC,M,800.00,1300.00,2400.00,M,-RASN BR,M,M,M,M,M,M,30.91,KEWR 231738Z 30012G20KT 6SM -RASN BR BKN008 BKN013 OVC024 04/02 A2956 RMK AO2 SNB38 P0001 T00390017,M
EWR,2023-01-23 12:51,39.00,35.00,85.76,290.00,11.00,0.02,29.57,1001.20,6.00,21.00,BKN,BKN,OVC,M,800.00,1300.00,2200.00,M,-RASN BR,M,M,M,M,M,M,31.31,KEWR 231751Z 29011G21KT 6SM -RASN BR BKN008 BKN013 OVC022 04/02 A2957 RMK AO2 SNB38 SLP012 P0002 60009 T00390017 10050 20039 55001,M
EWR,2023-01-23 13:18,38.00,34.00,85.69,310.00,11.00,0.02,29.57,M,6.00,M,SCT,BKN,OVC,M,800.00,1200.00,2200.00,M,-RASN BR,M,M,M,M,M,M,29.92,KEWR 231818Z 31011KT 6SM -RASN BR SCT008 BKN012 OVC022 03/01 A2957 RMK AO2 P0002 T00330011,M
EWR,2023-01-23 13:51,38.00,34.00,85.69,310.00,11.00,0.02,29.59,1001.80,7.00,18.00,FEW,BKN,OVC,M,800.00,1200.00,3500.00,M,-RASN,M,M,M,M,M,M,29.92,KEWR 231851Z 31011G18KT 7SM -RASN FEW008 BKN012 OVC035 03/01 A2959 RMK AO2 SLP018 P0002 T00330011,M
EWR,2023-01-23 14:13,40.00,35.00,82.80,300.00,12.00,0.01,29.60,M,10.00,M,FEW,SCT,BKN,OVC,800.00,1200.00,4000.00,15000.00,-RA,M,M,M,M,M,M,32.06,KEWR 231913Z 30012KT 10SM -RA FEW008 SCT012 BKN040 OVC150 04/02 A2960 RMK AO2 SNE12 P0001 T00440017,M
EWR,2023-01-23 14:51,40.00,33.00,76.44,310.00,16.00,0.01,29.63,1003.40,10.00,23.00,FEW,FEW,BKN,OVC,800.00,1800.00,5000.00,15000.00,M,M,M,M,M,M,M,30.72,KEWR 231951Z 31016G23KT 10SM FEW008 FEW018 BKN050 OVC150 04/01 A2963 RMK AO2 RAE27SNE12 SLP034 P0001 T00440006,M
EWR,2023-01-23 15:51,40.00,34.00,79.25,300.00,15.00,T,29.67,1004.80,10.00,23.00,FEW,FEW,BKN,OVC,800.00,2000.00,6500.00,15000.00,M,M,M,M,M,M,M,31.02,KEWR 232051Z 30015G23KT 10SM FEW008 FEW020 BKN065 OVC150 04/01 A2967 RMK AO2 RAB10E21 SLP048 P0000 60003 T00440011 53036,M
EWR,2023-01-23 16:51,41.00,30.90,67.03,300.00,16.00,0.00,29.71,1005.90,10.00,24.00,FEW,BKN,BKN,BKN,2000.00,3300.00,7000.00,13000.00,M,M,M,M,28.00,300.00,2023-01-23 16:39,32.15,KEWR 232151Z 30016G24KT 10SM FEW020 BKN033 BKN070 BKN130 05/M01 A2971 RMK AO2 PK WND 30028/2139 SLP059 T00501006,M
EWR,2023-01-23 17:51,40.00,28.90,64.49,300.00,19.00,0.00,29.76,1007.60,10.00,27.00,FEW,BKN,BKN,M,2000.00,3000.00,7000.00,M,M,M,M,M,29.00,290.00,2023-01-23 17:28,29.88,KEWR 232251Z 30019G27KT 10SM FEW020 BKN030 BKN070 04/M02 A2976 RMK AO2 PK WND 29029/2228 SLP076 T00441017,M
EWR,2023-01-23 18:51,39.00,27.00,61.78,310.00,18.00,0.00,29.81,1009.50,10.00,26.00,BKN,OVC,M,M,3000.00,7000.00,M,M,M,M,M,M,29.00,300.00,2023-01-23 18:00,28.96,KEWR 232351Z 31018G26KT 10SM BKN030 OVC070 04/M03 A2981 RMK AO2 PK WND 30029/2300 SLP095 60003 T00391028 10050 20033 53047,M
EWR,2023-01-23 19:51,38.00,26.10,62.14,310.00,10.00,0.00,29.86,1011.00,10.00,21.00,BKN,OVC,M,M,3200.00,7000.00,M,M,M,M,M,M,27.00,310.00,2023-01-23 19:14,30.37,KEWR 240051Z 31010G21KT 10SM BKN032 OVC070 03/M03 A2986 RMK AO2 PK WND 31027/0014 SLP110 T00331033,M
EWR,2023-01-23 20:51,37.00,25.00,61.50,300.00,17.00,0.00,29.90,1012.50,10.00,28.00,OVC,M,M,M,3200.00,M,M,M,M,M,M,M,29.00,300.00,2023-01-23 20:24,26.63,KEWR 240151Z 30017G28KT 10SM OVC032 03/M04 A2990 RMK AO2 PK WND 30029/0124 SLP125 T00281039,M
EWR,2023-01-23 21:51,37.00,24.10,59.24,310.00,16.00,0.00,29.94,1013.70,10.00,24.00,OVC,M,M,M,3300.00,M,M,M,M,M,M,M,29.00,300.00,2023-01-23 21:00,26.94,KEWR 240251Z 31016G24KT 10SM OVC033 03/M04 A2994 RMK AO2 PK WND 30029/0200 SLP137 T00281044 51042,M
EWR,2023-01-23 22:51,38.00,24.10,57.18,300.00,13.00,0.00,29.96,1014.40,10.00,18.00,OVC,M,M,M,3500.00,M,M,M,M,M,M,M,26.00,300.00,2023-01-23 22:02,29.13,KEWR 240351Z 30013G18KT 10SM OVC035 03/M04 A2996 RMK AO2 PK WND 30026/0302 SLP144 T00331044,M
EWR,2023-01-23 23:51,37.00,21.90,54.01,300.00,17.00,0.00,29.98,1015.20,10.00,23.00,OVC,M,M,M,3800.00,M,M,M,M,M,M,M,M,M,M,26.63,KEWR 240451Z 30017G23KT 10SM OVC038 03/M06 A2998 RMK AO2 SLP152 T00281056 400500028,M
EWR,2023-01-24 00:51,36.00,21.90,56.18,280.00,12.00,0.00,29.99,1015.30,10.00,M,SCT,M,M,M,3800.00,M,M,M,M,M,M,M,M,M,M,27.09,KEWR 240551Z 28012KT 10SM SCT038 02/M06 A2999 RMK AO2 SLP153 T00221056 10039 20022 51017,M
EWR,2023-01-24 01:51,37.00,21.90,54.01,250.00,9.00,0.00,30.01,1016.20,10.00,M,BKN,M,M,M,4100.00,M,M,M,M,M,M,M,M,M,M,29.73,KEWR 240651Z 25009KT 10SM BKN041 03/M06 A3001 RMK AO2 SLP162 T00281056,M
EWR,2023-01-24 02:51,37.00,23.00,56.57,250.00,6.00,0.00,30.02,1016.60,10.00,M,BKN,M,M,M,4200.00,M,M,M,M,M,M,M,M,M,M,31.55,KEWR 240751Z 25006KT 10SM BKN042 03/M05 A3002 RMK AO2 SLP166 T00281050,M
EWR,2023-01-24 03:51,37.00,23.00,56.57,250.00,8.00,0.00,30.03,1016.90,10.00,M,BKN,M,M,M,3900.00,M,M,M,M,M,M,M,M,M,M,30.27,KEWR 240851Z 25008KT 10SM BKN039 03/M05 A3003 RMK AO2 SLP169 T00281050 51016,M
EWR,2023-01-24 04:51,36.00,24.10,61.62,250.00,10.00,0.00,30.04,1017.10,10.00,M,FEW,M,M,M,3900.00,M,M,M,M,M,M,M,M,M,M,27.98,KEWR 240951Z 25010KT 10SM FEW039 02/M04 A3004 RMK AO2 SLP171 T00221044,M
EWR,2023-01-24 05:51,37.00,24.10,59.24,250.00,9.00,0.00,30.06,1017.90,10.00,17.00,BKN,M,M,M,3800.00,M,M,M,M,M,M,M,M,M,M,29.73,KEWR 241051Z 25009G17KT 10SM BKN038 03/M04 A3006 RMK AO2 SLP179 T00281044,M
EWR,2023-01-24 06:51,37.00,24.10,59.24,260.00,10.00,0.00,30.08,1018.50,10.00,M,BKN,M,M,M,3900.00,M,M,M,M,M,M,M,M,M,M,29.24,KEWR 241151Z 26010KT 10SM BKN039 03/M04 A3008 RMK AO2 SLP185 70012 T00281044 10028 20022 53016,M
EWR,2023-01-24 07:51,37.00,24.10,59.24,250.00,9.00,0.00,30.09,1018.70,10.00,M,SCT,BKN,M,M,3900.00,22000.00,M,M,M,M,M,M,M,M,M,29.73,KEWR 241251Z 25009KT 10SM SCT039 BKN220 03/M04 A3009 RMK AO2 SLP187 T00281044,M
EWR,2023-01-24 08:51,38.00,24.10,57.18,240.00,10.00,0.00,30.11,1019.70,10.00,M,FEW,SCT,SCT,M,3900.00,20000.00,25000.00,M,M,M,M,M,M,M,M,30.37,KEWR 241351Z 24010KT 10SM FEW039 SCT200 SCT250 03/M04 A3011 RMK AO2 SLP197 T00331044,M
EWR,2023-01-24 09:51,41.00,24.10,50.67,270.00,14.00,0.00,30.13,1020.10,10.00,20.00,FEW,FEW,M,M,20000.00,25000.00,M,M,M,M,M,M,M,M,M,32.76,KEWR 241451Z 27014G20KT 10SM FEW200 FEW250 05/M04 A3013 RMK AO2 SLP201 T00501044 53016,M
EWR,2023-01-24 10:51,44.00,23.00,42.95,260.00,13.00,0.00,30.12,1019.80,10.00,19.00,FEW,FEW,M,M,5000.00,25000.00,M,M,M,M,M,M,M,M,M,37.07,KEWR 241551Z 26013G19KT 10SM FEW050 FEW250 07/M05 A3012 RMK AO2 SLP198 T00671050,M
EWR,2023-01-24 11:51,47.00,24.10,40.44,270.00,12.00,0.00,30.11,1019.40,10.00,18.00,FEW,M,M,M,5000.00,M,M,M,M,M,M,M,M,M,M,40.97,KEWR 241651Z 27012G18KT 10SM FEW050 08/M04 A3011 RMK SLP194 T00831044,M
EWR,2023-01-24 12:51,47.00,25.00,41.99,290.00,14.00,0.00,30.10,1019.30,10.00,22.00,SCT,M,M,M,5000.00,M,M,M,M,M,M,M,M,M,M,40.37,KEWR 241751Z 29014G22KT 10SM SCT050 08/M04 A3010 RMK AO2 SLP193 T00831039 10089 20028 56008,M
EWR,2023-01-24 13:51,49.00,26.10,40.77,300.00,22.00,0.00,30.11,1019.40,10.00,29.00,SCT,M,M,M,5000.00,M,M,M,M,M,M,M,29.00,300.00,2023-01-24 13:50,41.21,KEWR 241851Z 30022G29KT 10SM SCT050 09/M03 A3011 RMK AO2 PK WND 30029/1850 SLP194 T00941033,M
EWR,2023-01-24 14:51,48.00,26.10,42.17,310.00,13.00,0.00,30.13,1020.20,10.00,M,SCT,SCT,M,M,4700.00,25000.00,M,M,M,M,M,M,29.00,290.00,2023-01-24 13:54,42.07,KEWR 241951Z 31013KT 10SM SCT047 SCT250 09/M03 A3013 RMK AO2 PK WND 29029/1854 SLP202 T00891033,M
EWR,2023-01-24 15:51,44.00,24.10,44.98,290.00,16.00,0.00,30.17,1021.60,10.00,24.00,SCT,BKN,M,M,4700.00,25000.00,M,M,M,M,M,M,26.00,270.00,2023-01-24 15:22,36.19,KEWR 242051Z 29016G24KT 10SM SCT047 BKN250 07/M04 A3017 RMK AO2 PK WND 27026/2022 SLP216 T00671044 53023,M
EWR,2023-01-24 16:51,43.00,23.00,44.80,280.00,13.00,0.00,30.19,1022.30,10.00,25.00,BKN,BKN,M,M,4400.00,25000.00,M,M,M,M,M,M,M,M,M,35.66,KEWR 242151Z 28013G25KT 10SM BKN044 BKN250 06/M05 A3019 RMK AO2 SLP223 T00611050,M
EWR,2023-01-24 17:51,42.00,24.10,48.56,280.00,13.00,0.00,30.21,1023.00,10.00,M,BKN,BKN,M,M,4500.00,25000.00,M,M,M,M,M,M,M,M,M,34.51,KEWR 242251Z 28013KT 10SM BKN045 BKN250 06/M04 A3021 RMK AO2 SLP230 T00561044,M
EWR,2023-01-24 18:51,42.00,24.10,48.56,290.00,12.00,0.00,30.24,1023.90,10.00,18.00,BKN,BKN,M,M,4500.00,25000.00,M,M,M,M,M,M,M,M,M,34.86,KEWR 242351Z 29012G18KT 10SM BKN045 BKN250 06/M04 A3024 RMK AO2 SLP239 T00561044 10100 20056 53024,M
EWR,2023-01-24 19:51,42.00,23.00,46.37,310.00,9.00,0.00,30.25,1024.30,10.00,M,BKN,BKN,M,M,4500.00,25000.00,M,M,M,M,M,M,M,M,M,36.07,KEWR 250051Z 31009KT 10SM BKN045 BKN250 06/M05 A3025 RMK AO2 SLP243 T00561050,M
EWR,2023-01-24 20:51,42.00,21.90,44.27,300.00,11.00,0.00,30.27,1025.00,10.00,M,BKN,BKN,M,M,4500.00,25000.00,M,M,M,M,M,M,M,M,M,35.23,KEWR 250151Z 30011KT 10SM BKN045 BKN250 06/M06 A3027 RMK AO2 SLP250 T00561056,M
EWR,2023-01-24 21:51,41.00,21.90,46.19,310.00,11.00,0.00,30.30,1025.80,10.00,M,BKN,BKN,M,M,4400.00,25000.00,M,M,M,M,M,M,M,M,M,33.84,KEWR 250251Z 31011KT 10SM BKN044 BKN250 05/M06 A3030 RMK AO2 SLP258 T00501056 53019,M
EWR,2023-01-24 22:51,41.00,23.00,48.39,280.00,8.00,0.00,30.30,1025.80,10.00,M,BKN,BKN,M,M,4200.00,25000.00,M,M,M,M,M,M,M,M,M,35.20,KEWR 250351Z 28008KT 10SM BKN042 BKN250 05/M05 A3030 RMK AO2 SLP258 T00501050,M
EWR,2023-01-24 23:51,39.00,21.00,48.06,300.00,6.00,0.00,30.28,1025.40,10.00,M,SCT,SCT,M,M,4200.00,25000.00,M,M,M,M,M,M,M,M,M,33.96,KEWR 250451Z 30006KT 10SM SCT042 SCT250 04/M06 A3028 RMK AO2 SLP254 T00391061 401000022,M
EWR,2023-01-25 00:51,38.00,21.00,50.18,290.00,4.00,0.00,30.28,1025.30,10.00,M,FEW,FEW,M,M,4200.00,25000.00,M,M,M,M,M,M,M,M,M,34.31,KEWR 250551Z 29004KT 10SM FEW042 FEW250 03/M06 A3028 RMK AO2 SLP253 T00331061 10056 20033 58005,M
EWR,2023-01-25 01:51,37.00,21.90,54.01,310.00,3.00,0.00,30.29,1025.50,10.00,M,SCT,M,M,M,25000.00,M,M,M,M,M,M,M,M,M,M,34.40,KEWR 250651Z 31003KT 10SM SCT250 03/M06 A3029 RMK AO2 SLP255 T00281056,M
EWR,2023-01-25 02:51,36.00,23.00,58.85,300.00,4.00,0.00,30.30,1026.00,10.00,M,SCT,M,M,M,25000.00,M,M,M,M,M,M,M,M,M,M,32.09,KEWR 250751Z 30004KT 10SM SCT250 02/M05 A3030 RMK AO2 SLP260 T00221050,M
EWR,2023-01-25 03:51,35.00,23.00,60.99,40.00,3.00,0.00,30.28,1025.40,10.00,M,BKN,M,M,M,25000.00,M,M,M,M,M,M,M,M,M,M,32.23,KEWR 250851Z 04003KT 10SM BKN250 02/M05 A3028 RMK AO2 SLP254 T00171050 50001,M
EWR,2023-01-25 04:51,37.00,21.90,54.01,300.00,4.00,0.00,30.32,1026.80,10.00,M,CLR,M,M,M,M,M,M,M,M,M,M,M,M,M,M,33.26,KEWR 250951Z 30004KT 10SM CLR 03/M06 A3032 RMK AO2 SLP268 T00281056,M
EWR,2023-01-25 05:51,37.00,23.00,56.57,0.00,0.00,0.00,30.34,1027.40,10.00,M,FEW,SCT,M,M,22000.00,25000.00,M,M,M,M,M,M,M,M,M,37.00,KEWR 251051Z 00000KT 10SM FEW220 SCT250 03/M05 A3034 RMK AO2 SLP274 T00281050,M
EWR,2023-01-25 06:51,37.00,21.90,54.01,40.00,6.00,0.00,30.32,1026.50,10.00,M,BKN,BKN,OVC,M,9000.00,12000.00,22000.00,M,M,M,M,M,M,M,M,31.55,KEWR 251151Z 04006KT 10SM BKN090 BKN120 OVC220 03/M06 A3032 RMK AO2 SLP265 T00281056 10033 20011 50012,M
EWR,2023-01-25 07:51,37.00,23.00,56.57,30.00,5.00,0.00,30.29,1025.70,10.00,M,FEW,BKN,OVC,M,10000.00,14000.00,25000.00,M,M,M,M,M,M,M,M,32.33,KEWR 251251Z 03005KT 10SM FEW100 BKN140 OVC250 03/M05 A3029 RMK AO2 SLP257 T00281050,M
EWR,2023-01-25 08:51,39.00,24.10,54.77,0.00,0.00,0.00,30.31,1026.30,10.00,M,SCT,BKN,OVC,M,9000.00,14000.00,25000.00,M,M,M,M,M,M,M,M,39.00,KEWR 251351Z 00000KT 10SM SCT090 BKN140 OVC250 04/M04 A3031 RMK AO2 SLP263 T00391044,M
EWR,2023-01-25 09:51,40.00,23.00,50.50,100.00,6.00,0.00,30.27,1025.00,10.00,M,FEW,BKN,OVC,M,9000.00,14000.00,25000.00,M,M,M,M,M,M,M,M,35.04,KEWR 251451Z 10006KT 10SM FEW090 BKN140 OVC250 04/M05 A3027 RMK AO2 SLP250 T00441050 58015,M
EWR,2023-01-25 10:51,41.00,23.00,48.39,90.00,6.00,0.00,30.27,1025.10,10.00,M,FEW,BKN,OVC,M,9000.00,14000.00,25000.00,M,M,M,M,M,M,M,M,36.37,KEWR 251551Z 09006KT 10SM FEW090 BKN140 OVC250 05/M05 A3027 RMK AO2 SLP251 T00501050,M
EWR,2023-01-25 11:51,41.00,27.00,57.15,110.00,6.00,0.00,30.25,1024.40,10.00,M,OVC,M,M,M,9500.00,M,M,M,M,M,M,M,M,M,M,36.37,KEWR 251651Z 11006KT 10SM OVC095 05/M03 A3025 RMK AO2 PRESFR SLP244 VIRGA T00501028,M
EWR,2023-01-25 12:51,42.00,28.90,59.22,70.00,4.00,0.00,30.21,1023.00,10.00,M,BKN,OVC,M,M,4400.00,6000.00,M,M,M,M,M,M,M,M,M,39.21,KEWR 251751Z 07004KT 10SM BKN044 OVC060 06/M02 A3021 RMK AO2 SLP230 T00561017 10056 20028 58021,M
EWR,2023-01-25 13:03,41.00,30.00,64.63,M,3.00,T,30.20,M,7.00,M,OVC,M,M,M,2900.00,M,M,M,-RASN,M,M,M,M,M,M,38.98,KEWR 251803Z VRB03KT 7SM -RASN OVC029 05/M01 A3020 RMK AO2 RAB1756SNB02 PRESFR P0000 T00501011,M
EWR,2023-01-25 13:45,37.40,30.20,74.98,80.00,9.00,0.04,30.14,M,4.00,14.00,SCT,BKN,OVC,M,900.00,1700.00,3000.00,M,-RASN,M,M,M,M,M,M,30.23,KEWR 251845Z 08009G14KT 4SM -RASN SCT009 BKN017 OVC030 03/M01 A3014 RMK AO2 RAB1756SNB02 P0004 $,M
EWR,2023-01-25 13:51,37.00,30.90,78.37,90.00,8.00,0.05,30.14,1020.50,1.00,14.00,SCT,BKN,OVC,M,900.00,1700.00,3000.00,M,-RASN,M,M,M,M,M,M,30.27,KEWR 251851Z 09008G14KT 1SM R04R/P6000FT -RASN SCT009 BKN017 OVC030 03/M01 A3014 RMK AO2 SFC VIS 2 RAB1756SNB02 SLP205 P0005 T00281006 $,M
EWR,2023-01-25 14:03,35.00,30.90,84.49,80.00,7.00,0.04,30.14,M,1.00,M,BKN,OVC,M,M,900.00,1500.00,M,M,-RASN BR,M,M,M,M,M,M,28.56,KEWR 251903Z 08007KT 1SM R04R/6000VP6000FT -RASN BR BKN009 OVC015 02/M01 A3014 RMK AO2 SFC VIS 1 1/2 P0004 T00171006 $,M
EWR,2023-01-25 14:42,38.00,34.00,85.69,70.00,9.00,0.06,30.09,M,5.00,M,BKN,BKN,OVC,M,900.00,1200.00,2000.00,M,-RASN BR,M,M,M,M,M,M,30.85,KEWR 251942Z 07009KT 5SM -RASN BR BKN009 BKN012 OVC020 03/01 A3009 RMK AO2 PRESFR P0006 T00330011 $,M
EWR,2023-01-25 14:51,38.00,34.00,85.69,80.00,6.00,0.07,30.08,1018.40,4.00,M,BKN,BKN,OVC,M,900.00,1200.00,2000.00,M,-RASN BR,M,M,M,M,M,M,32.64,KEWR 251951Z 08006KT 4SM -RASN BR BKN009 BKN012 OVC020 03/01 A3008 RMK AO2 SLP184 P0007 T00330011 $,M
EWR,2023-01-25 15:07,38.00,35.00,89.53,80.00,9.00,T,30.06,M,5.00,M,BKN,OVC,M,M,900.00,3500.00,M,M,-RA BR,M,M,M,M,M,M,30.85,KEWR 252007Z 08009KT 5SM -RA BR BKN009 OVC035 03/02 A3006 RMK AO2 SNE06 PRESFR P0000 T00330017 $,M
EWR,2023-01-25 15:51,39.00,36.00,88.87,M,3.00,0.04,30.03,1017.00,5.00,M,SCT,BKN,OVC,M,900.00,2500.00,3300.00,M,-RA BR,M,M,M,M,M,M,36.69,KEWR 252051Z VRB03KT 5SM -RA BR SCT009 BKN025 OVC033 04/02 A3003 RMK AO2 SNE06 PRESFR SLP170 SCT V BKN P0004 60016 T00390022 56060 $,M
EWR,2023-01-25 16:09,39.00,36.00,88.87,80.00,7.00,0.01,30.02,M,5.00,14.00,SCT,BKN,OVC,M,800.00,1300.00,3500.00,M,-RA BR,M,M,M,M,M,M,33.31,KEWR 252109Z 08007G14KT 5SM -RA BR SCT008 BKN013 OVC035 04/02 A3002 RMK AO2 P0001 T00390022 $,M
EWR,2023-01-25 16:51,41.00,37.00,85.54,100.00,7.00,0.03,29.94,1013.70,5.00,16.00,BKN,OVC,M,M,800.00,1500.00,M,M,-RA BR,M,M,M,M,M,M,35.75,KEWR 252151Z 10007G16KT 5SM -RA BR BKN008 OVC015 05/03 A2994 RMK AO2 SLP137 P0003 T00500028 $,M
EWR,2023-01-25 17:51,45.00,41.00,85.77,100.00,15.00,T,29.88,1011.90,10.00,25.00,BKN,OVC,M,M,800.00,1400.00,M,M,-RA,M,M,M,M,M,M,37.63,KEWR 252251Z 10015G25KT 10SM -RA BKN008 OVC014 07/05 A2988 RMK AO2 PRESFR SLP119 P0000 T00720050 $,M
EWR,2023-01-25 18:51,46.00,43.00,89.20,100.00,13.00,0.09,29.83,1010.10,4.00,26.00,BKN,OVC,M,M,700.00,1200.00,M,M,RA BR,M,M,M,26.00,110.00,2023-01-25 18:12,39.50,KEWR 252351Z 10013G26KT 4SM RA BR BKN007 OVC012 08/06 A2983 RMK AO2 PK WND 11026/2312 SLP101 P0009 60028 T00780061 10078 20017 56069 $,M
EWR,2023-01-25 19:51,49.00,46.00,89.67,120.00,16.00,0.19,29.72,1006.20,4.00,31.00,BKN,OVC,M,M,600.00,1200.00,M,M,-RA BR,M,M,M,31.00,130.00,2023-01-25 19:44,42.45,KEWR 260051Z 12016G31KT 4SM -RA BR BKN006 OVC012 09/08 A2972 RMK AO2 PK WND 13031/0044 PRESFR SLP062 CIG 005V007 P0019 T00940078 $,M
EWR,2023-01-25 20:51,52.00,49.00,89.13,140.00,17.00,0.15,29.64,1003.70,4.00,26.00,BKN,OVC,M,M,600.00,2400.00,M,M,-RA BR,M,M,M,31.00,120.00,2023-01-25 20:12,52.00,KEWR 260151Z 14017G26KT 4SM -RA BR BKN006 OVC024 11/09 A2964 RMK AO2 PK WND 12031/0112 SLP037 P0015 T01110094 $,M
EWR,2023-01-25 21:51,54.00,51.00,89.88,170.00,11.00,0.11,29.60,1002.20,4.00,19.00,BKN,OVC,M,M,600.00,1000.00,M,M,-RA BR,M,M,M,29.00,140.00,2023-01-25 21:09,54.00,KEWR 260251Z 17011G19KT 4SM -RA BR BKN006 OVC010 12/11 A2960 RMK AO2 PK WND 14029/0209 SLP022 P0011 60045 T01220106 56078 $,M
EWR,2023-01-25 22:51,56.00,53.00,90.29,180.00,15.00,0.16,29.51,999.40,7.00,19.00,BKN,BKN,OVC,M,800.00,1400.00,1900.00,M,-RA,M,M,M,M,M,M,55.90,KEWR 260351Z 18015G19KT 7SM -RA BKN008 BKN014 OVC019 13/12 A2951 RMK AO2 SLP994 P0016 T01330117 $,M
EWR,2023-01-25 23:51,58.00,55.00,90.04,180.00,15.00,0.05,29.49,998.60,7.00,22.00,BKN,OVC,M,M,900.00,1400.00,M,M,-RA,M,M,M,M,M,M,57.90,KEWR 260451Z 18015G22KT 7SM -RA BKN009 OVC014 14/13 A2949 RMK AO2 SLP986 P0005 T01440128 401440011 $,M
EWR,2023-01-26 00:51,58.00,55.00,90.04,180.00,14.00,0.10,29.44,996.80,8.00,M,BKN,BKN,OVC,M,900.00,1200.00,8000.00,M,-RA,M,M,M,M,M,M,57.90,KEWR 260551Z 18014KT 8SM -RA BKN009 BKN012 OVC080 14/13 A2944 RMK AO2 SLP968 P0010 60076 T01440128 10144 20078 56054 $,M
EWR,2023-01-26 01:51,57.00,55.00,93.01,270.00,7.00,0.08,29.43,996.70,3.00,M,BKN,OVC,M,M,900.00,8000.00,M,M,RA BR,M,M,M,M,M,M,57.00,KEWR 260651Z 27007KT 3SM RA BR BKN009 OVC080 14/13 A2943 RMK AO2 SLP967 P0008 T01390128 $,M
EWR,2023-01-26 02:02,56.00,54.00,93.32,250.00,8.00,0.08,29.43,M,2.50,M,BKN,OVC,M,M,900.00,1400.00,M,M,+RA BR,M,M,M,M,M,M,55.90,KEWR 260702Z 25008KT 2 1/2SM R04R/5000VP6000FT +RA BR BKN009 OVC014 13/12 A2943 RMK AO2 P0008 T01330122 $,M
EWR,2023-01-26 02:19,55.00,53.00,93.29,240.00,11.00,0.17,29.43,M,5.00,M,SCT,OVC,M,M,900.00,1400.00,M,M,-RA BR,M,M,M,M,M,M,55.00,KEWR 260719Z 24011KT 5SM -RA BR SCT009 OVC014 13/12 A2943 RMK AO2 P0017 T01280117 $,M
EWR,2023-01-26 02:51,54.00,50.00,86.29,260.00,13.00,0.21,29.42,996.20,10.00,21.00,SCT,BKN,OVC,M,1100.00,1600.00,2300.00,M,-RA,M,M,M,M,M,M,54.00,KEWR 260751Z 26013G21KT 10SM -RA SCT011 BKN016 OVC023 12/10 A2942 RMK AO2 SLP962 P0021 T01220100 $,M
EWR,2023-01-26 03:45,51.80,46.40,81.74,250.00,9.00,T,29.43,M,10.00,M,SCT,SCT,OVC,M,1600.00,6500.00,8000.00,M,M,M,M,M,M,M,M,51.80,KEWR 260845Z 25009KT 10SM SCT016 SCT065 OVC080 11/08 A2943 RMK AO2 RAE00 P0000 $,M
EWR,2023-01-26 03:51,51.00,47.00,85.48,250.00,11.00,T,29.43,996.70,10.00,M,SCT,SCT,OVC,M,1600.00,6500.00,8000.00,M,M,M,M,M,M,M,M,51.10,KEWR 260851Z 25011KT 10SM SCT016 SCT065 OVC080 11/08 A2943 RMK AO2 RAE00 SLP967 P0000 60029 T01060083 55002 $,M
EWR,2023-01-26 04:51,49.00,44.00,83.42,240.00,11.00,0.00,29.44,997.00,10.00,M,FEW,FEW,SCT,M,3500.00,6500.00,8500.00,M,M,M,M,M,M,M,M,43.82,KEWR 260951Z 24011KT 10SM FEW035 FEW065 SCT085 09/07 A2944 RMK AO2 SLP970 T00940067 $,M
EWR,2023-01-26 05:51,47.00,41.00,79.82,250.00,14.00,0.00,29.48,998.10,10.00,M,FEW,SCT,M,M,4000.00,9000.00,M,M,M,M,M,M,M,M,M,40.37,KEWR 261051Z 25014KT 10SM FEW040 SCT090 08/05 A2948 RMK AO2 SLP981 T00830050 $,M
EWR,2023-01-26 06:44,46.00,38.00,73.18,260.00,17.00,0.00,29.50,M,10.00,M,OVC,M,M,M,2600.00,M,M,M,M,M,M,M,M,M,M,38.42,KEWR 261144Z 26017KT 10SM OVC026 08/03 A2950 RMK AO2 T00780033,M
EWR,2023-01-26 06:51,46.00,37.00,70.64,250.00,16.00,0.00,29.51,999.10,10.00,25.00,OVC,M,M,M,2600.00,M,M,M,M,M,M,M,M,M,M,38.67,KEWR 261151Z 25016G25KT 10SM OVC026 08/03 A2951 RMK AO2 SLP991 60029 70133 T00780028 10144 20078 53024,M
EWR,2023-01-26 07:12,45.00,36.00,70.53,250.00,16.00,0.00,29.52,M,10.00,24.00,SCT,BKN,M,M,2700.00,10000.00,M,M,M,M,M,M,M,M,M,37.36,KEWR 261212Z 25016G24KT 10SM SCT027 BKN100 07/02 A2952 RMK AO2 T00720022,M
EWR,2023-01-26 07:51,45.00,34.00,65.13,250.00,20.00,0.00,29.53,1000.00,10.00,M,FEW,BKN,BKN,M,2800.00,4000.00,10000.00,M,M,M,M,M,27.00,250.00,2023-01-26 07:47,36.41,KEWR 261251Z 25020KT 10SM FEW028 BKN040 BKN100 07/01 A2953 RMK AO2 PK WND 25027/1247 SLP000 T00720011,M
EWR,2023-01-26 08:51,45.00,33.00,62.83,240.00,16.00,0.00,29.57,1001.20,10.00,25.00,FEW,BKN,M,M,3000.00,4200.00,M,M,M,M,M,M,29.00,260.00,2023-01-26 08:28,37.36,KEWR 261351Z 24016G25KT 10SM FEW030 BKN042 07/01 A2957 RMK AO2 PK WND 26029/1328 SLP012 T00720006,M
EWR,2023-01-26 09:51,46.00,32.00,57.87,260.00,23.00,0.00,29.59,1002.00,10.00,29.00,FEW,BKN,M,M,3000.00,3600.00,M,M,M,M,M,M,29.00,260.00,2023-01-26 09:49,37.13,KEWR 261451Z 26023G29KT 10SM FEW030 BKN036 08/00 A2959 RMK AO2 PK WND 26029/1449 SLP020 T00780000 51029,M
EWR,2023-01-26 10:51,46.00,28.90,51.03,250.00,23.00,0.00,29.61,1002.50,10.00,33.00,FEW,OVC,M,M,3500.00,4500.00,M,M,M,M,M,M,33.00,250.00,2023-01-26 10:51,37.13,KEWR 261551Z 25023G33KT 10SM FEW035 OVC045 08/M02 A2961 RMK AO2 PK WND 25033/1551 SLP025 T00781017,M
EWR,2023-01-26 11:51,45.00,28.00,51.08,250.00,24.00,0.00,29.62,1003.00,10.00,33.00,OVC,M,M,M,4000.00,M,M,M,M,M,M,M,34.00,260.00,2023-01-26 11:25,35.60,KEWR 261651Z 25024G33KT 10SM OVC040 07/M02 A2962 RMK AO2 PK WND 26034/1625 SLP030 T00721022,M
EWR,2023-01-26 12:51,46.00,28.00,49.18,260.00,17.00,0.00,29.63,1003.20,10.00,28.00,OVC,M,M,M,4200.00,M,M,M,M,M,M,M,33.00,250.00,2023-01-26 12:32,38.42,KEWR 261751Z 26017G28KT 10SM OVC042 08/M02 A2963 RMK AO2 PK WND 25033/1732 SLP032 T00781022 10078 20072 51011,M
EWR,2023-01-26 13:51,45.00,27.00,49.02,260.00,22.00,0.00,29.64,1003.60,10.00,31.00,OVC,M,M,M,4400.00,M,M,M,M,M,M,M,38.00,260.00,2023-01-26 13:00,35.99,KEWR 261851Z 26022G31KT 10SM OVC044 07/M03 A2964 RMK AO2 PK WND 26038/1800 SLP036 T00721028,M
EWR,2023-01-26 14:51,45.00,27.00,49.02,260.00,18.00,0.00,29.67,1004.60,10.00,29.00,OVC,M,M,M,4800.00,M,M,M,M,M,M,M,38.00,250.00,2023-01-26 14:04,36.86,KEWR 261951Z 26018G29KT 10SM OVC048 07/M03 A2967 RMK AO2 PK WND 25038/1904 SLP046 T00721028,M
EWR,2023-01-26 15:51,45.00,26.10,47.23,250.00,23.00,0.00,29.71,1005.90,10.00,30.00,BKN,M,M,M,4800.00,M,M,M,M,M,M,M,33.00,260.00,2023-01-26 15:25,35.79,KEWR 262051Z 25023G30KT 10SM BKN048 07/M03 A2971 RMK AO2 PK WND 26033/2025 SLP059 T00721033 53027,M
EWR,2023-01-26 16:51,45.00,24.10,43.46,270.00,20.00,0.00,29.74,1007.10,10.00,29.00,BKN,M,M,M,5000.00,M,M,M,M,M,M,M,31.00,260.00,2023-01-26 16:12,36.41,KEWR 262151Z 27020G29KT 10SM BKN050 07/M04 A2974 RMK AO2 PK WND 26031/2112 SLP071 T00721044,M
EWR,2023-01-26 17:51,44.00,24.10,44.98,260.00,17.00,0.00,29.78,1008.30,10.00,28.00,BKN,M,M,M,6000.00,M,M,M,M,M,M,M,31.00,270.00,2023-01-26 17:01,35.93,KEWR 262251Z 26017G28KT 10SM BKN060 07/M04 A2978 RMK AO2 PK WND 27031/2201 SLP083 T00671044,M
EWR,2023-01-26 18:51,43.00,25.00,48.70,250.00,14.00,0.00,29.81,1009.40,10.00,20.00,BKN,M,M,M,5000.00,M,M,M,M,M,M,M,28.00,270.00,2023-01-26 18:01,35.34,KEWR 262351Z 25014G20KT 10SM BKN050 06/M04 A2981 RMK AO2 PK WND 27028/2301 SLP094 T00611039 10078 20061 51036,M
EWR,2023-01-26 19:51,43.00,25.00,48.70,250.00,13.00,0.00,29.84,1010.40,10.00,23.00,BKN,M,M,M,5500.00,M,M,M,M,M,M,M,M,M,M,35.66,KEWR 270051Z 25013G23KT 10SM BKN055 06/M04 A2984 RMK AO2 SLP104 T00611039,M
EWR,2023-01-26 20:51,42.00,25.00,50.42,240.00,14.00,0.00,29.86,1011.10,10.00,19.00,FEW,M,M,M,5000.00,M,M,M,M,M,M,M,M,M,M,34.18,KEWR 270151Z 24014G19KT 10SM FEW050 06/M04 A2986 RMK AO2 SLP111 T00561039,M
EWR,2023-01-26 21:51,41.00,26.10,55.07,240.00,9.00,0.00,29.88,1011.80,10.00,M,FEW,M,M,M,5500.00,M,M,M,M,M,M,M,M,M,M,34.70,KEWR 270251Z 24009KT 10SM FEW055 05/M03 A2988 RMK AO2 SLP118 T00501033 51024,M
EWR,2023-01-26 22:51,41.00,26.10,55.07,250.00,12.00,0.00,29.89,1012.20,10.00,M,BKN,M,M,M,6000.00,M,M,M,M,M,M,M,M,M,M,33.46,KEWR 270351Z 25012KT 10SM BKN060 05/M03 A2989 RMK AO2 SLP122 T00501033,M
EWR,2023-01-26 23:51,40.00,26.10,57.47,230.00,10.00,0.00,29.91,1012.70,10.00,M,BKN,M,M,M,6500.00,M,M,M,M,M,M,M,M,M,M,32.87,KEWR 270451Z 23010KT 10SM BKN065 04/M03 A2991 RMK AO2 SLP127 T00441033 401440044,M
EWR,2023-01-27 00:51,38.00,27.00,64.49,230.00,11.00,0.00,29.93,1013.50,10.00,M,SCT,M,M,M,6500.00,M,M,M,M,M,M,M,M,M,M,29.92,KEWR 270551Z 23011KT 10SM SCT065 03/M03 A2993 RMK AO2 SLP135 T00331028 10067 20033 53016,M
EWR,2023-01-27 01:51,36.00,26.10,66.97,220.00,8.00,0.00,29.96,1014.40,10.00,M,FEW,M,M,M,6000.00,M,M,M,M,M,M,M,M,M,M,29.04,KEWR 270651Z 22008KT 10SM FEW060 02/M03 A2996 RMK AO2 SLP144 T00221033,M
EWR,2023-01-27 02:51,35.00,25.00,66.31,240.00,5.00,0.00,29.99,1015.30,10.00,M,FEW,M,M,M,6500.00,M,M,M,M,M,M,M,M,M,M,30.08,KEWR 270751Z 24005KT 10SM FEW065 02/M04 A2999 RMK AO2 SLP153 T00171039,M
EWR,2023-01-27 03:51,36.00,26.10,66.97,240.00,4.00,0.00,29.99,1015.50,10.00,M,FEW,M,M,M,5500.00,M,M,M,M,M,M,M,M,M,M,32.09,KEWR 270851Z 24004KT 10SM FEW055 02/M03 A2999 RMK AO2 SLP155 T00221033 51021,M
EWR,2023-01-27 04:51,35.00,26.10,69.41,250.00,3.00,0.00,30.00,1015.80,10.00,M,SCT,M,M,M,6500.00,M,M,M,M,M,M,M,M,M,M,32.23,KEWR 270951Z 25003KT 10SM SCT065 02/M03 A3000 RMK AO2 SLP158 T00171033,M
EWR,2023-01-27 05:51,33.00,26.10,75.18,240.00,6.00,0.00,30.03,1016.70,10.00,M,FEW,M,M,M,6500.00,M,M,M,M,M,M,M,M,M,M,26.86,KEWR 271051Z 24006KT 10SM FEW065 01/M03 A3003 RMK AO2 SLP167 T00061033,M
EWR,2023-01-27 06:51,35.00,27.00,72.04,250.00,6.00,0.00,30.06,1017.70,10.00,M,FEW,M,M,M,6500.00,M,M,M,M,M,M,M,M,M,M,29.26,KEWR 271151Z 25006KT 10SM FEW065 02/M03 A3006 RMK AO2 SLP177 T00171028 10033 21006 53021,M
EWR,2023-01-27 07:51,36.00,28.00,72.43,230.00,4.00,0.00,30.08,1018.70,10.00,M,FEW,FEW,M,M,3000.00,6500.00,M,M,M,M,M,M,M,M,M,32.09,KEWR 271251Z 23004KT 10SM FEW030 FEW065 02/M02 A3008 RMK AO2 SLP187 T00221022,M
EWR,2023-01-27 08:51,39.00,28.90,66.79,290.00,7.00,0.00,30.10,1019.20,10.00,M,SCT,M,M,M,5000.00,M,M,M,M,M,M,M,M,M,M,33.31,KEWR 271351Z 29007KT 10SM SCT050 04/M02 A3010 RMK AO2 SLP192 T00391017,M
EWR,2023-01-27 09:51,42.00,30.00,61.94,230.00,6.00,0.00,30.12,1019.90,10.00,M,FEW,FEW,M,M,4500.00,5500.00,M,M,M,M,M,M,M,M,M,37.69,KEWR 271451Z 23006KT 10SM FEW045 FEW055 06/M01 A3012 RMK AO2 SLP199 T00561011 51022,M
EWR,2023-01-27 10:51,41.00,27.00,57.15,240.00,11.00,0.00,30.13,1020.10,10.00,M,BKN,BKN,BKN,M,3000.00,3700.00,7000.00,M,M,M,M,M,M,M,M,33.84,KEWR 271551Z 24011KT 10SM BKN030 BKN037 BKN070 05/M03 A3013 RMK AO2 SLP201 T00501028,M
EWR,2023-01-27 11:51,42.00,27.00,54.78,240.00,9.00,0.00,30.10,1019.20,10.00,M,FEW,SCT,BKN,M,3000.00,4200.00,6500.00,M,M,M,M,M,M,M,M,36.07,KEWR 271651Z 24009KT 10SM FEW030 SCT042 BKN065 06/M03 A3010 RMK AO2 SLP192 T00561028,M
EWR,2023-01-27 12:51,42.00,23.00,46.37,270.00,10.00,0.00,30.08,1018.40,10.00,M,FEW,SCT,BKN,M,3200.00,4400.00,6000.00,M,M,M,M,M,M,M,M,35.63,KEWR 271751Z 27010KT 10SM FEW032 SCT044 BKN060 06/M05 A3008 RMK AO2 SLP184 T00561050 10067 20011 58015,M
EWR,2023-01-27 13:51,43.00,19.00,37.81,250.00,8.00,0.00,30.08,1018.40,10.00,M,SCT,BKN,M,M,4500.00,6000.00,M,M,M,M,M,M,M,M,M,37.66,KEWR 271851Z 25008KT 10SM SCT045 BKN060 06/M07 A3008 RMK AO2 SLP184 T00611072,M
EWR,2023-01-27 14:51,43.00,19.00,37.81,240.00,12.00,0.00,30.09,1019.00,10.00,M,FEW,SCT,BKN,M,4500.00,6000.00,8000.00,M,M,M,M,M,M,M,M,36.00,KEWR 271951Z 24012KT 10SM FEW045 SCT060 BKN080 06/M07 A3009 RMK AO2 SLP190 T00611072,M
EWR,2023-01-27 15:51,42.00,18.00,37.49,270.00,10.00,0.00,30.11,1019.50,10.00,M,FEW,BKN,M,M,5500.00,7500.00,M,M,M,M,M,M,M,M,M,35.63,KEWR 272051Z 27010KT 10SM FEW055 BKN075 06/M08 A3011 RMK AO2 SLP195 T00561078 53011,M
EWR,2023-01-27 16:51,41.00,19.90,42.44,230.00,10.00,0.00,30.13,1020.10,10.00,M,FEW,BKN,M,M,5000.00,7000.00,M,M,M,M,M,M,M,M,M,34.25,KEWR 272151Z 23010KT 10SM FEW050 BKN070 05/M07 A3013 RMK AO2 SLP201 T00501067,M
EWR,2023-01-27 17:51,40.00,19.90,44.29,250.00,7.00,0.00,30.15,1020.70,10.00,M,FEW,SCT,M,M,5000.00,6500.00,M,M,M,M,M,M,M,M,M,34.41,KEWR 272251Z 25007KT 10SM FEW050 SCT065 04/M07 A3015 RMK AO2 SLP207 T00441067,M
EWR,2023-01-27 18:51,39.00,21.00,48.06,240.00,6.00,0.00,30.16,1021.20,10.00,M,FEW,M,M,M,5500.00,M,M,M,M,M,M,M,M,M,M,33.96,KEWR 272351Z 24006KT 10SM FEW055 04/M06 A3016 RMK AO2 SLP212 T00391061 10072 20039 51017,M
EWR,2023-01-27 19:51,37.00,21.00,51.99,230.00,8.00,0.00,30.18,1021.80,10.00,M,FEW,FEW,M,M,5500.00,7500.00,M,M,M,M,M,M,M,M,M,30.27,KEWR 280051Z 23008KT 10SM FEW055 FEW075 03/M06 A3018 RMK AO2 SLP218 T00281061,M
EWR,2023-01-27 20:51,36.00,21.90,56.18,230.00,7.00,0.00,30.20,1022.50,10.00,M,FEW,SCT,M,M,5500.00,8000.00,M,M,M,M,M,M,M,M,M,29.65,KEWR 280151Z 23007KT 10SM FEW055 SCT080 02/M06 A3020 RMK AO2 SLP225 T00221056,M
EWR,2023-01-27 21:51,36.00,21.00,54.08,220.00,7.00,0.00,30.20,1022.50,10.00,M,FEW,FEW,M,M,8000.00,25000.00,M,M,M,M,M,M,M,M,M,29.65,KEWR 280251Z 22007KT 10SM FEW080 FEW250 02/M06 A3020 RMK AO2 SLP225 T00221061 51013,M
EWR,2023-01-27 22:51,32.00,19.90,60.55,210.00,6.00,0.00,30.19,1022.10,10.00,M,FEW,FEW,M,M,9000.00,25000.00,M,M,M,M,M,M,M,M,M,25.53,KEWR 280351Z 21006KT 10SM FEW090 FEW250 00/M07 A3019 RMK AO2 SLP221 T00001067,M
EWR,2023-01-27 23:51,35.00,21.00,56.05,180.00,4.00,0.00,30.17,1021.60,10.00,M,FEW,M,M,M,9000.00,M,M,M,M,M,M,M,M,M,M,31.04,KEWR 280451Z 18004KT 10SM FEW090 02/M06 A3017 RMK AO2 SLP216 T00171061 400721006,M
EWR,2023-01-28 00:51,33.00,21.00,60.71,220.00,4.00,0.00,30.18,1021.80,10.00,M,SCT,M,M,M,12000.00,M,M,M,M,M,M,M,M,M,M,28.70,KEWR 280551Z 22004KT 10SM SCT120 01/M06 A3018 RMK AO2 SLP218 T00061061 10039 20000 55007,M
EWR,2023-01-28 01:51,32.00,21.00,63.45,190.00,3.00,0.00,30.19,1022.10,10.00,M,BKN,M,M,M,11000.00,M,M,M,M,M,M,M,M,M,M,28.69,KEWR 280651Z 19003KT 10SM BKN110 00/M06 A3019 RMK AO2 SLP221 T00001061,M
EWR,2023-01-28 02:51,35.00,21.90,58.22,200.00,4.00,0.00,30.18,1022.00,10.00,M,FEW,OVC,M,M,7000.00,9500.00,M,M,M,M,M,M,M,M,M,31.04,KEWR 280751Z 20004KT 10SM FEW070 OVC095 02/M06 A3018 RMK AO2 SLP220 T00171056,M
EWR,2023-01-28 03:22,37.00,23.00,56.57,190.00,6.00,T,30.18,M,10.00,M,BKN,OVC,M,M,7000.00,9500.00,M,M,-SN,M,M,M,M,M,M,31.55,KEWR 280822Z 19006KT 10SM -SN BKN070 OVC095 03/M05 A3018 RMK AO2 SNB22 P0000 T00281050,M
EWR,2023-01-28 03:38,37.00,23.00,56.57,200.00,12.00,T,30.18,M,10.00,M,OVC,M,M,M,7000.00,M,M,M,M,M,M,M,M,M,M,28.37,KEWR 280838Z 20012KT 10SM OVC070 03/M05 A3018 RMK AO2 SNB22E38 P0000 T00281050,M
EWR,2023-01-28 03:51,37.00,23.00,56.57,210.00,13.00,T,30.18,1022.00,10.00,M,OVC,M,M,M,7000.00,M,M,M,M,M,M,M,M,M,M,27.97,KEWR 280851Z 21013KT 10SM OVC070 03/M05 A3018 RMK AO2 SNB22E38 SLP220 P0000 60000 T00281050 51002,M
EWR,2023-01-28 04:51,37.00,24.10,59.24,190.00,7.00,0.00,30.18,1021.90,10.00,M,SCT,BKN,M,M,6500.00,10000.00,M,M,M,M,M,M,M,M,M,30.87,KEWR 280951Z 19007KT 10SM SCT065 BKN100 03/M04 A3018 RMK AO2 SLP219 T00281044,M
EWR,2023-01-28 05:51,36.00,25.00,63.98,200.00,6.00,0.00,30.19,1022.10,10.00,M,FEW,BKN,M,M,6500.00,9000.00,M,M,M,M,M,M,M,M,M,30.35,KEWR 281051Z 20006KT 10SM FEW065 BKN090 02/M04 A3019 RMK AO2 SLP221 T00221039,M
EWR,2023-01-28 06:51,35.00,24.10,63.86,210.00,5.00,0.00,30.19,1022.30,10.00,M,FEW,BKN,M,M,6000.00,9500.00,M,M,M,M,M,M,M,M,M,30.08,KEWR 281151Z 21005KT 10SM FEW060 BKN095 02/M04 A3019 RMK AO2 SLP223 60000 T00171044 10033 21006 53003,M
EWR,2023-01-28 07:51,36.00,25.00,63.98,220.00,7.00,0.00,30.21,1022.80,10.00,M,BKN,M,M,M,8000.00,M,M,M,M,M,M,M,M,M,M,29.65,KEWR 281251Z 22007KT 10SM BKN080 02/M04 A3021 RMK AO2 SLP228 T00221039,M
EWR,2023-01-28 08:51,40.00,26.10,57.47,220.00,7.00,0.00,30.23,1023.70,10.00,M,CLR,M,M,M,M,M,M,M,M,M,M,M,M,M,M,34.41,KEWR 281351Z 22007KT 10SM CLR 04/M03 A3023 RMK AO2 SLP237 T00441033,M
EWR,2023-01-28 08:54,40.00,26.10,57.47,220.00,8.00,0.00,30.23,M,10.00,M,FEW,M,M,M,7000.00,M,M,M,M,M,M,M,M,M,M,33.84,KEWR 281354Z 22008KT 10SM FEW070 04/M03 A3023 RMK AO2 T00441033,M
EWR,2023-01-28 09:51,44.00,26.10,48.88,230.00,11.00,0.00,30.25,1024.20,10.00,M,FEW,M,M,M,7000.00,M,M,M,M,M,M,M,M,M,M,37.76,KEWR 281451Z 23011KT 10SM FEW070 07/M03 A3025 RMK AO2 SLP242 T00671033 53019,M
EWR,2023-01-28 10:51,48.00,27.00,43.77,230.00,9.00,0.00,30.25,1024.40,10.00,M,FEW,FEW,M,M,7000.00,25000.00,M,M,M,M,M,M,M,M,M,43.41,KEWR 281551Z 23009KT 10SM FEW070 FEW250 09/M03 A3025 RMK AO2 SLP244 T00891028,M
EWR,2023-01-28 11:51,53.00,26.10,34.90,260.00,18.00,0.00,30.23,1023.70,10.00,22.00,FEW,SCT,M,M,7000.00,25000.00,M,M,M,M,M,M,M,M,M,53.10,KEWR 281651Z 26018G22KT 10SM FEW070 SCT250 12/M03 A3023 RMK AO2 SLP237 T01171033,M
EWR,2023-01-28 12:51,53.00,23.00,30.67,270.00,15.00,0.00,30.22,1023.30,10.00,23.00,FEW,SCT,M,M,7000.00,25000.00,M,M,M,M,M,M,29.00,280.00,2023-01-28 12:40,53.10,KEWR 281751Z 27015G23KT 10SM FEW070 SCT250 12/M05 A3022 RMK AO2 PK WND 28029/1740 SLP233 T01171050 10122 20017 58009,M
EWR,2023-01-28 13:51,54.00,23.00,29.67,260.00,13.00,0.00,30.21,1022.90,10.00,M,FEW,BKN,M,M,7000.00,25000.00,M,M,M,M,M,M,M,M,M,54.00,KEWR 281851Z 26013KT 10SM FEW070 BKN250 12/M05 A3021 RMK AO2 SLP229 T01221050,M
EWR,2023-01-28 14:51,53.00,24.10,32.11,260.00,11.00,0.00,30.23,1023.50,10.00,M,FEW,BKN,M,M,7000.00,17000.00,M,M,M,M,M,M,M,M,M,53.10,KEWR 281951Z 26011KT 10SM FEW070 BKN170 12/M04 A3023 RMK AO2 SLP235 T01171044,M
EWR,2023-01-28 15:51,53.00,23.00,30.67,260.00,9.00,0.00,30.24,1024.00,10.00,M,FEW,BKN,M,M,7000.00,17000.00,M,M,M,M,M,M,M,M,M,53.10,KEWR 282051Z 26009KT 10SM FEW070 BKN170 12/M05 A3024 RMK AO2 SLP240 T01171050 53007,M
EWR,2023-01-28 16:51,52.00,24.10,33.44,250.00,7.00,0.00,30.26,1024.60,10.00,M,FEW,BKN,M,M,7000.00,17000.00,M,M,M,M,M,M,M,M,M,52.00,KEWR 282151Z 25007KT 10SM FEW070 BKN170 11/M04 A3026 RMK AO2 SLP246 T01111044,M
EWR,2023-01-28 17:51,50.00,26.10,39.14,230.00,8.00,0.00,30.28,1025.30,10.00,M,FEW,BKN,M,M,7000.00,17000.00,M,M,M,M,M,M,M,M,M,50.00,KEWR 282251Z 23008KT 10SM FEW070 BKN170 10/M03 A3028 RMK AO2 SLP253 T01001033,M
EWR,2023-01-28 18:51,50.00,28.00,42.33,220.00,10.00,0.00,30.30,1026.00,10.00,M,FEW,BKN,BKN,M,7000.00,16000.00,19000.00,M,M,M,M,M,M,M,M,50.00,KEWR 282351Z 22010KT 10SM FEW070 BKN160 BKN190 10/M02 A3030 RMK AO2 SLP260 T01001022 10128 20094 53020,M
EWR,2023-01-28 19:51,50.00,28.00,42.33,230.00,10.00,0.00,30.30,1026.10,10.00,M,BKN,M,M,M,18000.00,M,M,M,M,M,M,M,M,M,M,50.00,KEWR 290051Z 23010KT 10SM BKN180 10/M02 A3030 RMK AO2 SLP261 T01001022,M
EWR,2023-01-28 20:51,47.00,28.90,49.32,200.00,5.00,0.00,30.31,1026.40,10.00,M,BKN,M,M,M,18000.00,M,M,M,M,M,M,M,M,M,M,44.09,KEWR 290151Z 20005KT 10SM BKN180 08/M02 A3031 RMK AO2 SLP264 T00831017,M
EWR,2023-01-28 21:51,47.00,28.00,47.54,0.00,0.00,0.00,30.32,1026.70,10.00,M,BKN,M,M,M,18000.00,M,M,M,M,M,M,M,M,M,M,46.90,KEWR 290251Z 00000KT 10SM BKN180 08/M02 A3032 RMK AO2 SLP267 T00831022 53006,M
EWR,2023-01-28 22:51,44.00,28.90,54.85,230.00,3.00,0.00,30.32,1026.70,10.00,M,BKN,M,M,M,18000.00,M,M,M,M,M,M,M,M,M,M,42.52,KEWR 290351Z 23003KT 10SM BKN180 07/M02 A3032 RMK AO2 SLP267 T00671017,M
EWR,2023-01-28 23:51,45.00,28.00,51.08,260.00,3.00,0.00,30.32,1026.70,10.00,M,BKN,M,M,M,18000.00,M,M,M,M,M,M,M,M,M,M,43.55,KEWR 290451Z 26003KT 10SM BKN180 07/M02 A3032 RMK AO2 SLP267 T00721022 401281006,M
EWR,2023-01-29 00:51,45.00,28.00,51.08,210.00,3.00,0.00,30.31,1026.20,10.00,M,BKN,M,M,M,17000.00,M,M,M,M,M,M,M,M,M,M,43.55,KEWR 290551Z 21003KT 10SM BKN170 07/M02 A3031 RMK AO2 SLP262 T00721022 10100 20061 58004,M
EWR,2023-01-29 01:51,43.00,28.90,57.21,0.00,0.00,0.00,30.31,1026.40,10.00,M,SCT,M,M,M,17000.00,M,M,M,M,M,M,M,M,M,M,43.00,KEWR 290651Z 00000KT 10SM SCT170 06/M02 A3031 RMK AO2 SLP264 T00611017,M
EWR,2023-01-29 02:51,41.00,28.90,61.79,150.00,3.00,0.00,30.31,1026.20,10.00,M,FEW,BKN,M,M,17000.00,22000.00,M,M,M,M,M,M,M,M,M,38.98,KEWR 290751Z 15003KT 10SM FEW170 BKN220 05/M02 A3031 RMK AO2 SLP262 T00501017,M
EWR,2023-01-29 03:51,39.00,28.00,64.37,180.00,3.00,0.00,30.31,1026.10,10.00,M,BKN,M,M,M,22000.00,M,M,M,M,M,M,M,M,M,M,36.69,KEWR 290851Z 18003KT 10SM BKN220 04/M02 A3031 RMK AO2 SLP261 T00391022 58001,M
EWR,2023-01-29 04:51,41.00,28.90,61.79,0.00,0.00,0.00,30.29,1025.70,10.00,M,SCT,M,M,M,22000.00,M,M,M,M,M,M,M,M,M,M,41.00,KEWR 290951Z 00000KT 10SM SCT220 05/M02 A3029 RMK AO2 SLP257 T00501017,M
EWR,2023-01-29 05:51,41.00,30.00,64.63,0.00,0.00,0.00,30.29,1025.40,10.00,M,BKN,M,M,M,22000.00,M,M,M,M,M,M,M,M,M,M,41.00,KEWR 291051Z 00000KT 10SM BKN220 05/M01 A3029 RMK AO2 SLP254 T00501011,M
EWR,2023-01-29 06:51,41.00,30.00,64.63,0.00,0.00,0.00,30.28,1025.30,10.00,M,BKN,M,M,M,22000.00,M,M,M,M,M,M,M,M,M,M,41.00,KEWR 291151Z 00000KT 10SM BKN220 05/M01 A3028 RMK AO2 SLP253 T00501011 10067 20033 56008,M
EWR,2023-01-29 07:51,42.00,32.00,67.17,0.00,0.00,0.00,30.27,1025.10,10.00,M,FEW,BKN,M,M,16000.00,22000.00,M,M,M,M,M,M,M,M,M,42.10,KEWR 291251Z 00000KT 10SM FEW160 BKN220 06/00 A3027 RMK AO2 SLP251 T00560000,M
EWR,2023-01-29 08:51,44.00,32.00,62.21,170.00,3.00,0.00,30.28,1025.20,10.00,M,FEW,BKN,BKN,M,9000.00,16000.00,22000.00,M,M,M,M,M,M,M,M,42.52,KEWR 291351Z 17003KT 10SM FEW090 BKN160 BKN220 07/00 A3028 RMK AO2 SLP252 T00670000,M
EWR,2023-01-29 09:51,46.00,33.00,60.49,190.00,6.00,0.00,30.26,1024.50,10.00,M,FEW,BKN,OVC,M,9000.00,16000.00,22000.00,M,M,M,M,M,M,M,M,42.39,KEWR 291451Z 19006KT 10SM FEW090 BKN160 OVC220 08/01 A3026 RMK AO2 SLP245 T00780006 58008,M
EWR,2023-01-29 10:51,48.00,33.00,56.10,190.00,8.00,0.00,30.23,1023.60,10.00,M,FEW,BKN,BKN,M,9000.00,15000.00,22000.00,M,M,M,M,M,M,M,M,43.82,KEWR 291551Z 19008KT 10SM FEW090 BKN150 BKN220 09/01 A3023 RMK AO2 SLP236 T00890006,M
EWR,2023-01-29 11:51,52.00,30.00,42.65,180.00,7.00,0.00,30.18,1021.90,10.00,M,FEW,SCT,BKN,OVC,9000.00,13000.00,17000.00,25000.00,M,M,M,M,M,M,M,52.00,KEWR 291651Z 18007KT 10SM FEW090 SCT130 BKN170 OVC250 11/M01 A3018 RMK AO2 SLP219 T01111011,M
EWR,2023-01-29 12:51,53.00,28.90,39.16,190.00,11.00,0.00,30.13,1020.40,10.00,M,BKN,BKN,OVC,M,12000.00,17000.00,25000.00,M,M,M,M,M,M,M,M,53.10,KEWR 291751Z 19011KT 10SM BKN120 BKN170 OVC250 12/M02 A3013 RMK AO2 SLP204 T01171017 10117 20044 58042,M
EWR,2023-01-29 13:51,54.00,28.00,36.52,200.00,16.00,0.00,30.11,1019.50,10.00,22.00,FEW,BKN,BKN,OVC,4000.00,10000.00,18000.00,25000.00,M,M,M,M,26.00,200.00,2023-01-29 13:37,54.00,KEWR 291851Z 20016G22KT 10SM FEW040 BKN100 BKN180 OVC250 12/M02 A3011 RMK AO2 PK WND 20026/1837 SLP195 T01221022,M
EWR,2023-01-29 14:51,54.00,30.00,39.63,200.00,9.00,0.00,30.09,1019.00,10.00,21.00,FEW,BKN,BKN,OVC,4500.00,10000.00,18000.00,25000.00,M,M,M,M,M,M,M,54.00,KEWR 291951Z 20009G21KT 10SM FEW045 BKN100 BKN180 OVC250 12/M01 A3009 RMK AO2 SLP190 T01221011,M
EWR,2023-01-29 15:51,54.00,28.90,37.89,220.00,14.00,0.00,30.11,1019.50,10.00,26.00,FEW,BKN,BKN,OVC,4500.00,9000.00,18000.00,25000.00,M,M,M,M,26.00,230.00,2023-01-29 15:46,54.00,KEWR 292051Z 22014G26KT 10SM FEW045 BKN090 BKN180 OVC250 12/M02 A3011 RMK AO2 PK WND 23026/2046 SLP195 T01221017 55008,M
EWR,2023-01-29 16:51,52.00,32.00,46.25,220.00,14.00,0.00,30.10,1019.20,10.00,19.00,FEW,BKN,OVC,M,4000.00,8000.00,20000.00,M,M,M,M,M,M,M,M,52.00,KEWR 292151Z 22014G19KT 10SM FEW040 BKN080 OVC200 11/00 A3010 RMK AO2 SLP192 T01110000,M
EWR,2023-01-29 17:51,52.00,33.00,48.34,230.00,10.00,0.00,30.11,1019.60,10.00,M,BKN,OVC,M,M,9500.00,20000.00,M,M,M,M,M,M,M,M,M,52.00,KEWR 292251Z 23010KT 10SM BKN095 OVC200 11/01 A3011 RMK AO2 SLP196 T01110006,M
EWR,2023-01-29 18:51,50.00,34.00,53.97,220.00,11.00,0.00,30.13,1020.10,10.00,M,BKN,OVC,M,M,9000.00,18000.00,M,M,M,M,M,M,M,M,M,50.00,KEWR 292351Z 22011KT 10SM BKN090 OVC180 10/01 A3013 RMK AO2 SLP201 VIRGA T01000011 10122 20100 53006,M
EWR,2023-01-29 19:51,49.00,34.00,56.23,220.00,7.00,0.00,30.12,1019.80,10.00,M,BKN,BKN,M,M,8500.00,20000.00,M,M,M,M,M,M,M,M,M,45.38,KEWR 300051Z 22007KT 10SM BKN085 BKN200 09/01 A3012 RMK AO2 SLP198 T00940011,M
EWR,2023-01-29 20:51,48.00,34.00,58.16,230.00,9.00,0.00,30.15,1020.90,10.00,M,FEW,BKN,BKN,M,4000.00,10000.00,20000.00,M,M,M,M,M,M,M,M,43.41,KEWR 300151Z 23009KT 10SM FEW040 BKN100 BKN200 09/01 A3015 RMK AO2 SLP209 T00890011,M
EWR,2023-01-29 21:51,46.00,35.00,65.52,230.00,9.00,0.00,30.16,1021.10,10.00,M,FEW,FEW,BKN,M,4000.00,10000.00,20000.00,M,M,M,M,M,M,M,M,40.92,KEWR 300251Z 23009KT 10SM FEW040 FEW100 BKN200 08/02 A3016 RMK AO2 SLP211 T00780017 53010,M
EWR,2023-01-29 22:51,45.00,35.00,68.05,230.00,7.00,0.00,30.15,1020.80,10.00,M,FEW,BKN,M,M,4000.00,20000.00,M,M,M,M,M,M,M,M,M,40.63,KEWR 300351Z 23007KT 10SM FEW040 BKN200 07/02 A3015 RMK AO2 SLP208 T00720017,M
EWR,2023-01-29 23:51,45.00,35.00,68.05,240.00,7.00,0.00,30.16,1021.10,10.00,M,FEW,BKN,M,M,7000.00,20000.00,M,M,M,M,M,M,M,M,M,40.63,KEWR 300451Z 24007KT 10SM FEW070 BKN200 07/02 A3016 RMK AO2 SLP211 T00720017 401220033,M
EWR,2023-01-30 00:51,44.00,35.00,70.43,230.00,8.00,0.00,30.15,1020.90,10.00,M,FEW,SCT,OVC,M,7000.00,20000.00,25000.00,M,M,M,M,M,M,M,M,39.02,KEWR 300551Z 23008KT 10SM FEW070 SCT200 OVC250 07/02 A3015 RMK AO2 SLP209 T00670017 10100 20067 56002,M
EWR,2023-01-30 01:51,43.00,35.00,73.45,230.00,8.00,0.00,30.16,1021.20,10.00,M,FEW,OVC,M,M,20000.00,25000.00,M,M,M,M,M,M,M,M,M,37.66,KEWR 300651Z 23008KT 10SM FEW200 OVC250 06/02 A3016 RMK AO2 SLP212 T00610017,M
EWR,2023-01-30 02:51,39.00,33.00,79.17,210.00,5.00,0.00,30.15,1021.00,10.00,M,OVC,M,M,M,25000.00,M,M,M,M,M,M,M,M,M,M,34.71,KEWR 300751Z 21005KT 10SM OVC250 04/01 A3015 RMK AO2 SLP210 T00390006,M
EWR,2023-01-30 03:51,40.00,34.00,79.25,220.00,4.00,0.00,30.15,1021.00,10.00,M,OVC,M,M,M,25000.00,M,M,M,M,M,M,M,M,M,M,36.65,KEWR 300851Z 22004KT 10SM OVC250 04/01 A3015 RMK AO2 SLP210 T00440011 51000,M
EWR,2023-01-30 04:51,39.00,33.00,79.17,220.00,3.00,0.00,30.17,1021.50,10.00,M,OVC,M,M,M,25000.00,M,M,M,M,M,M,M,M,M,M,36.69,KEWR 300951Z 22003KT 10SM OVC250 04/01 A3017 RMK AO2 SLP215 T00390006,M
EWR,2023-01-30 05:51,42.00,35.00,76.04,290.00,3.00,0.00,30.16,1021.20,10.00,M,OVC,M,M,M,24000.00,M,M,M,M,M,M,M,M,M,M,40.23,KEWR 301051Z 29003KT 10SM OVC240 06/02 A3016 RMK AO2 SLP212 T00560017,M
EWR,2023-01-30 06:51,42.00,34.00,72.78,270.00,3.00,0.00,30.18,1021.80,10.00,M,OVC,M,M,M,24000.00,M,M,M,M,M,M,M,M,M,M,40.23,KEWR 301151Z 27003KT 10SM OVC240 06/01 A3018 RMK AO2 SLP218 T00560011 10067 20039 53008,M
EWR,2023-01-30 07:51,42.00,35.00,76.04,170.00,3.00,0.00,30.18,1021.70,10.00,M,BKN,M,M,M,22000.00,M,M,M,M,M,M,M,M,M,M,40.23,KEWR 301251Z 17003KT 10SM BKN220 06/02 A3018 RMK AO2 SLP217 T00560017,M
EWR,2023-01-30 08:51,44.00,37.00,75.93,0.00,0.00,0.00,30.19,1022.20,10.00,M,BKN,BKN,M,M,19000.00,25000.00,M,M,M,M,M,M,M,M,M,44.10,KEWR 301351Z 00000KT 10SM BKN190 BKN250 07/03 A3019 RMK AO2 SLP222 T00670028,M
EWR,2023-01-30 09:51,47.00,39.00,73.85,M,3.00,0.00,30.21,1022.90,10.00,M,FEW,BKN,M,M,6000.00,20000.00,M,M,M,M,M,M,M,M,M,45.72,KEWR 301451Z VRB03KT 10SM FEW060 BKN200 08/04 A3021 RMK AO2 SLP229 T00830039 53011,M
EWR,2023-01-30 10:51,49.00,39.00,68.51,0.00,0.00,0.00,30.18,1022.00,10.00,M,FEW,SCT,BKN,M,6000.00,20000.00,25000.00,M,M,M,M,M,M,M,M,48.90,KEWR 301551Z 00000KT 10SM FEW060 SCT200 BKN250 09/04 A3018 RMK AO2 SLP220 T00940039,M
EWR,2023-01-30 11:51,52.00,38.00,58.48,200.00,4.00,0.00,30.16,1021.10,10.00,M,SCT,SCT,M,M,6000.00,25000.00,M,M,M,M,M,M,M,M,M,52.00,KEWR 301651Z 20004KT 10SM SCT060 SCT250 11/03 A3016 RMK AO2 SLP211 T01110033,M
EWR,2023-01-30 12:51,55.00,38.00,52.40,210.00,7.00,0.00,30.13,1020.30,10.00,M,FEW,SCT,BKN,M,3500.00,6000.00,25000.00,M,M,M,M,M,M,M,M,55.00,KEWR 301751Z 21007KT 160V230 10SM FEW035 SCT060 BKN250 13/03 A3013 RMK AO2 SLP203 T01280033 10128 20044 56026,M
EWR,2023-01-30 13:51,54.00,38.00,54.34,M,4.00,0.00,30.10,1019.20,10.00,M,FEW,BKN,BKN,M,3500.00,5500.00,25000.00,M,M,M,M,M,M,M,M,54.00,KEWR 301851Z VRB04KT 10SM FEW035 BKN055 BKN250 12/03 A3010 RMK AO2 SLP192 T01220033,M
EWR,2023-01-30 14:51,56.00,39.00,52.94,190.00,8.00,0.00,30.08,1018.70,10.00,M,FEW,SCT,SCT,M,3500.00,5000.00,25000.00,M,M,M,M,M,M,M,M,55.90,KEWR 301951Z 19008KT 10SM FEW035 SCT050 SCT250 13/04 A3008 RMK AO2 SLP187 T01330039 $,M
EWR,2023-01-30 15:51,56.00,38.00,50.71,230.00,7.00,0.00,30.06,1018.00,10.00,M,FEW,SCT,M,M,3500.00,25000.00,M,M,M,M,M,M,M,M,M,55.90,KEWR 302051Z 23007KT 10SM FEW035 SCT250 13/03 A3006 RMK AO2 SLP180 T01330033 56023 $,M
EWR,2023-01-30 16:51,53.00,38.00,56.17,160.00,5.00,0.00,30.08,1018.40,10.00,M,FEW,FEW,M,M,4000.00,25000.00,M,M,M,M,M,M,M,M,M,53.10,KEWR 302151Z 16005KT 10SM FEW040 FEW250 12/03 A3008 RMK AO2 SLP184 T01170033,M
EWR,2023-01-30 17:51,50.00,38.00,62.98,200.00,4.00,0.00,30.09,1018.90,10.00,M,FEW,FEW,M,M,4000.00,25000.00,M,M,M,M,M,M,M,M,M,50.00,KEWR 302251Z 20004KT 10SM FEW040 FEW250 10/03 A3009 RMK AO2 SLP189 T01000033,M
EWR,2023-01-30 18:51,51.00,38.00,60.46,220.00,9.00,0.00,30.10,1019.30,10.00,M,FEW,M,M,M,3800.00,M,M,M,M,M,M,M,M,M,M,51.10,KEWR 302351Z 22009KT 10SM FEW038 11/03 A3010 RMK AO2 SLP193 T01060033 10139 20089 51013,M
EWR,2023-01-30 19:51,49.00,38.00,65.62,200.00,5.00,0.00,30.08,1018.40,10.00,M,FEW,M,M,M,3800.00,M,M,M,M,M,M,M,M,M,M,46.47,KEWR 310051Z 20005KT 10SM FEW038 09/03 A3008 RMK AO2 SLP184 T00940033,M
EWR,2023-01-30 20:51,48.00,38.00,67.87,220.00,4.00,0.00,30.07,1018.30,10.00,M,FEW,SCT,M,M,4000.00,10000.00,M,M,M,M,M,M,M,M,M,46.10,KEWR 310151Z 22004KT 10SM FEW040 SCT100 09/03 A3007 RMK AO2 SLP183 T00890033,M
EWR,2023-01-30 21:51,49.00,39.00,68.51,260.00,8.00,0.00,30.09,1018.70,10.00,M,FEW,BKN,M,M,4000.00,8000.00,M,M,M,M,M,M,M,M,M,44.93,KEWR 310251Z 26008KT 10SM FEW040 BKN080 09/04 A3009 RMK AO2 SLP187 T00940039 55005,M
EWR,2023-01-30 22:51,46.00,37.00,70.64,210.00,5.00,0.00,30.06,1018.00,10.00,M,SCT,BKN,M,M,6000.00,9500.00,M,M,M,M,M,M,M,M,M,43.02,KEWR 310351Z 21005KT 10SM SCT060 BKN095 08/03 A3006 RMK AO2 SLP180 T00780028,M
EWR,2023-01-30 23:51,48.00,39.00,70.85,240.00,8.00,0.00,30.06,1018.00,10.00,M,BKN,BKN,M,M,5500.00,9000.00,M,M,M,M,M,M,M,M,M,43.82,KEWR 310451Z 24008KT 10SM BKN055 BKN090 09/04 A3006 RMK AO2 SLP180 T00890039 401390039,M
